{"type": "FeatureCollection", "features": [{"type": "Feature", "geometry": {"type": "Polygon", "coordinates": [[[6.41328, 52.985523], [6.362521, 53.033969], [6.367811, 53.06736], [6.305274, 53.08119], [6.315157, 53.094053], [6.344433, 53.087135], [6.35662, 53.107085], [6.363558, 53.107552], [6.365855, 53.122228], [6.382612, 53.14957], [6.381414, 53.153506], [6.395165, 53.163577], [6.402922, 53.167206], [6.406985, 53.177654], [6.442867, 53.18774], [6.447712, 53.196441], [6.485458, 53.203829], [6.492593, 53.201386], [6.494227, 53.198218], [6.506859, 53.200144], [6.530492, 53.195559], [6.534282, 53.184085], [6.541744, 53.17861], [6.548188, 53.181098], [6.559497, 53.169106], [6.563687, 53.157638], [6.581515, 53.163584], [6.583573, 53.157867], [6.587089, 53.156226], [6.584521, 53.153509], [6.587964, 53.145436], [6.599984, 53.144724], [6.6144, 53.135557], [6.613641, 53.132694], [6.61902, 53.131552], [6.621904, 53.126195], [6.630831, 53.119211], [6.628056, 53.115647], [6.636597, 53.112843], [6.635111, 53.111461], [6.637086, 53.108301], [6.634832, 53.106202], [6.670602, 53.116516], [6.695367, 53.121176], [6.737451, 53.119462], [6.743254, 53.116568], [6.93661, 52.99276], [7.016197, 52.924426], [7.026113, 52.919161], [7.045571, 52.915909], [7.014799, 52.872987], [7.040242, 52.872903], [7.043486, 52.865219], [7.046433, 52.865856], [7.062747, 52.851448], [7.065917, 52.851642], [7.069557, 52.847748], [7.07626, 52.850031], [7.072193, 52.845211], [7.072148, 52.838405], [7.09274, 52.838196], [7.071551, 52.810421], [7.055729, 52.64342], [7.041922, 52.632808], [7.035339, 52.634872], [7.012492, 52.636777], [7.001877, 52.641919], [6.992459, 52.641332], [6.975985, 52.646255], [6.968001, 52.641739], [6.959311, 52.641745], [6.953781, 52.639027], [6.945427, 52.639342], [6.938854, 52.637872], [6.928522, 52.640185], [6.918972, 52.639912], [6.915692, 52.641815], [6.914464, 52.646482], [6.902938, 52.648594], [6.896813, 52.651417], [6.87995, 52.650548], [6.872811, 52.653271], [6.864597, 52.649817], [6.850989, 52.648604], [6.83746, 52.651943], [6.818861, 52.64768], [6.807916, 52.649123], [6.803327, 52.651852], [6.79429, 52.650657], [6.789746, 52.652797], [6.777431, 52.651661], [6.767879, 52.646851], [6.758848, 52.648825], [6.753452, 52.645806], [6.752775, 52.648147], [6.741984, 52.645333], [6.726398, 52.63322], [6.707171, 52.62676], [6.700792, 52.62841], [6.706526, 52.639542], [6.701153, 52.641736], [6.705677, 52.643478], [6.708547, 52.648715], [6.682509, 52.654179], [6.614527, 52.674049], [6.552821, 52.665595], [6.513861, 52.646294], [6.518604, 52.614088], [6.512027, 52.61365], [6.504512, 52.617058], [6.49185, 52.619144], [6.478016, 52.618631], [6.470073, 52.625007], [6.463285, 52.623514], [6.459788, 52.61576], [6.455138, 52.61544], [6.453366, 52.613946], [6.44188, 52.615637], [6.434934, 52.619286], [6.433803, 52.626409], [6.431243, 52.628378], [6.428176, 52.628188], [6.426794, 52.624527], [6.420236, 52.622318], [6.418808, 52.619023], [6.412859, 52.619574], [6.409502, 52.621733], [6.406251, 52.620694], [6.406858, 52.617781], [6.403767, 52.616271], [6.396035, 52.617788], [6.391522, 52.614519], [6.383837, 52.612198], [6.382796, 52.615661], [6.38032, 52.614975], [6.37651, 52.616924], [6.377178, 52.620361], [6.373253, 52.623837], [6.375206, 52.627408], [6.371485, 52.631792], [6.36918, 52.632067], [6.369522, 52.635484], [6.363019, 52.639058], [6.364441, 52.643175], [6.359751, 52.645562], [6.353338, 52.645963], [6.353299, 52.647814], [6.346968, 52.649152], [6.341395, 52.654121], [6.334003, 52.654699], [6.332638, 52.656751], [6.32629, 52.658986], [6.325876, 52.662865], [6.32929, 52.665398], [6.325022, 52.669952], [6.31679, 52.669909], [6.309759, 52.666751], [6.297563, 52.666369], [6.295367, 52.662286], [6.287487, 52.663453], [6.285465, 52.667022], [6.279163, 52.669053], [6.2732, 52.664837], [6.270067, 52.664794], [6.265794, 52.666865], [6.265401, 52.66918], [6.260535, 52.670478], [6.252001, 52.669881], [6.247286, 52.672811], [6.248365, 52.675617], [6.243761, 52.678718], [6.237075, 52.677548], [6.232843, 52.679109], [6.232741, 52.681455], [6.221091, 52.682779], [6.218708, 52.684327], [6.219807, 52.685704], [6.21665, 52.686406], [6.212536, 52.684634], [6.201682, 52.68462], [6.195036, 52.679573], [6.19423, 52.67663], [6.192055, 52.676426], [6.191444, 52.67932], [6.187862, 52.679614], [6.185871, 52.682504], [6.180548, 52.681588], [6.184208, 52.677208], [6.181933, 52.676868], [6.183147, 52.675063], [6.163885, 52.679506], [6.169651, 52.686121], [6.162185, 52.691279], [6.156607, 52.691957], [6.148498, 52.707631], [6.120332, 52.750149], [6.120557, 52.752468], [6.126617, 52.756935], [6.156703, 52.762699], [6.16394, 52.766449], [6.168525, 52.767093], [6.173099, 52.773317], [6.193808, 52.786403], [6.201731, 52.793696], [6.17723, 52.813851], [6.171682, 52.81506], [6.157644, 52.825036], [6.149199, 52.828402], [6.151962, 52.82883], [6.130312, 52.84393], [6.128694, 52.847807], [6.11982, 52.854215], [6.165993, 52.875027], [6.2069, 52.890744], [6.232291, 52.913438], [6.24483, 52.919587], [6.247553, 52.923692], [6.256593, 52.927641], [6.302985, 52.924972], [6.333281, 52.906356], [6.393436, 52.932843], [6.427615, 52.971815], [6.41328, 52.985523]]]}, "properties": {"name": "Drenthe", "regioFacetId": "tcm:106-353397-1024", "level": 3}}, {"type": "Feature", "geometry": {"type": "Polygon", "coordinates": [[[5.361147, 52.675726], [5.37726, 52.764805], [5.631353, 52.803055], [5.660296, 52.83125], [5.703103, 52.834346], [5.7033, 52.836393], [5.704282, 52.834431], [5.709636, 52.834817], [5.71322, 52.838189], [5.728663, 52.833398], [5.724682, 52.843982], [5.748807, 52.83968], [5.781029, 52.819593], [5.784382, 52.817476], [5.789807, 52.803691], [5.795177, 52.806522], [5.805926, 52.794859], [5.818656, 52.787636], [5.818792, 52.784697], [5.836254, 52.785637], [5.849699, 52.784739], [5.860258, 52.781817], [5.879683, 52.773251], [5.896085, 52.762822], [5.900054, 52.761195], [5.906009, 52.761326], [5.922574, 52.750692], [5.942555, 52.715002], [5.951161, 52.711919], [5.955316, 52.707262], [5.954839, 52.703768], [5.959012, 52.703863], [5.964825, 52.698104], [5.965155, 52.69357], [5.962105, 52.690351], [5.944708, 52.682713], [5.93387, 52.67551], [5.933084, 52.671264], [5.935148, 52.669234], [5.939726, 52.668835], [5.941594, 52.670517], [5.966852, 52.66658], [5.984048, 52.657192], [5.99953, 52.654636], [6.006915, 52.651286], [6.017301, 52.643232], [6.010491, 52.637882], [5.988626, 52.629324], [5.955285, 52.624842], [5.95562, 52.622917], [5.93269, 52.614923], [5.915664, 52.613534], [5.910602, 52.617661], [5.90547, 52.619215], [5.840525, 52.610413], [5.837214, 52.607331], [5.777968, 52.607534], [5.77793, 52.580852], [5.804283, 52.580738], [5.812006, 52.579169], [5.855076, 52.550824], [5.862055, 52.521583], [5.864502, 52.518653], [5.856698, 52.499806], [5.851009, 52.49539], [5.845591, 52.478202], [5.841472, 52.472275], [5.840256, 52.471058], [5.831385, 52.473402], [5.815608, 52.455215], [5.822411, 52.449706], [5.809586, 52.437659], [5.811475, 52.436923], [5.787257, 52.422573], [5.739428, 52.398421], [5.733397, 52.402533], [5.729447, 52.400973], [5.733472, 52.39716], [5.715584, 52.388037], [5.706752, 52.386635], [5.698762, 52.382004], [5.677659, 52.378721], [5.652554, 52.365428], [5.644867, 52.370864], [5.614039, 52.362257], [5.611638, 52.3595], [5.605469, 52.363361], [5.595456, 52.363448], [5.587707, 52.361454], [5.575604, 52.35076], [5.533281, 52.272741], [5.476849, 52.2624], [5.476122, 52.263924], [5.472299, 52.26374], [5.464459, 52.261828], [5.463376, 52.260003], [5.402897, 52.249527], [5.30726, 52.30679], [5.281141, 52.31677], [5.220406, 52.326054], [5.151132, 52.318647], [5.146144, 52.319669], [5.079289, 52.370408], [5.079162, 52.388654], [5.137331, 52.415553], [5.18549, 52.415644], [5.151024, 52.46636], [5.100722, 52.508041], [5.060428, 52.578936], [5.257187, 52.644471], [5.262266, 52.676829], [5.28645, 52.688749], [5.287619, 52.691656], [5.301635, 52.692427], [5.361147, 52.675726]]]}, "properties": {"name": "Flevoland", "regioFacetId": "tcm:106-353410-1024", "level": 3}}, {"type": "Feature", "geometry": {"type": "Polygon", "coordinates": [[[5.087069, 53.323072], [5.101778, 53.368034], [5.161774, 53.386132], [5.176693, 53.408621], [5.357119, 53.431264], [5.492587, 53.458176], [5.552856, 53.471585], [5.613209, 53.493949], [5.703443, 53.471284], [5.839015, 53.475344], [5.959612, 53.483816], [6.004929, 53.492577], [6.050125, 53.492337], [6.110461, 53.496483], [6.125992, 53.523344], [6.186128, 53.513975], [6.322071, 53.526476], [6.352528, 53.539713], [6.352123, 53.521746], [6.367249, 53.523871], [6.382272, 53.521501], [6.389704, 53.516947], [6.397029, 53.507901], [6.396923, 53.503409], [6.393051, 53.498949], [6.381647, 53.494551], [6.366633, 53.49692], [6.351567, 53.497042], [6.350426, 53.446268], [6.19402, 53.413289], [6.167945, 53.390759], [6.170524, 53.374782], [6.18015, 53.364067], [6.218892, 53.357407], [6.224972, 53.354307], [6.23048, 53.344746], [6.233595, 53.3431], [6.239299, 53.343039], [6.247577, 53.347472], [6.254047, 53.348593], [6.27368, 53.345271], [6.286981, 53.341382], [6.280503, 53.312581], [6.290412, 53.31113], [6.294361, 53.308173], [6.289651, 53.305073], [6.278428, 53.30283], [6.268717, 53.289773], [6.265629, 53.291217], [6.259904, 53.291076], [6.253228, 53.287928], [6.251409, 53.277255], [6.255529, 53.268983], [6.251984, 53.267405], [6.245215, 53.267628], [6.238844, 53.262807], [6.237732, 53.257666], [6.232105, 53.256695], [6.235101, 53.253355], [6.233705, 53.2508], [6.229481, 53.249826], [6.231948, 53.247198], [6.231043, 53.245067], [6.217978, 53.241932], [6.224972, 53.238593], [6.215543, 53.236985], [6.216753, 53.234342], [6.214302, 53.234067], [6.22472, 53.229984], [6.225339, 53.225455], [6.230173, 53.22244], [6.22998, 53.217788], [6.22475, 53.214579], [6.224803, 53.211948], [6.219058, 53.205994], [6.209426, 53.199884], [6.199621, 53.198355], [6.199432, 53.193254], [6.192854, 53.189068], [6.181375, 53.170557], [6.177781, 53.167929], [6.175235, 53.135903], [6.205048, 53.115484], [6.236355, 53.113385], [6.261092, 53.114341], [6.273904, 53.111253], [6.28305, 53.106863], [6.290566, 53.099829], [6.315157, 53.094053], [6.305274, 53.08119], [6.367811, 53.06736], [6.362521, 53.033969], [6.427615, 52.971815], [6.393436, 52.932843], [6.33446, 52.90657], [6.302985, 52.924972], [6.256593, 52.927641], [6.247553, 52.923692], [6.24483, 52.919587], [6.232291, 52.913438], [6.2069, 52.890744], [6.165993, 52.875027], [6.12125, 52.854744], [6.08748, 52.843114], [6.082608, 52.839151], [6.0615, 52.839297], [6.052607, 52.837339], [6.059951, 52.826119], [6.031168, 52.814991], [6.024559, 52.822545], [6.007483, 52.820046], [5.996508, 52.816562], [5.990575, 52.821597], [5.986479, 52.821693], [5.976175, 52.834748], [5.973128, 52.84247], [5.969976, 52.842375], [5.958098, 52.839395], [5.955764, 52.837374], [5.955784, 52.833235], [5.945933, 52.837452], [5.927079, 52.833827], [5.930689, 52.831938], [5.922841, 52.830792], [5.926407, 52.82835], [5.922905, 52.827452], [5.924079, 52.823488], [5.914998, 52.819456], [5.90937, 52.814059], [5.900657, 52.811825], [5.897881, 52.807803], [5.882578, 52.80392], [5.878763, 52.800849], [5.86868, 52.802726], [5.865636, 52.80465], [5.85964, 52.804536], [5.857027, 52.807229], [5.854667, 52.805507], [5.843594, 52.805033], [5.842202, 52.807584], [5.836474, 52.805793], [5.837365, 52.808262], [5.833629, 52.811656], [5.824198, 52.813277], [5.819744, 52.817278], [5.789807, 52.803691], [5.784382, 52.817476], [5.748807, 52.83968], [5.724682, 52.843982], [5.728663, 52.833398], [5.71322, 52.838189], [5.709636, 52.834817], [5.704282, 52.834431], [5.7033, 52.836393], [5.703103, 52.834346], [5.660296, 52.83125], [5.631353, 52.803055], [5.37726, 52.764805], [5.238682, 52.874061], [5.169135, 52.997612], [5.164249, 53.001004], [5.050953, 53.143266], [4.818376, 53.214275], [4.840601, 53.232349], [4.90769, 53.259593], [5.027117, 53.313923], [5.087069, 53.323072]]]}, "properties": {"name": "Friesland (Frysl\u00e2n)", "regioFacetId": "tcm:106-353417-1024", "level": 3}}, {"type": "Feature", "geometry": {"type": "Polygon", "coordinates": [[[5.606017, 51.994164], [5.591998, 52.001392], [5.591113, 52.007301], [5.586015, 52.011776], [5.586922, 52.015713], [5.589622, 52.015595], [5.590242, 52.020267], [5.5872, 52.02045], [5.586503, 52.029171], [5.586712, 52.03129], [5.589589, 52.031177], [5.59003, 52.034387], [5.567386, 52.040606], [5.570853, 52.047997], [5.557903, 52.048865], [5.560729, 52.067501], [5.559212, 52.071043], [5.562739, 52.078332], [5.560778, 52.084394], [5.556687, 52.085483], [5.557112, 52.086851], [5.554905, 52.08655], [5.554429, 52.095392], [5.550463, 52.096641], [5.554236, 52.100151], [5.550343, 52.10542], [5.545292, 52.10439], [5.546302, 52.102444], [5.544013, 52.101949], [5.54154, 52.103737], [5.531543, 52.102267], [5.532817, 52.099984], [5.53916, 52.097814], [5.535079, 52.092875], [5.538294, 52.09269], [5.537127, 52.088659], [5.530856, 52.089774], [5.526634, 52.084903], [5.531306, 52.083939], [5.531245, 52.082419], [5.522654, 52.077542], [5.519437, 52.079227], [5.509923, 52.07905], [5.509204, 52.07697], [5.50507, 52.076911], [5.504584, 52.07335], [5.499882, 52.071335], [5.493887, 52.071889], [5.48415, 52.069622], [5.467144, 52.07557], [5.465435, 52.078429], [5.459243, 52.080226], [5.459678, 52.082003], [5.464054, 52.083056], [5.471886, 52.089381], [5.486083, 52.093657], [5.484302, 52.105542], [5.493941, 52.112504], [5.491831, 52.114508], [5.486447, 52.11536], [5.498917, 52.116018], [5.50395, 52.11372], [5.507702, 52.113897], [5.507549, 52.115645], [5.503756, 52.116586], [5.505354, 52.11975], [5.496918, 52.119557], [5.494695, 52.124698], [5.496759, 52.124814], [5.497913, 52.130283], [5.511928, 52.132105], [5.514079, 52.135923], [5.497306, 52.141443], [5.498982, 52.147393], [5.481342, 52.150501], [5.484317, 52.158064], [5.481496, 52.158297], [5.482116, 52.159796], [5.479197, 52.161361], [5.472433, 52.162851], [5.479922, 52.165815], [5.448824, 52.167704], [5.439876, 52.171197], [5.438086, 52.184585], [5.441039, 52.205693], [5.439237, 52.204601], [5.434714, 52.205876], [5.40967, 52.21858], [5.407222, 52.213405], [5.393215, 52.220634], [5.404643, 52.24963], [5.463376, 52.260003], [5.464459, 52.261828], [5.472299, 52.26374], [5.476122, 52.263924], [5.476849, 52.2624], [5.533281, 52.272741], [5.575604, 52.35076], [5.587707, 52.361454], [5.595456, 52.363448], [5.605469, 52.363361], [5.611638, 52.3595], [5.614039, 52.362257], [5.644867, 52.370864], [5.652554, 52.365428], [5.677659, 52.378721], [5.698762, 52.382004], [5.706752, 52.386635], [5.715584, 52.388037], [5.733472, 52.39716], [5.729447, 52.400973], [5.733397, 52.402533], [5.739428, 52.398421], [5.787257, 52.422573], [5.811475, 52.436923], [5.809586, 52.437659], [5.822411, 52.449706], [5.815608, 52.455215], [5.831385, 52.473402], [5.840256, 52.471058], [5.841472, 52.472275], [5.845591, 52.478202], [5.851009, 52.49539], [5.856698, 52.499806], [5.86431, 52.518173], [5.876205, 52.522025], [5.887277, 52.516906], [5.906847, 52.500798], [5.925559, 52.474058], [5.93541, 52.477392], [5.93688, 52.476499], [5.952985, 52.484448], [5.958697, 52.483838], [5.965361, 52.476456], [6.007121, 52.504027], [6.012367, 52.50594], [6.022851, 52.505332], [6.027857, 52.509606], [6.042409, 52.505596], [6.054666, 52.499547], [6.068141, 52.48391], [6.089268, 52.476811], [6.099483, 52.469971], [6.103351, 52.456432], [6.102544, 52.445264], [6.119472, 52.432918], [6.116385, 52.430199], [6.118245, 52.426644], [6.113872, 52.419853], [6.114741, 52.414256], [6.110774, 52.407747], [6.11494, 52.406936], [6.119065, 52.402642], [6.127579, 52.399617], [6.130553, 52.399978], [6.125327, 52.392953], [6.126005, 52.384521], [6.122216, 52.380206], [6.114249, 52.377383], [6.083725, 52.372411], [6.078506, 52.369523], [6.079094, 52.362873], [6.090314, 52.360605], [6.094857, 52.356968], [6.087241, 52.35389], [6.07801, 52.352426], [6.07607, 52.35057], [6.076764, 52.338651], [6.074046, 52.334479], [6.075632, 52.3333], [6.070706, 52.321882], [6.067113, 52.321267], [6.066191, 52.318938], [6.066525, 52.317809], [6.071783, 52.317189], [6.079822, 52.317594], [6.08099, 52.311902], [6.08478, 52.311741], [6.082928, 52.30712], [6.084126, 52.301567], [6.090916, 52.299987], [6.10132, 52.301225], [6.105864, 52.292408], [6.111322, 52.288211], [6.112627, 52.277928], [6.12167, 52.27144], [6.124797, 52.26341], [6.130069, 52.260691], [6.125145, 52.256825], [6.123895, 52.251457], [6.135412, 52.249615], [6.143526, 52.246404], [6.15002, 52.248316], [6.153748, 52.24679], [6.153604, 52.244018], [6.142237, 52.238456], [6.141942, 52.23344], [6.147682, 52.227691], [6.161375, 52.22476], [6.163933, 52.221924], [6.163909, 52.217496], [6.168671, 52.220699], [6.1625, 52.227917], [6.167738, 52.226222], [6.168436, 52.227279], [6.163028, 52.228522], [6.166269, 52.231014], [6.178672, 52.233561], [6.182881, 52.233731], [6.189136, 52.229167], [6.201943, 52.229423], [6.217224, 52.226401], [6.215114, 52.23155], [6.222495, 52.228863], [6.227925, 52.229768], [6.238018, 52.227543], [6.24468, 52.228271], [6.250429, 52.226906], [6.257295, 52.227276], [6.260058, 52.229142], [6.271291, 52.226414], [6.271007, 52.22791], [6.292732, 52.230869], [6.292974, 52.229501], [6.296951, 52.229005], [6.297942, 52.22553], [6.321021, 52.225702], [6.325434, 52.226997], [6.338708, 52.227153], [6.338025, 52.236222], [6.341276, 52.235986], [6.341194, 52.237612], [6.349477, 52.238797], [6.350892, 52.24168], [6.366851, 52.241532], [6.381851, 52.246113], [6.383411, 52.244016], [6.389863, 52.242559], [6.402619, 52.243272], [6.41664, 52.242137], [6.416807, 52.237126], [6.423134, 52.232013], [6.428611, 52.223725], [6.446476, 52.212698], [6.457014, 52.20107], [6.470293, 52.199374], [6.469326, 52.194429], [6.472973, 52.18832], [6.479172, 52.182278], [6.490647, 52.179863], [6.492401, 52.177372], [6.514163, 52.181311], [6.555349, 52.177256], [6.590415, 52.182464], [6.606327, 52.173082], [6.602851, 52.169121], [6.60675, 52.165018], [6.612147, 52.163166], [6.621692, 52.168417], [6.624952, 52.16865], [6.625154, 52.172102], [6.629101, 52.172033], [6.630545, 52.1736], [6.634862, 52.172165], [6.64028, 52.167405], [6.645041, 52.174194], [6.671339, 52.165683], [6.67428, 52.158538], [6.670351, 52.156424], [6.673469, 52.154972], [6.673819, 52.152104], [6.671309, 52.150458], [6.673748, 52.148287], [6.674395, 52.142774], [6.662399, 52.130167], [6.677691, 52.125959], [6.69781, 52.123554], [6.716272, 52.11827], [6.760572, 52.11878], [6.755265, 52.095241], [6.750284, 52.095778], [6.744501, 52.09309], [6.750923, 52.085036], [6.735471, 52.074634], [6.694663, 52.0698], [6.696868, 52.067344], [6.695874, 52.064265], [6.689571, 52.056453], [6.686807, 52.055519], [6.687853, 52.039856], [6.714134, 52.040065], [6.752977, 52.028406], [6.764088, 52.022311], [6.766307, 52.018782], [6.77215, 52.017894], [6.811411, 51.998096], [6.807799, 51.994967], [6.826607, 51.993527], [6.830352, 51.986192], [6.829599, 51.97943], [6.832802, 51.971807], [6.828529, 51.964105], [6.813837, 51.963633], [6.812461, 51.961833], [6.798873, 51.958744], [6.797271, 51.942553], [6.793991, 51.935294], [6.785977, 51.931189], [6.788945, 51.929657], [6.770036, 51.916199], [6.754625, 51.913091], [6.751264, 51.90724], [6.737132, 51.904681], [6.732498, 51.898723], [6.721969, 51.896063], [6.703221, 51.906395], [6.703327, 51.909706], [6.697667, 51.90987], [6.695346, 51.915868], [6.689635, 51.914956], [6.684249, 51.916097], [6.683994, 51.917576], [6.637717, 51.904455], [6.634174, 51.901005], [6.62531, 51.901942], [6.58578, 51.894082], [6.569517, 51.888305], [6.560998, 51.884124], [6.560611, 51.882219], [6.555863, 51.881805], [6.552426, 51.886191], [6.548363, 51.885347], [6.549586, 51.883149], [6.544151, 51.88461], [6.539899, 51.880916], [6.524572, 51.873692], [6.515489, 51.873493], [6.503155, 51.867616], [6.50115, 51.868114], [6.502208, 51.864705], [6.500291, 51.862272], [6.482677, 51.856931], [6.4772, 51.856707], [6.472508, 51.853823], [6.4619, 51.856375], [6.451173, 51.865238], [6.446673, 51.865006], [6.443674, 51.862667], [6.432363, 51.859383], [6.429436, 51.860715], [6.427361, 51.865862], [6.418335, 51.867311], [6.412253, 51.871096], [6.409266, 51.869432], [6.406622, 51.870691], [6.402475, 51.869137], [6.398372, 51.870977], [6.396746, 51.870334], [6.393083, 51.873833], [6.390566, 51.873968], [6.386855, 51.864451], [6.387984, 51.86191], [6.408953, 51.853346], [6.402377, 51.844541], [6.408141, 51.835894], [6.402958, 51.836576], [6.407491, 51.828089], [6.401818, 51.827263], [6.388068, 51.833693], [6.376801, 51.834983], [6.368631, 51.833261], [6.363331, 51.835156], [6.364042, 51.838549], [6.360257, 51.845799], [6.347207, 51.850681], [6.320427, 51.851681], [6.306203, 51.849078], [6.300504, 51.864509], [6.298222, 51.865943], [6.299006, 51.867826], [6.279907, 51.87407], [6.269828, 51.874094], [6.261841, 51.868138], [6.233737, 51.8702], [6.215057, 51.867626], [6.198301, 51.873609], [6.184798, 51.881572], [6.18201, 51.885778], [6.191428, 51.887351], [6.189516, 51.888942], [6.191085, 51.891657], [6.182558, 51.893907], [6.169769, 51.901287], [6.165633, 51.898596], [6.156225, 51.905245], [6.125673, 51.898201], [6.117889, 51.901659], [6.114821, 51.89772], [6.111855, 51.898837], [6.110176, 51.894943], [6.103448, 51.892474], [6.118224, 51.892013], [6.137127, 51.885803], [6.14361, 51.876251], [6.144539, 51.869745], [6.149877, 51.866501], [6.167, 51.861622], [6.163597, 51.85368], [6.16656, 51.840722], [6.135771, 51.847169], [6.101098, 51.849011], [6.089556, 51.852597], [6.063486, 51.865451], [6.059596, 51.857628], [6.051424, 51.856661], [6.055305, 51.852354], [6.041684, 51.847012], [6.035671, 51.842638], [6.033504, 51.843407], [6.032682, 51.842352], [6.029153, 51.845123], [6.017839, 51.84156], [6.015698, 51.837937], [6.002257, 51.832491], [5.986737, 51.83067], [5.971017, 51.833368], [5.962978, 51.836914], [5.945045, 51.823544], [5.958151, 51.816931], [5.952847, 51.81479], [5.948078, 51.816446], [5.94657, 51.81348], [5.949422, 51.812443], [5.948377, 51.811194], [5.95638, 51.810091], [5.963079, 51.807059], [5.979065, 51.797651], [5.974392, 51.795623], [5.976782, 51.794276], [5.972632, 51.789565], [5.97507, 51.788788], [5.974548, 51.785062], [5.979539, 51.785977], [5.981766, 51.784137], [5.984679, 51.785057], [5.987888, 51.782889], [5.990227, 51.783401], [5.983432, 51.778725], [5.98236, 51.773697], [5.99194, 51.769781], [5.990501, 51.766277], [5.97921, 51.760053], [5.974095, 51.759256], [5.951988, 51.748949], [5.952436, 51.744537], [5.935891, 51.741029], [5.929948, 51.744428], [5.933323, 51.748099], [5.915285, 51.752287], [5.911115, 51.762406], [5.905376, 51.765684], [5.893409, 51.777853], [5.886375, 51.77859], [5.867893, 51.775521], [5.869245, 51.76286], [5.864469, 51.757682], [5.847804, 51.759272], [5.80722, 51.756305], [5.781115, 51.752306], [5.765188, 51.75279], [5.746406, 51.758386], [5.733596, 51.770865], [5.729136, 51.773107], [5.704532, 51.77687], [5.690128, 51.789726], [5.662621, 51.79489], [5.651741, 51.803436], [5.645168, 51.815136], [5.638113, 51.819025], [5.619261, 51.81963], [5.600443, 51.827342], [5.587398, 51.829702], [5.556675, 51.827195], [5.551813, 51.82468], [5.546738, 51.818196], [5.538029, 51.816257], [5.516285, 51.819744], [5.505052, 51.827944], [5.493105, 51.830751], [5.4873, 51.829902], [5.48184, 51.827066], [5.476932, 51.817183], [5.472763, 51.813771], [5.458256, 51.810347], [5.445204, 51.809536], [5.432155, 51.810629], [5.423457, 51.813778], [5.41331, 51.821951], [5.403157, 51.821612], [5.367187, 51.787554], [5.361873, 51.777666], [5.360564, 51.762385], [5.357568, 51.75789], [5.350995, 51.754617], [5.322041, 51.746524], [5.300339, 51.737287], [5.294549, 51.736798], [5.28296, 51.739835], [5.272825, 51.740068], [5.264141, 51.738828], [5.255466, 51.7349], [5.248232, 51.733615], [5.230834, 51.741404], [5.219243, 51.743527], [5.196195, 51.740259], [5.178691, 51.742814], [5.165672, 51.74292], [5.128055, 51.737607], [5.125984, 51.739629], [5.126336, 51.745021], [5.138113, 51.750726], [5.142714, 51.75521], [5.135891, 51.76032], [5.139599, 51.769311], [5.137581, 51.772905], [5.117682, 51.778155], [5.105342, 51.785507], [5.097313, 51.787587], [5.088594, 51.785805], [5.079994, 51.779943], [5.068412, 51.779922], [5.061913, 51.784414], [5.050836, 51.796618], [5.016001, 51.808207], [5.010941, 51.812105], [5.009325, 51.817512], [5.000364, 51.820933], [5.026352, 51.818857], [5.031415, 51.841085], [4.999296, 51.8446], [4.998483, 51.854453], [4.994095, 51.861364], [4.995965, 51.861849], [5.005522, 51.857913], [5.016528, 51.85919], [5.058785, 51.858062], [5.063645, 51.861058], [5.052199, 51.866643], [5.052311, 51.869984], [5.055362, 51.873041], [5.080532, 51.875525], [5.08634, 51.880769], [5.088159, 51.887094], [5.090975, 51.888976], [5.112737, 51.887776], [5.117671, 51.89257], [5.116948, 51.898104], [5.119409, 51.898605], [5.132278, 51.914882], [5.136436, 51.914508], [5.135675, 51.918223], [5.14846, 51.929485], [5.148276, 51.932737], [5.151467, 51.933615], [5.180227, 51.967448], [5.196104, 51.960806], [5.210275, 51.959847], [5.220633, 51.964556], [5.231897, 51.976994], [5.241165, 51.978869], [5.270374, 51.965427], [5.300894, 51.961569], [5.314857, 51.95562], [5.321611, 51.954919], [5.335221, 51.958044], [5.347095, 51.966997], [5.354038, 51.969982], [5.361845, 51.970966], [5.376909, 51.969161], [5.38707, 51.969831], [5.418156, 51.976606], [5.437323, 51.985561], [5.470991, 51.982987], [5.484601, 51.983931], [5.512481, 51.973081], [5.538942, 51.967827], [5.549561, 51.959197], [5.556934, 51.955711], [5.590992, 51.949776], [5.60594, 51.943125], [5.616428, 51.949354], [5.620446, 51.948166], [5.620162, 51.951498], [5.627314, 51.952575], [5.624978, 51.960065], [5.620258, 51.966582], [5.618329, 51.966258], [5.624856, 51.970448], [5.626159, 51.973888], [5.61506, 51.982717], [5.613813, 51.990343], [5.609972, 51.993692], [5.606017, 51.994164]]]}, "properties": {"name": "Gelderland", "regioFacetId": "tcm:106-353445-1024", "level": 3}}, {"type": "Feature", "geometry": {"type": "Polygon", "coordinates": [[[6.286981, 53.341382], [6.27368, 53.345271], [6.254047, 53.348593], [6.247577, 53.347472], [6.239299, 53.343039], [6.233595, 53.3431], [6.23048, 53.344746], [6.224972, 53.354307], [6.218892, 53.357407], [6.18015, 53.364067], [6.170524, 53.374782], [6.167586, 53.389702], [6.19402, 53.413289], [6.350426, 53.446268], [6.351567, 53.497042], [6.366633, 53.49692], [6.381647, 53.494551], [6.393051, 53.498949], [6.396923, 53.503409], [6.397029, 53.507901], [6.389704, 53.516947], [6.382272, 53.521501], [6.367249, 53.523871], [6.352123, 53.521746], [6.352528, 53.539713], [6.428588, 53.566036], [6.612608, 53.564308], [6.637132, 53.576423], [6.665963, 53.561235], [6.820107, 53.493743], [6.857601, 53.468746], [6.874265, 53.46458], [6.890929, 53.465135], [6.907593, 53.461525], [6.915925, 53.457358], [6.932034, 53.438472], [6.952031, 53.394032], [6.993692, 53.34876], [6.993414, 53.336261], [6.995358, 53.331818], [7.005912, 53.32654], [7.019243, 53.324318], [7.061737, 53.324041], [7.111174, 53.331818], [7.17172, 53.333206], [7.187601, 53.332182], [7.212505, 53.228189], [7.210492, 53.228397], [7.217025, 53.214767], [7.217623, 53.197817], [7.208043, 53.188477], [7.227498, 53.180279], [7.212562, 53.176965], [7.203655, 53.176564], [7.1909, 53.16184], [7.189601, 53.147962], [7.183169, 53.140189], [7.178902, 53.138286], [7.180937, 53.127833], [7.185873, 53.124226], [7.182899, 53.121765], [7.202794, 53.113411], [7.199219, 53.081386], [7.212968, 53.010877], [7.217445, 53.007037], [7.209562, 53.000507], [7.181515, 52.941584], [7.104385, 52.863943], [7.087258, 52.849887], [7.09274, 52.838196], [7.072148, 52.838405], [7.072193, 52.845211], [7.07626, 52.850031], [7.069557, 52.847748], [7.065917, 52.851642], [7.062747, 52.851448], [7.046433, 52.865856], [7.043486, 52.865219], [7.040242, 52.872903], [7.014799, 52.872987], [7.045571, 52.915909], [7.026113, 52.919161], [7.016197, 52.924426], [6.93661, 52.99276], [6.743254, 53.116568], [6.737451, 53.119462], [6.695367, 53.121176], [6.670602, 53.116516], [6.634832, 53.106202], [6.637086, 53.108301], [6.635111, 53.111461], [6.636597, 53.112843], [6.628056, 53.115647], [6.630831, 53.119211], [6.621904, 53.126195], [6.61902, 53.131552], [6.613641, 53.132694], [6.6144, 53.135557], [6.599984, 53.144724], [6.587964, 53.145436], [6.584521, 53.153509], [6.587089, 53.156226], [6.583573, 53.157867], [6.581515, 53.163584], [6.563687, 53.157638], [6.559497, 53.169106], [6.548188, 53.181098], [6.541744, 53.17861], [6.534282, 53.184085], [6.530492, 53.195559], [6.506859, 53.200144], [6.494227, 53.198218], [6.492593, 53.201386], [6.488924, 53.203132], [6.482255, 53.203667], [6.447712, 53.196441], [6.442867, 53.18774], [6.406985, 53.177654], [6.402922, 53.167206], [6.395165, 53.163577], [6.381414, 53.153506], [6.382612, 53.14957], [6.365855, 53.122228], [6.363558, 53.107552], [6.35662, 53.107085], [6.344433, 53.087135], [6.290566, 53.099829], [6.28305, 53.106863], [6.273904, 53.111253], [6.262651, 53.114123], [6.236264, 53.113387], [6.205048, 53.115484], [6.175317, 53.135482], [6.177251, 53.166767], [6.192854, 53.189068], [6.199432, 53.193254], [6.199621, 53.198355], [6.209426, 53.199884], [6.219058, 53.205994], [6.224803, 53.211948], [6.22475, 53.214579], [6.229945, 53.217714], [6.230173, 53.22244], [6.225339, 53.225455], [6.224788, 53.229907], [6.214584, 53.233711], [6.216753, 53.234342], [6.214791, 53.235991], [6.224972, 53.238593], [6.217978, 53.241932], [6.219067, 53.242685], [6.231095, 53.245105], [6.231948, 53.247198], [6.229481, 53.249826], [6.233705, 53.2508], [6.235101, 53.253355], [6.231769, 53.256029], [6.237803, 53.257733], [6.23891, 53.262866], [6.246632, 53.268227], [6.249977, 53.26722], [6.255529, 53.268983], [6.251409, 53.277255], [6.253228, 53.287928], [6.259904, 53.291076], [6.265629, 53.291217], [6.268717, 53.289773], [6.278428, 53.30283], [6.289651, 53.305073], [6.294361, 53.308173], [6.290412, 53.31113], [6.280503, 53.312581], [6.286981, 53.341382]]]}, "properties": {"name": "Groningen", "regioFacetId": "tcm:106-353502-1024", "level": 3}}, {"type": "Feature", "geometry": {"type": "Polygon", "coordinates": [[[5.91947, 51.717671], [5.899567, 51.72019], [5.886635, 51.726266], [5.87956, 51.749914], [5.864469, 51.757682], [5.869245, 51.76286], [5.86708, 51.771067], [5.869465, 51.776092], [5.886375, 51.77859], [5.893409, 51.777853], [5.905376, 51.765684], [5.911115, 51.762406], [5.915285, 51.752287], [5.933323, 51.748099], [5.929948, 51.744428], [5.935223, 51.74113], [5.943962, 51.741817], [5.952436, 51.744537], [5.952294, 51.746122], [5.953288, 51.748024], [5.952294, 51.742684], [5.955155, 51.738118], [5.973362, 51.739306], [5.992615, 51.738596], [6.029522, 51.725485], [6.035035, 51.721227], [6.035424, 51.717774], [6.038386, 51.718114], [6.037881, 51.71993], [6.044939, 51.716913], [6.042009, 51.713345], [6.03152, 51.71299], [6.026054, 51.708688], [6.031781, 51.692533], [6.028248, 51.689624], [6.032234, 51.684796], [6.029823, 51.678099], [6.034672, 51.675146], [6.03154, 51.674583], [6.072384, 51.663839], [6.075724, 51.664826], [6.079663, 51.663462], [6.079545, 51.661593], [6.085345, 51.662914], [6.087888, 51.65985], [6.099654, 51.658116], [6.102838, 51.660505], [6.118087, 51.655973], [6.115771, 51.653227], [6.117248, 51.650731], [6.109412, 51.646867], [6.111683, 51.64473], [6.10804, 51.641932], [6.100012, 51.624079], [6.097229, 51.620884], [6.093934, 51.622154], [6.094355, 51.615196], [6.091387, 51.605936], [6.121485, 51.592745], [6.13056, 51.581088], [6.146986, 51.570591], [6.157032, 51.566575], [6.176902, 51.538556], [6.199929, 51.527381], [6.212024, 51.513391], [6.214195, 51.502913], [6.212764, 51.491308], [6.219032, 51.484983], [6.223557, 51.474965], [6.223676, 51.468715], [6.220006, 51.45535], [6.220593, 51.446646], [6.213937, 51.446264], [6.214761, 51.433881], [6.205257, 51.39952], [6.211363, 51.400926], [6.226668, 51.400268], [6.214425, 51.389634], [6.216367, 51.388832], [6.214743, 51.387516], [6.22639, 51.360336], [6.189882, 51.339461], [6.194236, 51.334879], [6.168557, 51.332989], [6.169378, 51.329374], [6.15959, 51.319691], [6.15942, 51.315642], [6.15424, 51.311115], [6.153824, 51.307448], [6.145145, 51.298116], [6.129011, 51.285702], [6.124502, 51.274729], [6.085617, 51.247626], [6.072664, 51.24256], [6.086025, 51.22267], [6.073259, 51.222436], [6.067988, 51.220551], [6.073145, 51.182794], [6.08219, 51.171634], [6.100089, 51.169887], [6.102075, 51.171647], [6.111264, 51.173848], [6.122406, 51.181303], [6.16517, 51.194414], [6.180724, 51.186358], [6.138802, 51.173339], [6.175422, 51.158464], [6.162848, 51.152671], [6.163339, 51.148697], [6.147686, 51.148608], [6.13459, 51.145099], [6.12583, 51.145117], [6.121279, 51.14268], [6.121302, 51.140927], [6.116388, 51.139155], [6.096303, 51.134759], [6.091996, 51.135048], [6.087103, 51.129303], [6.088772, 51.127897], [6.084424, 51.126019], [6.086992, 51.124595], [6.083501, 51.123892], [6.080901, 51.125979], [6.080551, 51.122142], [6.075698, 51.120941], [6.075883, 51.119192], [6.060293, 51.115926], [6.055238, 51.110742], [6.056832, 51.10955], [6.036692, 51.096594], [6.020676, 51.092838], [6.017575, 51.094573], [6.014086, 51.091459], [6.009524, 51.090844], [5.997793, 51.084246], [5.988452, 51.074614], [5.980294, 51.072317], [5.98173, 51.069478], [5.969978, 51.060704], [5.97078, 51.058018], [5.968113, 51.055562], [5.970311, 51.054185], [5.968228, 51.051071], [5.969198, 51.046772], [5.9669, 51.044137], [5.95783, 51.040981], [5.959467, 51.038239], [5.957778, 51.034726], [5.949801, 51.036967], [5.938129, 51.035117], [5.934607, 51.04123], [5.926317, 51.048231], [5.918732, 51.063953], [5.913208, 51.066883], [5.892, 51.053128], [5.866315, 51.051103], [5.867285, 51.04628], [5.878115, 51.037355], [5.8746, 51.029205], [5.878808, 51.017963], [5.884262, 51.013382], [5.89574, 51.011019], [5.895477, 51.004531], [5.905517, 51.002172], [5.903725, 50.987198], [5.89261, 50.980313], [5.897086, 50.974865], [5.905601, 50.97472], [5.918554, 50.977747], [5.933886, 50.985353], [5.955185, 50.988417], [5.957392, 50.985005], [5.967576, 50.979396], [5.981357, 50.983217], [5.984222, 50.982115], [6.026512, 50.983272], [6.015207, 50.962364], [6.005198, 50.956777], [6.016853, 50.952643], [6.015079, 50.947883], [6.018202, 50.934701], [6.039793, 50.930852], [6.045582, 50.92808], [6.050871, 50.929905], [6.05616, 50.927153], [6.054023, 50.922247], [6.068184, 50.920653], [6.071775, 50.923133], [6.077465, 50.922578], [6.089436, 50.918525], [6.094149, 50.920702], [6.081264, 50.909066], [6.075182, 50.892953], [6.079336, 50.886735], [6.079637, 50.88223], [6.082537, 50.882507], [6.086681, 50.87945], [6.085074, 50.876368], [6.088102, 50.872427], [6.083396, 50.864837], [6.077298, 50.860756], [6.074171, 50.846538], [6.056699, 50.851053], [6.057149, 50.855512], [6.055078, 50.857258], [6.042102, 50.851217], [6.034281, 50.850575], [6.027839, 50.84763], [6.018946, 50.846256], [6.016316, 50.833884], [6.018769, 50.829695], [6.02527, 50.827821], [6.022744, 50.826606], [6.026355, 50.820033], [6.022101, 50.81681], [6.025029, 50.814132], [6.003693, 50.801472], [5.985514, 50.810574], [5.981369, 50.808595], [5.975742, 50.802353], [5.974862, 50.798037], [5.979906, 50.795178], [5.988269, 50.79405], [5.995904, 50.790051], [5.995852, 50.787423], [6.006579, 50.781892], [6.027643, 50.774184], [6.018361, 50.763357], [6.021009, 50.754288], [6.013415, 50.755069], [5.999278, 50.753026], [5.98319, 50.75282], [5.97414, 50.755212], [5.975118, 50.757889], [5.972821, 50.759648], [5.960663, 50.762475], [5.936174, 50.756787], [5.931064, 50.756943], [5.92145, 50.751357], [5.915081, 50.750367], [5.915383, 50.75472], [5.913133, 50.75576], [5.90901, 50.754219], [5.908217, 50.755696], [5.90485, 50.755224], [5.90163, 50.751401], [5.889738, 50.756328], [5.889672, 50.764221], [5.886477, 50.770157], [5.876228, 50.765616], [5.863127, 50.763373], [5.852963, 50.757714], [5.84892, 50.753408], [5.845038, 50.765371], [5.838139, 50.763344], [5.83076, 50.758559], [5.822433, 50.758796], [5.814417, 50.756163], [5.807695, 50.756045], [5.793222, 50.770199], [5.784503, 50.767169], [5.779683, 50.774343], [5.777367, 50.782955], [5.773575, 50.783245], [5.765811, 50.782546], [5.744896, 50.768822], [5.740519, 50.763013], [5.741572, 50.761162], [5.739179, 50.757074], [5.730388, 50.757416], [5.720266, 50.764715], [5.715633, 50.759878], [5.712293, 50.760961], [5.707046, 50.758287], [5.702553, 50.758913], [5.699409, 50.755409], [5.694789, 50.754777], [5.688475, 50.755714], [5.687759, 50.757697], [5.682707, 50.757521], [5.681757, 50.759149], [5.683289, 50.762859], [5.696992, 50.773314], [5.696887, 50.776244], [5.701352, 50.781209], [5.700865, 50.784943], [5.691202, 50.796105], [5.699586, 50.80628], [5.69276, 50.810233], [5.693818, 50.811527], [5.68436, 50.81342], [5.680531, 50.812058], [5.678283, 50.816468], [5.673173, 50.815996], [5.669454, 50.81785], [5.667648, 50.816544], [5.653991, 50.820082], [5.656178, 50.82429], [5.651855, 50.827508], [5.648896, 50.826703], [5.651382, 50.831992], [5.643732, 50.837936], [5.645346, 50.839395], [5.641854, 50.840793], [5.638866, 50.847674], [5.642708, 50.850081], [5.640326, 50.853725], [5.643514, 50.856784], [5.641685, 50.857555], [5.643791, 50.858878], [5.641802, 50.859248], [5.644005, 50.86292], [5.641665, 50.864162], [5.649472, 50.868344], [5.644159, 50.87135], [5.651323, 50.875092], [5.653336, 50.873979], [5.669631, 50.881822], [5.67935, 50.880489], [5.682516, 50.888524], [5.692342, 50.893708], [5.695744, 50.897745], [5.696255, 50.907713], [5.699465, 50.910762], [5.706427, 50.912003], [5.716027, 50.908226], [5.722777, 50.909163], [5.726645, 50.913071], [5.725907, 50.921198], [5.728091, 50.925589], [5.743575, 50.938355], [5.746588, 50.947303], [5.758822, 50.951657], [5.756801, 50.9569], [5.750523, 50.960741], [5.744634, 50.961539], [5.73416, 50.955451], [5.7281, 50.954964], [5.722012, 50.957135], [5.720127, 50.962421], [5.734296, 50.972742], [5.737295, 50.978691], [5.749884, 50.982537], [5.755744, 50.990859], [5.767628, 50.999738], [5.766277, 51.010562], [5.77641, 51.023308], [5.772855, 51.02743], [5.759729, 51.030622], [5.758386, 51.035014], [5.770759, 51.049191], [5.773558, 51.062353], [5.780477, 51.062591], [5.793179, 51.058526], [5.800342, 51.061188], [5.801058, 51.06402], [5.79662, 51.071824], [5.799248, 51.075007], [5.804191, 51.076925], [5.804865, 51.079633], [5.796434, 51.086989], [5.796023, 51.091478], [5.800058, 51.094202], [5.808258, 51.096339], [5.824143, 51.09235], [5.832421, 51.097364], [5.833782, 51.102786], [5.82997, 51.106485], [5.825085, 51.1082], [5.814627, 51.107455], [5.810863, 51.108867], [5.807669, 51.113046], [5.80985, 51.118422], [5.824899, 51.129345], [5.841351, 51.131479], [5.84584, 51.140759], [5.855783, 51.144626], [5.836354, 51.153685], [5.838611, 51.157087], [5.832881, 51.159037], [5.832694, 51.16243], [5.824311, 51.167841], [5.815971, 51.163171], [5.815056, 51.158848], [5.804935, 51.162876], [5.798781, 51.157667], [5.791982, 51.157129], [5.785086, 51.153108], [5.777646, 51.151304], [5.776668, 51.154405], [5.774759, 51.154682], [5.779483, 51.159383], [5.779402, 51.163316], [5.775964, 51.16305], [5.776366, 51.16533], [5.774038, 51.165292], [5.77446, 51.163937], [5.770189, 51.164224], [5.769565, 51.169083], [5.779736, 51.171799], [5.772952, 51.17337], [5.776728, 51.178486], [5.76716, 51.183691], [5.755963, 51.184461], [5.756868, 51.185404], [5.74909, 51.188678], [5.745641, 51.189499], [5.740098, 51.186551], [5.73974, 51.184748], [5.738234, 51.186516], [5.717783, 51.184379], [5.709339, 51.180421], [5.708004, 51.182055], [5.701288, 51.182478], [5.701611, 51.183793], [5.696436, 51.183937], [5.695295, 51.182559], [5.689411, 51.18542], [5.676541, 51.182726], [5.676229, 51.184646], [5.671037, 51.185768], [5.664306, 51.186285], [5.658044, 51.184745], [5.64974, 51.193618], [5.654083, 51.194242], [5.652734, 51.197661], [5.566045, 51.220909], [5.594321, 51.226074], [5.594414, 51.22418], [5.618782, 51.229425], [5.623474, 51.249026], [5.625972, 51.273602], [5.672048, 51.315082], [5.874543, 51.353313], [5.931288, 51.384753], [5.871695, 51.450112], [5.860724, 51.491967], [5.852552, 51.504177], [5.838238, 51.566415], [5.891466, 51.560205], [5.906663, 51.552031], [5.935445, 51.5536], [5.976346, 51.561638], [6.004253, 51.570244], [6.018212, 51.563335], [6.031669, 51.552339], [6.034321, 51.557497], [6.037308, 51.558149], [6.040913, 51.55663], [6.044383, 51.557487], [6.042782, 51.558679], [6.048121, 51.558463], [6.040712, 51.564455], [6.037659, 51.569959], [6.038572, 51.584286], [6.024943, 51.598064], [6.023918, 51.61578], [6.02063, 51.621291], [5.996352, 51.636719], [5.973931, 51.644611], [5.965105, 51.65225], [5.963243, 51.660139], [5.964393, 51.677372], [5.956568, 51.698941], [5.955291, 51.709305], [5.943139, 51.714405], [5.91947, 51.717671]]]}, "properties": {"name": "Limburg", "regioFacetId": "tcm:106-353526-1024", "level": 3}}, {"type": "Feature", "geometry": {"type": "Polygon", "coordinates": [[[5.206494, 51.741477], [5.216347, 51.743451], [5.225037, 51.742969], [5.248232, 51.733615], [5.255466, 51.7349], [5.264141, 51.738828], [5.272825, 51.740068], [5.28296, 51.739835], [5.294549, 51.736798], [5.301786, 51.737711], [5.320594, 51.746001], [5.350995, 51.754617], [5.357568, 51.75789], [5.360564, 51.762385], [5.361873, 51.777666], [5.367187, 51.787554], [5.403157, 51.821612], [5.41331, 51.821951], [5.423457, 51.813778], [5.432155, 51.810629], [5.445204, 51.809536], [5.458256, 51.810347], [5.472763, 51.813771], [5.476932, 51.817183], [5.48184, 51.827066], [5.4873, 51.829902], [5.493105, 51.830751], [5.505052, 51.827944], [5.516285, 51.819744], [5.538029, 51.816257], [5.546738, 51.818196], [5.551813, 51.82468], [5.556675, 51.827195], [5.587398, 51.829702], [5.600443, 51.827342], [5.619261, 51.81963], [5.638113, 51.819025], [5.645168, 51.815136], [5.651741, 51.803436], [5.662621, 51.79489], [5.690128, 51.789726], [5.704532, 51.77687], [5.729136, 51.773107], [5.733596, 51.770865], [5.746406, 51.758386], [5.76085, 51.753541], [5.781115, 51.752306], [5.80722, 51.756305], [5.849253, 51.759329], [5.863722, 51.757842], [5.870183, 51.755666], [5.87956, 51.749914], [5.885404, 51.728314], [5.890395, 51.723663], [5.907437, 51.718508], [5.942957, 51.714447], [5.955291, 51.709305], [5.956568, 51.698941], [5.964393, 51.677372], [5.963243, 51.660139], [5.965105, 51.65225], [5.973931, 51.644611], [5.996352, 51.636719], [6.02063, 51.621291], [6.023918, 51.61578], [6.024943, 51.598064], [6.038572, 51.584286], [6.037659, 51.569959], [6.040712, 51.564455], [6.048121, 51.558463], [6.042782, 51.558679], [6.044383, 51.557487], [6.040913, 51.55663], [6.037308, 51.558149], [6.034321, 51.557497], [6.031669, 51.552339], [6.018212, 51.563335], [6.004253, 51.570244], [5.976346, 51.561638], [5.935445, 51.5536], [5.906663, 51.552031], [5.891466, 51.560205], [5.838238, 51.566415], [5.852552, 51.504177], [5.860724, 51.491967], [5.871695, 51.450112], [5.931288, 51.384753], [5.874543, 51.353313], [5.672048, 51.315082], [5.625972, 51.273602], [5.623474, 51.249026], [5.618782, 51.229425], [5.594414, 51.22418], [5.594321, 51.226074], [5.566045, 51.220909], [5.560451, 51.222327], [5.554866, 51.244497], [5.557927, 51.262399], [5.556215, 51.266644], [5.544589, 51.271188], [5.528685, 51.281757], [5.519006, 51.289475], [5.515774, 51.295203], [5.48757, 51.299739], [5.483016, 51.300165], [5.483199, 51.298646], [5.477614, 51.294968], [5.476888, 51.291391], [5.464836, 51.284565], [5.441782, 51.282106], [5.438371, 51.276026], [5.433298, 51.276333], [5.417412, 51.262286], [5.34614, 51.275764], [5.342563, 51.265677], [5.336476, 51.263067], [5.315927, 51.263537], [5.296154, 51.261482], [5.26312, 51.266802], [5.237914, 51.261353], [5.225972, 51.26826], [5.242193, 51.305219], [5.200255, 51.322661], [5.196565, 51.320359], [5.173063, 51.315772], [5.16264, 51.310317], [5.134353, 51.3155], [5.131687, 51.347045], [5.119402, 51.35564], [5.116564, 51.361131], [5.071182, 51.393487], [5.104573, 51.431349], [5.079324, 51.471321], [5.045768, 51.471115], [5.037888, 51.47935], [5.040094, 51.4851], [5.038788, 51.487001], [5.033156, 51.487194], [5.022279, 51.481779], [5.016655, 51.475209], [5.0108, 51.472263], [5.007251, 51.464383], [5.010995, 51.455527], [5.009425, 51.452664], [5.005493, 51.450996], [5.004582, 51.443925], [4.963219, 51.422293], [4.928979, 51.396051], [4.927898, 51.399735], [4.924428, 51.398784], [4.927854, 51.395439], [4.920959, 51.393687], [4.913849, 51.395077], [4.917806, 51.396842], [4.924587, 51.396884], [4.924276, 51.39782], [4.918152, 51.397927], [4.916121, 51.398723], [4.917816, 51.400511], [4.910162, 51.40226], [4.909804, 51.407435], [4.903702, 51.409955], [4.903848, 51.412414], [4.902711, 51.410245], [4.899893, 51.410627], [4.900252, 51.412526], [4.903187, 51.413552], [4.900662, 51.413286], [4.899994, 51.414671], [4.897133, 51.411693], [4.890863, 51.415125], [4.882934, 51.416479], [4.879796, 51.414367], [4.876012, 51.415196], [4.868721, 51.412888], [4.866255, 51.411444], [4.867366, 51.409114], [4.860357, 51.410501], [4.859907, 51.413315], [4.856707, 51.412688], [4.849818, 51.414304], [4.846276, 51.412856], [4.839331, 51.414618], [4.793067, 51.409489], [4.792214, 51.410542], [4.789334, 51.408987], [4.777753, 51.413824], [4.773367, 51.413441], [4.771194, 51.414909], [4.771875, 51.416606], [4.768577, 51.419646], [4.770974, 51.423216], [4.770148, 51.426638], [4.76657, 51.430489], [4.786654, 51.432719], [4.789121, 51.429743], [4.792853, 51.428573], [4.805672, 51.428622], [4.808359, 51.426438], [4.816232, 51.425674], [4.82144, 51.422574], [4.826222, 51.423076], [4.826506, 51.421103], [4.836758, 51.418849], [4.836491, 51.417254], [4.841469, 51.422442], [4.833257, 51.420344], [4.828153, 51.422211], [4.823363, 51.448619], [4.828584, 51.450877], [4.83521, 51.458736], [4.838471, 51.45605], [4.844021, 51.459066], [4.836109, 51.461245], [4.841734, 51.480831], [4.821143, 51.48307], [4.815649, 51.494632], [4.802422, 51.497517], [4.798542, 51.49972], [4.793946, 51.499785], [4.790866, 51.498159], [4.783061, 51.499564], [4.780944, 51.504046], [4.773758, 51.505114], [4.759943, 51.502358], [4.758339, 51.50015], [4.7527, 51.499808], [4.748944, 51.496685], [4.749699, 51.494364], [4.746561, 51.489505], [4.729152, 51.483907], [4.720603, 51.473455], [4.716029, 51.471124], [4.716898, 51.468865], [4.703249, 51.466968], [4.704056, 51.465465], [4.693097, 51.45173], [4.686441, 51.451271], [4.666586, 51.444399], [4.66969, 51.426363], [4.656419, 51.424993], [4.651717, 51.426885], [4.64665, 51.423395], [4.64129, 51.422014], [4.630094, 51.425917], [4.574728, 51.432849], [4.535409, 51.42303], [4.529896, 51.449521], [4.548161, 51.473313], [4.538185, 51.482398], [4.486793, 51.477342], [4.476514, 51.478274], [4.464713, 51.471008], [4.44256, 51.468689], [4.384839, 51.449316], [4.382709, 51.450232], [4.379328, 51.446789], [4.38664, 51.445243], [4.392034, 51.446376], [4.39697, 51.441313], [4.395415, 51.435513], [4.398818, 51.435244], [4.397206, 51.431598], [4.392562, 51.4328], [4.39233, 51.431446], [4.394665, 51.431538], [4.395201, 51.426903], [4.39133, 51.427353], [4.390527, 51.424267], [4.38366, 51.421076], [4.391611, 51.408171], [4.431692, 51.375049], [4.425081, 51.37129], [4.431352, 51.363853], [4.421854, 51.365231], [4.39874, 51.356887], [4.384543, 51.354352], [4.35089, 51.358683], [4.341354, 51.357563], [4.334505, 51.377641], [4.277425, 51.376035], [4.273698, 51.38315], [4.268382, 51.383546], [4.266349, 51.386541], [4.268634, 51.388126], [4.269061, 51.400347], [4.263732, 51.416449], [4.266447, 51.419979], [4.275852, 51.425049], [4.218927, 51.504858], [4.220102, 51.514284], [4.235657, 51.543242], [4.235202, 51.553953], [4.228121, 51.563716], [4.195718, 51.588975], [4.190162, 51.600954], [4.191893, 51.609835], [4.199273, 51.619539], [4.211945, 51.626789], [4.238168, 51.634298], [4.242786, 51.647063], [4.275003, 51.643778], [4.330464, 51.653326], [4.352393, 51.659392], [4.365038, 51.664591], [4.372196, 51.669606], [4.378193, 51.676858], [4.379431, 51.683592], [4.393621, 51.693296], [4.42355, 51.709475], [4.500431, 51.692904], [4.514917, 51.692474], [4.54247, 51.694824], [4.5893, 51.703323], [4.617063, 51.713451], [4.675223, 51.724209], [4.681598, 51.728419], [4.693263, 51.732282], [4.717281, 51.743819], [4.736631, 51.755568], [4.744788, 51.763487], [4.75524, 51.781611], [4.773539, 51.793324], [4.797194, 51.79977], [4.806876, 51.800336], [4.836108, 51.797839], [4.854413, 51.800683], [4.889401, 51.818895], [4.911274, 51.825982], [4.922728, 51.828072], [4.936064, 51.828314], [4.987757, 51.821059], [5.000364, 51.820933], [5.009325, 51.817512], [5.010941, 51.812105], [5.016001, 51.808207], [5.050836, 51.796618], [5.061913, 51.784414], [5.068412, 51.779922], [5.079994, 51.779943], [5.088594, 51.785805], [5.097313, 51.787587], [5.105342, 51.785507], [5.117682, 51.778155], [5.137581, 51.772905], [5.139599, 51.769311], [5.135891, 51.76032], [5.142714, 51.75521], [5.138113, 51.750726], [5.126336, 51.745021], [5.126748, 51.737829], [5.16712, 51.743011], [5.180146, 51.742682], [5.194684, 51.740303], [5.206494, 51.741477]], [[4.918222, 51.443433], [4.918525, 51.443439], [4.918878, 51.444006], [4.918147, 51.443959], [4.918222, 51.443433]], [[4.836433, 51.448597], [4.835745, 51.448459], [4.836225, 51.448047], [4.836664, 51.448399], [4.836433, 51.448597]], [[4.942095, 51.455239], [4.941631, 51.455568], [4.940716, 51.45563], [4.940622, 51.455325], [4.942095, 51.455239]], [[4.939857, 51.439508], [4.941528, 51.439734], [4.941435, 51.439987], [4.939761, 51.43976], [4.939857, 51.439508]], [[4.941185, 51.444883], [4.942315, 51.445137], [4.942116, 51.445549], [4.940982, 51.445294], [4.941185, 51.444883]], [[4.949023, 51.453765], [4.949791, 51.454304], [4.949591, 51.455112], [4.948755, 51.454991], [4.949023, 51.453765]], [[4.874828, 51.416508], [4.873393, 51.415917], [4.873641, 51.415458], [4.87531, 51.416065], [4.874828, 51.416508]], [[4.928398, 51.447828], [4.929125, 51.448124], [4.928153, 51.448937], [4.92735, 51.448568], [4.928398, 51.447828]], [[4.940234, 51.443027], [4.939215, 51.44362], [4.939726, 51.441821], [4.940282, 51.441802], [4.940234, 51.443027]], [[4.944841, 51.453336], [4.942769, 51.453327], [4.942818, 51.452683], [4.944929, 51.453035], [4.944841, 51.453336]], [[4.866316, 51.413183], [4.867819, 51.413263], [4.866997, 51.414386], [4.865778, 51.414279], [4.866316, 51.413183]], [[4.840857, 51.417454], [4.840468, 51.418838], [4.83875, 51.418178], [4.839565, 51.417896], [4.840857, 51.417454]], [[4.941374, 51.437952], [4.942227, 51.438108], [4.943117, 51.440164], [4.94076, 51.439315], [4.941374, 51.437952]], [[4.930483, 51.448755], [4.931813, 51.44927], [4.930737, 51.450426], [4.929491, 51.44957], [4.930483, 51.448755]], [[4.931907, 51.44666], [4.934074, 51.447401], [4.933258, 51.448282], [4.931512, 51.447631], [4.931907, 51.44666]], [[4.926692, 51.445302], [4.925504, 51.446651], [4.924172, 51.446351], [4.925719, 51.444907], [4.926692, 51.445302]], [[4.939971, 51.436119], [4.940999, 51.434642], [4.942756, 51.435113], [4.94219, 51.436455], [4.939971, 51.436119]], [[4.891436, 51.423224], [4.891598, 51.424785], [4.888587, 51.424694], [4.889367, 51.423454], [4.891436, 51.423224]], [[4.946424, 51.445195], [4.943956, 51.443652], [4.949877, 51.443654], [4.949209, 51.445521], [4.946424, 51.445195]], [[4.932593, 51.408473], [4.927266, 51.408243], [4.932382, 51.406508], [4.928495, 51.405114], [4.936395, 51.405342], [4.935795, 51.4093], [4.932593, 51.408473]], [[4.934667, 51.447581], [4.938909, 51.447134], [4.940132, 51.445163], [4.939722, 51.446566], [4.943533, 51.448664], [4.945994, 51.449093], [4.944761, 51.447784], [4.947953, 51.447333], [4.94827, 51.449026], [4.952401, 51.450151], [4.951469, 51.453713], [4.947624, 51.450573], [4.933082, 51.44953], [4.934667, 51.447581]], [[4.939971, 51.436119], [4.939881, 51.439446], [4.939039, 51.437989], [4.93466, 51.438549], [4.936426, 51.439666], [4.93427, 51.442113], [4.938106, 51.441877], [4.938468, 51.443435], [4.939525, 51.441828], [4.938118, 51.444717], [4.935477, 51.444282], [4.935546, 51.446347], [4.93373, 51.44316], [4.928702, 51.441597], [4.9283, 51.438553], [4.92579, 51.44278], [4.928055, 51.443619], [4.923733, 51.443894], [4.923035, 51.447378], [4.92055, 51.445955], [4.919257, 51.446861], [4.918303, 51.445785], [4.921242, 51.445309], [4.922369, 51.442663], [4.91919, 51.44067], [4.921201, 51.440404], [4.921206, 51.436896], [4.915012, 51.435355], [4.925987, 51.433863], [4.928813, 51.430512], [4.933599, 51.431021], [4.936153, 51.429465], [4.939697, 51.430743], [4.939937, 51.434117], [4.936249, 51.434226], [4.939971, 51.436119]]]}, "properties": {"name": "Noord-Brabant", "regioFacetId": "tcm:106-353560-1024", "level": 3}}, {"type": "Feature", "geometry": {"type": "Polygon", "coordinates": [[[4.583321, 52.533892], [4.596585, 52.584008], [4.611468, 52.65552], [4.611191, 52.662861], [4.616955, 52.682293], [4.623757, 52.725772], [4.629718, 52.744899], [4.636554, 52.76341], [4.656365, 52.797019], [4.693992, 52.884473], [4.629451, 52.889722], [4.646201, 52.941069], [4.613329, 52.960973], [4.613001, 52.979483], [4.687077, 53.002406], [4.686353, 53.047334], [4.71555, 53.087939], [4.818789, 53.182826], [4.818376, 53.214275], [5.050953, 53.143266], [5.164249, 53.001004], [5.169135, 52.997612], [5.238682, 52.874061], [5.37726, 52.764805], [5.361147, 52.675726], [5.301635, 52.692427], [5.287619, 52.691656], [5.28645, 52.688749], [5.262266, 52.676829], [5.257187, 52.644471], [5.060428, 52.578936], [5.100722, 52.508041], [5.151024, 52.46636], [5.18549, 52.415644], [5.137331, 52.415553], [5.079162, 52.388654], [5.079289, 52.370408], [5.148879, 52.318729], [5.220406, 52.326054], [5.229321, 52.325256], [5.287397, 52.315056], [5.30726, 52.30679], [5.335461, 52.290218], [5.305834, 52.277329], [5.265978, 52.281926], [5.222901, 52.225261], [5.22473, 52.225197], [5.217214, 52.206233], [5.192586, 52.177833], [5.121176, 52.180947], [5.046223, 52.166014], [5.042049, 52.18337], [5.032503, 52.184113], [5.038134, 52.195163], [5.037201, 52.197949], [5.021293, 52.201886], [5.023012, 52.201747], [5.022621, 52.203941], [5.03665, 52.202138], [5.036445, 52.209568], [5.033401, 52.209836], [5.033788, 52.213714], [5.03729, 52.214215], [5.03533, 52.214462], [5.037145, 52.216203], [5.036666, 52.22436], [5.042796, 52.22404], [5.037102, 52.225342], [5.042484, 52.22878], [5.040518, 52.229834], [5.041586, 52.230888], [5.05773, 52.235353], [5.045854, 52.243382], [5.046634, 52.248541], [5.042943, 52.255977], [5.040062, 52.256499], [5.035733, 52.252654], [5.03186, 52.255117], [5.032489, 52.260166], [5.026582, 52.264148], [5.02775, 52.267574], [5.022887, 52.272483], [5.030579, 52.272248], [5.033328, 52.275437], [5.04211, 52.27787], [5.048602, 52.27703], [5.050753, 52.281818], [5.060519, 52.285169], [5.062838, 52.284798], [5.06307, 52.281841], [5.06588, 52.280543], [5.065471, 52.285198], [5.05954, 52.28932], [5.052769, 52.286485], [5.050404, 52.287872], [5.042779, 52.282488], [5.030528, 52.288487], [5.024382, 52.281357], [5.021867, 52.282653], [5.021543, 52.302457], [5.014265, 52.303677], [5.003835, 52.298509], [5.001789, 52.292793], [4.997475, 52.289118], [4.983506, 52.290368], [4.969726, 52.283121], [4.967674, 52.279582], [4.966166, 52.28098], [4.962244, 52.280207], [4.961054, 52.278174], [4.953798, 52.278027], [4.942692, 52.278184], [4.933801, 52.280893], [4.926444, 52.27978], [4.926651, 52.272445], [4.929422, 52.268403], [4.924748, 52.267001], [4.923257, 52.26309], [4.918118, 52.261695], [4.917601, 52.257077], [4.910805, 52.252614], [4.903076, 52.253205], [4.898569, 52.250932], [4.891325, 52.253303], [4.887016, 52.250899], [4.882719, 52.253712], [4.873853, 52.250743], [4.870037, 52.253361], [4.868583, 52.251579], [4.857369, 52.247615], [4.854938, 52.242146], [4.851254, 52.241867], [4.851211, 52.238703], [4.84728, 52.239765], [4.842845, 52.235347], [4.838328, 52.235259], [4.830107, 52.230913], [4.813514, 52.227137], [4.805404, 52.227989], [4.795441, 52.226654], [4.780986, 52.228741], [4.762074, 52.21813], [4.753299, 52.217468], [4.747972, 52.214868], [4.743479, 52.214725], [4.734339, 52.206516], [4.724297, 52.213053], [4.724155, 52.232371], [4.704876, 52.233814], [4.696494, 52.232216], [4.685063, 52.226445], [4.676699, 52.225926], [4.670348, 52.230756], [4.665045, 52.227574], [4.632937, 52.21627], [4.619638, 52.214578], [4.601707, 52.214651], [4.583553, 52.218874], [4.571396, 52.216959], [4.556981, 52.219096], [4.55047, 52.226745], [4.554208, 52.231397], [4.562937, 52.234758], [4.569521, 52.259691], [4.567972, 52.268072], [4.58844, 52.280502], [4.597476, 52.296676], [4.611676, 52.31356], [4.596541, 52.317724], [4.587686, 52.317881], [4.587486, 52.316762], [4.583272, 52.318395], [4.573241, 52.315356], [4.568955, 52.316513], [4.563707, 52.309298], [4.477649, 52.332511], [4.522331, 52.399196], [4.543229, 52.435262], [4.543318, 52.449113], [4.534168, 52.449119], [4.52441, 52.453156], [4.518619, 52.459657], [4.518591, 52.467072], [4.523694, 52.470983], [4.536862, 52.476606], [4.546863, 52.478573], [4.554703, 52.478071], [4.558721, 52.482027], [4.573289, 52.505541], [4.583321, 52.533892]]]}, "properties": {"name": "Noord-Holland", "regioFacetId": "tcm:106-353628-1024", "level": 3}}, {"type": "Feature", "geometry": {"type": "Polygon", "coordinates": [[[6.10958, 52.440531], [6.102295, 52.445772], [6.103351, 52.456432], [6.101632, 52.466582], [6.098271, 52.471183], [6.089268, 52.476811], [6.068423, 52.483727], [6.054666, 52.499547], [6.042409, 52.505596], [6.027857, 52.509606], [6.022851, 52.505332], [6.012367, 52.50594], [6.007121, 52.504027], [5.965361, 52.476456], [5.958697, 52.483838], [5.952985, 52.484448], [5.93688, 52.476499], [5.93541, 52.477392], [5.925559, 52.474058], [5.910217, 52.497305], [5.887277, 52.516906], [5.876205, 52.522025], [5.86431, 52.518173], [5.855076, 52.550824], [5.812006, 52.579169], [5.804283, 52.580738], [5.77793, 52.580852], [5.777968, 52.607534], [5.837214, 52.607331], [5.840525, 52.610413], [5.90547, 52.619215], [5.910602, 52.617661], [5.915664, 52.613534], [5.93269, 52.614923], [5.95562, 52.622917], [5.955285, 52.624842], [5.988626, 52.629324], [6.010491, 52.637882], [6.017301, 52.643232], [6.006915, 52.651286], [5.99953, 52.654636], [5.984048, 52.657192], [5.966852, 52.66658], [5.941594, 52.670517], [5.939726, 52.668835], [5.935148, 52.669234], [5.933084, 52.671264], [5.93387, 52.67551], [5.949519, 52.685713], [5.95274, 52.68524], [5.962105, 52.690351], [5.965155, 52.69357], [5.964825, 52.698104], [5.959012, 52.703863], [5.954839, 52.703768], [5.955316, 52.707262], [5.951161, 52.711919], [5.942555, 52.715002], [5.922574, 52.750692], [5.906009, 52.761326], [5.900054, 52.761195], [5.896085, 52.762822], [5.879683, 52.773251], [5.860258, 52.781817], [5.849699, 52.784739], [5.836254, 52.785637], [5.818792, 52.784697], [5.818656, 52.787636], [5.805926, 52.794859], [5.795177, 52.806522], [5.817113, 52.816703], [5.819744, 52.817278], [5.824198, 52.813277], [5.833629, 52.811656], [5.837365, 52.808262], [5.836474, 52.805793], [5.842202, 52.807584], [5.843594, 52.805033], [5.854667, 52.805507], [5.857027, 52.807229], [5.85964, 52.804536], [5.865636, 52.80465], [5.878266, 52.800754], [5.882578, 52.80392], [5.897881, 52.807803], [5.900657, 52.811825], [5.90937, 52.814059], [5.914998, 52.819456], [5.924079, 52.823488], [5.922905, 52.827452], [5.926407, 52.82835], [5.922841, 52.830792], [5.930689, 52.831938], [5.927164, 52.833865], [5.945933, 52.837452], [5.955706, 52.833219], [5.955792, 52.837442], [5.958731, 52.839766], [5.973128, 52.84247], [5.976175, 52.834748], [5.986479, 52.821693], [5.990575, 52.821597], [5.996508, 52.816562], [6.007483, 52.820046], [6.024559, 52.822545], [6.031168, 52.814991], [6.059951, 52.826119], [6.052607, 52.837339], [6.0615, 52.839297], [6.082346, 52.839069], [6.08748, 52.843114], [6.11982, 52.854215], [6.128694, 52.847807], [6.130312, 52.84393], [6.151962, 52.82883], [6.149199, 52.828402], [6.157644, 52.825036], [6.171682, 52.81506], [6.17723, 52.813851], [6.201731, 52.793696], [6.193808, 52.786403], [6.173099, 52.773317], [6.168525, 52.767093], [6.16394, 52.766449], [6.156703, 52.762699], [6.126617, 52.756935], [6.120557, 52.752468], [6.120332, 52.750149], [6.148498, 52.707631], [6.156607, 52.691957], [6.162185, 52.691279], [6.169651, 52.686121], [6.162996, 52.680062], [6.183147, 52.675063], [6.181933, 52.676868], [6.184208, 52.677208], [6.180548, 52.681588], [6.185871, 52.682504], [6.187862, 52.679614], [6.191444, 52.67932], [6.192055, 52.676426], [6.19423, 52.67663], [6.195036, 52.679573], [6.201682, 52.68462], [6.212536, 52.684634], [6.21665, 52.686406], [6.219807, 52.685704], [6.218708, 52.684327], [6.221091, 52.682779], [6.232741, 52.681455], [6.232843, 52.679109], [6.237075, 52.677548], [6.243761, 52.678718], [6.248365, 52.675617], [6.247286, 52.672811], [6.252001, 52.669881], [6.260535, 52.670478], [6.265401, 52.66918], [6.265794, 52.666865], [6.270067, 52.664794], [6.2732, 52.664837], [6.279163, 52.669053], [6.285465, 52.667022], [6.287487, 52.663453], [6.295367, 52.662286], [6.297563, 52.666369], [6.309759, 52.666751], [6.31679, 52.669909], [6.325022, 52.669952], [6.32929, 52.665398], [6.325876, 52.662865], [6.32629, 52.658986], [6.332638, 52.656751], [6.334003, 52.654699], [6.341395, 52.654121], [6.346968, 52.649152], [6.353299, 52.647814], [6.353338, 52.645963], [6.359751, 52.645562], [6.364441, 52.643175], [6.363019, 52.639058], [6.369522, 52.635484], [6.36918, 52.632067], [6.371485, 52.631792], [6.375206, 52.627408], [6.373253, 52.623837], [6.377178, 52.620361], [6.37651, 52.616924], [6.38032, 52.614975], [6.382796, 52.615661], [6.383837, 52.612198], [6.391522, 52.614519], [6.396035, 52.617788], [6.403767, 52.616271], [6.406858, 52.617781], [6.406251, 52.620694], [6.409502, 52.621733], [6.412859, 52.619574], [6.418808, 52.619023], [6.420236, 52.622318], [6.426794, 52.624527], [6.428176, 52.628188], [6.431243, 52.628378], [6.433803, 52.626409], [6.434934, 52.619286], [6.44188, 52.615637], [6.453366, 52.613946], [6.455138, 52.61544], [6.459788, 52.61576], [6.463285, 52.623514], [6.470073, 52.625007], [6.478016, 52.618631], [6.49185, 52.619144], [6.504512, 52.617058], [6.512027, 52.61365], [6.518604, 52.614088], [6.513861, 52.646294], [6.552821, 52.665595], [6.614527, 52.674049], [6.682509, 52.654179], [6.708547, 52.648715], [6.705677, 52.643478], [6.701153, 52.641736], [6.706526, 52.639542], [6.700792, 52.62841], [6.702005, 52.627267], [6.707171, 52.62676], [6.708002, 52.628014], [6.714208, 52.626808], [6.727289, 52.614928], [6.718772, 52.588636], [6.76666, 52.563533], [6.766692, 52.561637], [6.752272, 52.559039], [6.740103, 52.562053], [6.725973, 52.563255], [6.72096, 52.552947], [6.716236, 52.550327], [6.716264, 52.548525], [6.68088, 52.553317], [6.705332, 52.521008], [6.697524, 52.486323], [6.723771, 52.477017], [6.752734, 52.464111], [6.774587, 52.459601], [6.854298, 52.459706], [6.852542, 52.449914], [6.861816, 52.451358], [6.941657, 52.435426], [6.9473, 52.436621], [6.961785, 52.443624], [6.977534, 52.465681], [6.987623, 52.469767], [6.991799, 52.467376], [7.005063, 52.445358], [7.010782, 52.429137], [7.02199, 52.422984], [7.036074, 52.402663], [7.051656, 52.399925], [7.05532, 52.401034], [7.058728, 52.39941], [7.058518, 52.396191], [7.064021, 52.390328], [7.072153, 52.373611], [7.072255, 52.351879], [7.056231, 52.337954], [7.055493, 52.332169], [7.04718, 52.323744], [7.04811, 52.319949], [7.045787, 52.316443], [7.047421, 52.315206], [7.038683, 52.31238], [7.041313, 52.311143], [7.039493, 52.307627], [7.026453, 52.291968], [7.026239, 52.287324], [7.029548, 52.281526], [7.02752, 52.277986], [7.028584, 52.273627], [7.032063, 52.271664], [7.042395, 52.256144], [7.06579, 52.241235], [7.061284, 52.234711], [7.039094, 52.227574], [7.019171, 52.225052], [7.003476, 52.22859], [6.985314, 52.225347], [6.985353, 52.223478], [6.98128, 52.221182], [6.974085, 52.205403], [6.951245, 52.181058], [6.908061, 52.175959], [6.90572, 52.169915], [6.880458, 52.15601], [6.88196, 52.155976], [6.873424, 52.130249], [6.867088, 52.128071], [6.855474, 52.120462], [6.82271, 52.118404], [6.716272, 52.11827], [6.69781, 52.123554], [6.677691, 52.125959], [6.662399, 52.130167], [6.67388, 52.141204], [6.673748, 52.148287], [6.671309, 52.150458], [6.673819, 52.152104], [6.673469, 52.154972], [6.670351, 52.156424], [6.67428, 52.158538], [6.673397, 52.16324], [6.671339, 52.165683], [6.645041, 52.174194], [6.64028, 52.167405], [6.634862, 52.172165], [6.630545, 52.1736], [6.629101, 52.172033], [6.625154, 52.172102], [6.624952, 52.16865], [6.621692, 52.168417], [6.612147, 52.163166], [6.60675, 52.165018], [6.602851, 52.169121], [6.606327, 52.173082], [6.590415, 52.182464], [6.555349, 52.177256], [6.514163, 52.181311], [6.492401, 52.177372], [6.490647, 52.179863], [6.479154, 52.18229], [6.469999, 52.19269], [6.470293, 52.199374], [6.457287, 52.200965], [6.454876, 52.202378], [6.446476, 52.212698], [6.42847, 52.223862], [6.423134, 52.232013], [6.416807, 52.237126], [6.41664, 52.242137], [6.41105, 52.243046], [6.389863, 52.242559], [6.383411, 52.244016], [6.381851, 52.246113], [6.366851, 52.241532], [6.350892, 52.24168], [6.349477, 52.238797], [6.341194, 52.237612], [6.341276, 52.235986], [6.338025, 52.236222], [6.338708, 52.227153], [6.325434, 52.226997], [6.320429, 52.225669], [6.297942, 52.22553], [6.296951, 52.229005], [6.292974, 52.229501], [6.292732, 52.230869], [6.271007, 52.22791], [6.271291, 52.226414], [6.260058, 52.229142], [6.257295, 52.227276], [6.250429, 52.226906], [6.24468, 52.228271], [6.238018, 52.227543], [6.227925, 52.229768], [6.222495, 52.228863], [6.215114, 52.23155], [6.217224, 52.226401], [6.201943, 52.229423], [6.189136, 52.229167], [6.182881, 52.233731], [6.178672, 52.233561], [6.166269, 52.231014], [6.163028, 52.228522], [6.168436, 52.227279], [6.167738, 52.226222], [6.1625, 52.227917], [6.168671, 52.220699], [6.164069, 52.217441], [6.163933, 52.221924], [6.161375, 52.22476], [6.147682, 52.227691], [6.141942, 52.23344], [6.142237, 52.238456], [6.153604, 52.244018], [6.153748, 52.24679], [6.15002, 52.248316], [6.143526, 52.246404], [6.135412, 52.249615], [6.123865, 52.251481], [6.125145, 52.256825], [6.130069, 52.260691], [6.124797, 52.26341], [6.12167, 52.27144], [6.112627, 52.277928], [6.111322, 52.288211], [6.105864, 52.292408], [6.10132, 52.301225], [6.090916, 52.299987], [6.084126, 52.301567], [6.082928, 52.30712], [6.08478, 52.311741], [6.08099, 52.311902], [6.079822, 52.317594], [6.071783, 52.317189], [6.066525, 52.317809], [6.066191, 52.318938], [6.067113, 52.321267], [6.070706, 52.321882], [6.075632, 52.3333], [6.074046, 52.334479], [6.076764, 52.338651], [6.07607, 52.35057], [6.07801, 52.352426], [6.087241, 52.35389], [6.094857, 52.356968], [6.090314, 52.360605], [6.079094, 52.362873], [6.077437, 52.365774], [6.078749, 52.369806], [6.083725, 52.372411], [6.117494, 52.37815], [6.122917, 52.380688], [6.126005, 52.384521], [6.125208, 52.392627], [6.130553, 52.399978], [6.127579, 52.399617], [6.119065, 52.402642], [6.11494, 52.406936], [6.110774, 52.407747], [6.114741, 52.414256], [6.113872, 52.419853], [6.118245, 52.426644], [6.116385, 52.430199], [6.119472, 52.432918], [6.10958, 52.440531]]]}, "properties": {"name": "Overijssel", "regioFacetId": "tcm:106-353682-1024", "level": 3}}, {"type": "Feature", "geometry": {"type": "Polygon", "coordinates": [[[4.892178, 52.161798], [4.855582, 52.178917], [4.843921, 52.180122], [4.823445, 52.193266], [4.822209, 52.196125], [4.8144, 52.199309], [4.813594, 52.201847], [4.802925, 52.201028], [4.80215, 52.217634], [4.79443, 52.223423], [4.794576, 52.226731], [4.805404, 52.227989], [4.814455, 52.227224], [4.830107, 52.230913], [4.838687, 52.235366], [4.842826, 52.235339], [4.84728, 52.239765], [4.851626, 52.238995], [4.851254, 52.241867], [4.854938, 52.242146], [4.857522, 52.247723], [4.868583, 52.251579], [4.870037, 52.253361], [4.873853, 52.250743], [4.882719, 52.253712], [4.887016, 52.250899], [4.891325, 52.253303], [4.898597, 52.250931], [4.903076, 52.253205], [4.910897, 52.252649], [4.917601, 52.257077], [4.918118, 52.261695], [4.923257, 52.26309], [4.924748, 52.267001], [4.929422, 52.268403], [4.926651, 52.272445], [4.926444, 52.27978], [4.933801, 52.280893], [4.942692, 52.278184], [4.953798, 52.278027], [4.961054, 52.278174], [4.962244, 52.280207], [4.966166, 52.28098], [4.967674, 52.279582], [4.969726, 52.283121], [4.983506, 52.290368], [4.997475, 52.289118], [5.001789, 52.292793], [5.003835, 52.298509], [5.014265, 52.303677], [5.021543, 52.302457], [5.021867, 52.282653], [5.024382, 52.281357], [5.030528, 52.288487], [5.042779, 52.282488], [5.050404, 52.287872], [5.052769, 52.286485], [5.05954, 52.28932], [5.065471, 52.285198], [5.06588, 52.280543], [5.06307, 52.281841], [5.062838, 52.284798], [5.060519, 52.285169], [5.050753, 52.281818], [5.048602, 52.27703], [5.04211, 52.27787], [5.033328, 52.275437], [5.030579, 52.272248], [5.022887, 52.272483], [5.02775, 52.267574], [5.026582, 52.264148], [5.032489, 52.260166], [5.03186, 52.255117], [5.035733, 52.252654], [5.040062, 52.256499], [5.042943, 52.255977], [5.046634, 52.248541], [5.045854, 52.243382], [5.05773, 52.235353], [5.041586, 52.230888], [5.040518, 52.229834], [5.042484, 52.22878], [5.037102, 52.225342], [5.042796, 52.22404], [5.036666, 52.22436], [5.037145, 52.216203], [5.03533, 52.214462], [5.03729, 52.214215], [5.033788, 52.213714], [5.033401, 52.209836], [5.036445, 52.209568], [5.03665, 52.202138], [5.022621, 52.203941], [5.023012, 52.201747], [5.021293, 52.201886], [5.037201, 52.197949], [5.038134, 52.195163], [5.032503, 52.184113], [5.042049, 52.18337], [5.046421, 52.165929], [5.121176, 52.180947], [5.192586, 52.177833], [5.217214, 52.206233], [5.22473, 52.225197], [5.222901, 52.225261], [5.265978, 52.281926], [5.305834, 52.277329], [5.335461, 52.290218], [5.404643, 52.24963], [5.393215, 52.220634], [5.407222, 52.213405], [5.40967, 52.21858], [5.434714, 52.205876], [5.439237, 52.204601], [5.441039, 52.205693], [5.438086, 52.184585], [5.439876, 52.171197], [5.448824, 52.167704], [5.479922, 52.165815], [5.472433, 52.162851], [5.479197, 52.161361], [5.482116, 52.159796], [5.481496, 52.158297], [5.484317, 52.158064], [5.481342, 52.150501], [5.498982, 52.147393], [5.497306, 52.141443], [5.514079, 52.135923], [5.511928, 52.132105], [5.497913, 52.130283], [5.496759, 52.124814], [5.494695, 52.124698], [5.496918, 52.119557], [5.505354, 52.11975], [5.503756, 52.116586], [5.507549, 52.115645], [5.507702, 52.113897], [5.50395, 52.11372], [5.498917, 52.116018], [5.486447, 52.11536], [5.491831, 52.114508], [5.493941, 52.112504], [5.484302, 52.105542], [5.486083, 52.093657], [5.471886, 52.089381], [5.464054, 52.083056], [5.459678, 52.082003], [5.459243, 52.080226], [5.465435, 52.078429], [5.467144, 52.07557], [5.48415, 52.069622], [5.493887, 52.071889], [5.499882, 52.071335], [5.504584, 52.07335], [5.50507, 52.076911], [5.509204, 52.07697], [5.509923, 52.07905], [5.519437, 52.079227], [5.522654, 52.077542], [5.531245, 52.082419], [5.531306, 52.083939], [5.526634, 52.084903], [5.530856, 52.089774], [5.537127, 52.088659], [5.538294, 52.09269], [5.535079, 52.092875], [5.53916, 52.097814], [5.532817, 52.099984], [5.531543, 52.102267], [5.54154, 52.103737], [5.544013, 52.101949], [5.546302, 52.102444], [5.545292, 52.10439], [5.550343, 52.10542], [5.554236, 52.100151], [5.550463, 52.096641], [5.554429, 52.095392], [5.554905, 52.08655], [5.557112, 52.086851], [5.556687, 52.085483], [5.560778, 52.084394], [5.562739, 52.078332], [5.559212, 52.071043], [5.560729, 52.067501], [5.557903, 52.048865], [5.570853, 52.047997], [5.567386, 52.040606], [5.59003, 52.034387], [5.589589, 52.031177], [5.586712, 52.03129], [5.586503, 52.029171], [5.5872, 52.02045], [5.590242, 52.020267], [5.589622, 52.015595], [5.586922, 52.015713], [5.586015, 52.011776], [5.591113, 52.007301], [5.591998, 52.001392], [5.602805, 51.994869], [5.609972, 51.993692], [5.613905, 51.99018], [5.615083, 51.982687], [5.626064, 51.97407], [5.624856, 51.970448], [5.618329, 51.966258], [5.620258, 51.966582], [5.624978, 51.960065], [5.62729, 51.952448], [5.620162, 51.951498], [5.620446, 51.948166], [5.616428, 51.949354], [5.605782, 51.94316], [5.590992, 51.949776], [5.556934, 51.955711], [5.549561, 51.959197], [5.538942, 51.967827], [5.512481, 51.973081], [5.486214, 51.983826], [5.470991, 51.982987], [5.437323, 51.985561], [5.418156, 51.976606], [5.38707, 51.969831], [5.376909, 51.969161], [5.361845, 51.970966], [5.354038, 51.969982], [5.347095, 51.966997], [5.335221, 51.958044], [5.321611, 51.954919], [5.314857, 51.95562], [5.300894, 51.961569], [5.270374, 51.965427], [5.25754, 51.97026], [5.246524, 51.977498], [5.23827, 51.978894], [5.230851, 51.976349], [5.220633, 51.964556], [5.210275, 51.959847], [5.196104, 51.960806], [5.180227, 51.967448], [5.15069, 51.933321], [5.133352, 51.937755], [5.130138, 51.934912], [5.088843, 51.950005], [5.054459, 51.954791], [5.058467, 51.960554], [5.064642, 51.964591], [5.054384, 51.976585], [5.048842, 51.97406], [5.047794, 51.976558], [5.040402, 51.977444], [5.036127, 51.971329], [5.027243, 51.96916], [5.02034, 51.970437], [5.002182, 51.978216], [4.988398, 51.974196], [4.975436, 51.962886], [4.968289, 51.959377], [4.948691, 51.963472], [4.939821, 51.96344], [4.934563, 51.960611], [4.924494, 51.948946], [4.91638, 51.943178], [4.877793, 51.938031], [4.871223, 51.954643], [4.860806, 51.967784], [4.845622, 51.974985], [4.835218, 51.986143], [4.817806, 51.999767], [4.857127, 52.00596], [4.847481, 52.017715], [4.833335, 52.016423], [4.824994, 52.017237], [4.815616, 52.013981], [4.803523, 52.013956], [4.7987, 52.022272], [4.809933, 52.026765], [4.806704, 52.033167], [4.811822, 52.033825], [4.817193, 52.036931], [4.82949, 52.049813], [4.848049, 52.058165], [4.855971, 52.059065], [4.867858, 52.063054], [4.8732, 52.068745], [4.842204, 52.069006], [4.829808, 52.066823], [4.834035, 52.072736], [4.833045, 52.074827], [4.826276, 52.074644], [4.823348, 52.093369], [4.823056, 52.105193], [4.82538, 52.107087], [4.792043, 52.122312], [4.798342, 52.125299], [4.802601, 52.12506], [4.807766, 52.128622], [4.807486, 52.135022], [4.810159, 52.13855], [4.832858, 52.144762], [4.834128, 52.142876], [4.836705, 52.14288], [4.837366, 52.14065], [4.840276, 52.141561], [4.842872, 52.13946], [4.851479, 52.139674], [4.855239, 52.13721], [4.874518, 52.138831], [4.873623, 52.156083], [4.892178, 52.161798]]]}, "properties": {"name": "Utrecht", "regioFacetId": "tcm:106-353708-1024", "level": 3}}, {"type": "Feature", "geometry": {"type": "Polygon", "coordinates": [[[3.485917, 51.573629], [3.570919, 51.604742], [3.685364, 51.733636], [3.773675, 51.78152], [3.826213, 51.765841], [3.847428, 51.753401], [3.875894, 51.747692], [3.886171, 51.749358], [3.905057, 51.764634], [3.921443, 51.770745], [3.94033, 51.7738], [3.958938, 51.772133], [3.974491, 51.763801], [4.013336, 51.759012], [4.018885, 51.742718], [4.035038, 51.730194], [4.036704, 51.711029], [4.040037, 51.702697], [4.047813, 51.694364], [4.098084, 51.690476], [4.110026, 51.687143], [4.12308, 51.685754], [4.151825, 51.685233], [4.193764, 51.664399], [4.242786, 51.647063], [4.238168, 51.634298], [4.211945, 51.626789], [4.199273, 51.619539], [4.191893, 51.609835], [4.190394, 51.599162], [4.197224, 51.587442], [4.228121, 51.563716], [4.235202, 51.553953], [4.235657, 51.543242], [4.220102, 51.514284], [4.218927, 51.504858], [4.275852, 51.425049], [4.266447, 51.419979], [4.263732, 51.416449], [4.269061, 51.400347], [4.268634, 51.388126], [4.266349, 51.386541], [4.268382, 51.383546], [4.273698, 51.38315], [4.277425, 51.376035], [4.217577, 51.373885], [4.222066, 51.36451], [4.226746, 51.359759], [4.242049, 51.353967], [4.166132, 51.292893], [4.070633, 51.250739], [4.064077, 51.247492], [4.061848, 51.244573], [4.040552, 51.241318], [4.036537, 51.245678], [4.02449, 51.2415], [4.020934, 51.245366], [4.014751, 51.245062], [4.002844, 51.240866], [3.999646, 51.237811], [3.992596, 51.236416], [3.988435, 51.233303], [3.986205, 51.23416], [3.978919, 51.225366], [3.964291, 51.223954], [3.958562, 51.215807], [3.946639, 51.215508], [3.93598, 51.211893], [3.929418, 51.22026], [3.92545, 51.217106], [3.919632, 51.217071], [3.918527, 51.214838], [3.916005, 51.214634], [3.918629, 51.207763], [3.915337, 51.20817], [3.911547, 51.205445], [3.899471, 51.201742], [3.894082, 51.203436], [3.88635, 51.200162], [3.877626, 51.208013], [3.890244, 51.213996], [3.893346, 51.218662], [3.888549, 51.223018], [3.859574, 51.210831], [3.852411, 51.213216], [3.849643, 51.211733], [3.836365, 51.213796], [3.825116, 51.208931], [3.806027, 51.213379], [3.804047, 51.213202], [3.80499, 51.210121], [3.799291, 51.210864], [3.789627, 51.215881], [3.788455, 51.226373], [3.789452, 51.245786], [3.795473, 51.256053], [3.785434, 51.258467], [3.773784, 51.263975], [3.769342, 51.25985], [3.762514, 51.261781], [3.755714, 51.269344], [3.752413, 51.270267], [3.751726, 51.26916], [3.723088, 51.273345], [3.718913, 51.271535], [3.712701, 51.272103], [3.693718, 51.276081], [3.689932, 51.280609], [3.677911, 51.280527], [3.676757, 51.283065], [3.6581, 51.290189], [3.644406, 51.290111], [3.640815, 51.288086], [3.62571, 51.293338], [3.621228, 51.292765], [3.614731, 51.297727], [3.590832, 51.304417], [3.590017, 51.305952], [3.581113, 51.298321], [3.587928, 51.29296], [3.583385, 51.292254], [3.58388, 51.288885], [3.581812, 51.286913], [3.579756, 51.288864], [3.576159, 51.288007], [3.571941, 51.291963], [3.562636, 51.295858], [3.559759, 51.295455], [3.558056, 51.291193], [3.555044, 51.289635], [3.543427, 51.291198], [3.538107, 51.283665], [3.533665, 51.283489], [3.52913, 51.288744], [3.515415, 51.287151], [3.527594, 51.24604], [3.448276, 51.241493], [3.432314, 51.245609], [3.427479, 51.244657], [3.424599, 51.254208], [3.418012, 51.257693], [3.416843, 51.26001], [3.411491, 51.256903], [3.407403, 51.256962], [3.403162, 51.262463], [3.394643, 51.265317], [3.387979, 51.273192], [3.379014, 51.274793], [3.375698, 51.277211], [3.37593, 51.279485], [3.38168, 51.281624], [3.380796, 51.286961], [3.370287, 51.29194], [3.366003, 51.298233], [3.378079, 51.30265], [3.358378, 51.314981], [3.38534, 51.334125], [3.383513, 51.341205], [3.374071, 51.348508], [3.37499, 51.358887], [3.363062, 51.372881], [3.352556, 51.378611], [3.307938, 51.433376], [3.387301, 51.592518], [3.452582, 51.616408], [3.485917, 51.573629]]]}, "properties": {"name": "Zeeland", "regioFacetId": "tcm:106-353735-1024", "level": 3}}, {"type": "Feature", "geometry": {"type": "Polygon", "coordinates": [[[4.563707, 52.309298], [4.568955, 52.316513], [4.573241, 52.315356], [4.583272, 52.318395], [4.587486, 52.316762], [4.587686, 52.317881], [4.596541, 52.317724], [4.611676, 52.31356], [4.597476, 52.296676], [4.58844, 52.280502], [4.567972, 52.268072], [4.569521, 52.259691], [4.562937, 52.234758], [4.554208, 52.231397], [4.55047, 52.226745], [4.556857, 52.21914], [4.571396, 52.216959], [4.583553, 52.218874], [4.601707, 52.214651], [4.619638, 52.214578], [4.632937, 52.21627], [4.665045, 52.227574], [4.670348, 52.230756], [4.676699, 52.225926], [4.685063, 52.226445], [4.696494, 52.232216], [4.704876, 52.233814], [4.724155, 52.232371], [4.724297, 52.213053], [4.734339, 52.206516], [4.74363, 52.214793], [4.762074, 52.21813], [4.780889, 52.228714], [4.78941, 52.227875], [4.794576, 52.226731], [4.79443, 52.223423], [4.802147, 52.217641], [4.802925, 52.201028], [4.813594, 52.201847], [4.8144, 52.199309], [4.822209, 52.196125], [4.823445, 52.193266], [4.843921, 52.180122], [4.855582, 52.178917], [4.892178, 52.161798], [4.873623, 52.156083], [4.874518, 52.138831], [4.855239, 52.13721], [4.851479, 52.139674], [4.842872, 52.13946], [4.840276, 52.141561], [4.837366, 52.14065], [4.836705, 52.14288], [4.834128, 52.142876], [4.832858, 52.144762], [4.810159, 52.13855], [4.807486, 52.135022], [4.807766, 52.128622], [4.802601, 52.12506], [4.798342, 52.125299], [4.792043, 52.122312], [4.82538, 52.107087], [4.823056, 52.105193], [4.823348, 52.093369], [4.826276, 52.074644], [4.833045, 52.074827], [4.834035, 52.072736], [4.829808, 52.066823], [4.842204, 52.069006], [4.8732, 52.068745], [4.867858, 52.063054], [4.855971, 52.059065], [4.848049, 52.058165], [4.82949, 52.049813], [4.817193, 52.036931], [4.811822, 52.033825], [4.806704, 52.033167], [4.809933, 52.026765], [4.7987, 52.022272], [4.803523, 52.013956], [4.815616, 52.013981], [4.824994, 52.017237], [4.833335, 52.016423], [4.847481, 52.017715], [4.857127, 52.00596], [4.817806, 51.999767], [4.835218, 51.986143], [4.845622, 51.974985], [4.860806, 51.967784], [4.871223, 51.954643], [4.877793, 51.938031], [4.91638, 51.943178], [4.924494, 51.948946], [4.934563, 51.960611], [4.939821, 51.96344], [4.948691, 51.963472], [4.968289, 51.959377], [4.975436, 51.962886], [4.988045, 51.973993], [4.998074, 51.977872], [5.00301, 51.978138], [5.017769, 51.971367], [5.027243, 51.96916], [5.034055, 51.97017], [5.040402, 51.977444], [5.043011, 51.977662], [5.047794, 51.976558], [5.048842, 51.97406], [5.054384, 51.976585], [5.064642, 51.964591], [5.058467, 51.960554], [5.054459, 51.954791], [5.088843, 51.950005], [5.130138, 51.934912], [5.133352, 51.937755], [5.149437, 51.933527], [5.14846, 51.929485], [5.135675, 51.918223], [5.136436, 51.914508], [5.132278, 51.914882], [5.119409, 51.898605], [5.11689, 51.898032], [5.117671, 51.89257], [5.112737, 51.887776], [5.090975, 51.888976], [5.088159, 51.887094], [5.08634, 51.880769], [5.080532, 51.875525], [5.073659, 51.874039], [5.062373, 51.874318], [5.053614, 51.871898], [5.052199, 51.866643], [5.06306, 51.86186], [5.062358, 51.859362], [5.053509, 51.857363], [5.043735, 51.85923], [5.015628, 51.859178], [5.006975, 51.85786], [4.995965, 51.861849], [4.994095, 51.861364], [4.998483, 51.854453], [4.999296, 51.8446], [5.031415, 51.841085], [5.026352, 51.818857], [5.008281, 51.821019], [4.987757, 51.821059], [4.936064, 51.828314], [4.922728, 51.828072], [4.911274, 51.825982], [4.889401, 51.818895], [4.859667, 51.802684], [4.845984, 51.798757], [4.836108, 51.797839], [4.806876, 51.800336], [4.797194, 51.79977], [4.773539, 51.793324], [4.765434, 51.789363], [4.75524, 51.781611], [4.744788, 51.763487], [4.736631, 51.755568], [4.717281, 51.743819], [4.693263, 51.732282], [4.681598, 51.728419], [4.675223, 51.724209], [4.617063, 51.713451], [4.5893, 51.703323], [4.54247, 51.694824], [4.514917, 51.692474], [4.500431, 51.692904], [4.42355, 51.709475], [4.393621, 51.693296], [4.379431, 51.683592], [4.378843, 51.678167], [4.374456, 51.671999], [4.361693, 51.662916], [4.33255, 51.653749], [4.275003, 51.643778], [4.242786, 51.647063], [4.193764, 51.664399], [4.151825, 51.685233], [4.12308, 51.685754], [4.110026, 51.687143], [4.098084, 51.690476], [4.047813, 51.694364], [4.040037, 51.702697], [4.036704, 51.711029], [4.035038, 51.730194], [4.018885, 51.742718], [4.013336, 51.759012], [3.974491, 51.763801], [3.958938, 51.772133], [3.94033, 51.7738], [3.921443, 51.770745], [3.905057, 51.764634], [3.886171, 51.749358], [3.875894, 51.747692], [3.847428, 51.753401], [3.826213, 51.765841], [3.773675, 51.78152], [3.860367, 51.828364], [3.953147, 51.850032], [3.972617, 51.910965], [3.94075, 51.921571], [3.953131, 51.989144], [4.032777, 52.003571], [4.110164, 52.004437], [4.119965, 52.010655], [4.143634, 52.031762], [4.238717, 52.09998], [4.237588, 52.104305], [4.243143, 52.110626], [4.256907, 52.113588], [4.286909, 52.132715], [4.33264, 52.168437], [4.360002, 52.192677], [4.420524, 52.258085], [4.477649, 52.332511], [4.563707, 52.309298]]]}, "properties": {"name": "Zuid-Holland", "regioFacetId": "tcm:106-353749-1024", "level": 3}}]}