{
"type": "FeatureCollection",
"name": "Germanyinput",
"crs": { "type": "name", "properties": { "name": "urn:ogc:def:crs:OGC:1.3:CRS84" } },
"features": [
{ "type": "Feature", "properties": { "source": "https://simplemaps.com", "name": "Sachsen", "id": "DESN", "join_name": "sachsen", "Population": 4048556, "pop": 4048556 }, "geometry": { "type": "Polygon", "coordinates": [ [ [ 12.101344, 50.313979996979128 ], [ 12.336487, 50.258586996965306 ], [ 12.510223, 50.38875999699772 ], [ 12.678792, 50.393720996998894 ], [ 12.825759, 50.441417997010625 ], [ 12.918363, 50.405399997001751 ], [ 13.009624, 50.492680997023214 ], [ 13.160106, 50.497021997024291 ], [ 13.232349, 50.582029997045005 ], [ 13.447944, 50.597273997048646 ], [ 13.601939, 50.712150997076392 ], [ 13.834535, 50.723674997079115 ], [ 14.381892, 50.920871997125928 ], [ 14.287531, 51.036833997153018 ], [ 14.489804, 51.023527997149934 ], [ 14.634589, 50.909399997123231 ], [ 14.613195, 50.845579997108118 ], [ 14.775356, 50.812971997100419 ], [ 14.955293, 51.0640419971593 ], [ 15.019476, 51.271677997206965 ], [ 14.945061, 51.449185997246921 ], [ 14.70677, 51.540827997267264 ], [ 14.509275, 51.556852997270838 ], [ 14.338588, 51.509930997260426 ], [ 14.158754, 51.526880997264193 ], [ 13.970341, 51.359190997226783 ], [ 13.521738, 51.366941997228473 ], [ 13.410789, 51.42140899724069 ], [ 13.252194, 51.38523599723257 ], [ 13.171527, 51.566206997272921 ], [ 13.061663, 51.615092997283647 ], [ 12.914695, 51.649896997291279 ], [ 12.662101, 51.601449997280653 ], [ 12.443458, 51.601449997280653 ], [ 12.235357, 51.562149997271987 ], [ 12.157015, 51.449004997246853 ], [ 12.132314, 51.291752997211518 ], [ 12.264554, 51.083755997163884 ], [ 12.483662, 51.058330997157938 ], [ 12.647218, 50.899942997120952 ], [ 12.258043, 50.792506997095536 ], [ 12.278817, 50.67969799706858 ], [ 12.145388, 50.562546997040307 ], [ 11.989429, 50.546113997036294 ], [ 11.9053, 50.415165997004202 ], [ 12.101344, 50.313979996979128 ] ] ] } },
{ "type": "Feature", "properties": { "source": "https://simplemaps.com", "name": "Bayern", "id": "DEBY", "join_name": "bayern", "Population": 13212677, "pop": 13212677 }, "geometry": { "type": "Polygon", "coordinates": [ [ [ 11.9053, 50.415165997004202 ], [ 11.531679, 50.378423996995153 ], [ 11.346729, 50.518724997029622 ], [ 11.248647, 50.472629997018309 ], [ 11.280273, 50.358631996990219 ], [ 10.788882, 50.38625299699703 ], [ 10.592408, 50.322871996981327 ], [ 10.238011, 50.510120997027464 ], [ 10.055025, 50.516502997029029 ], [ 10.000868, 50.448445997012364 ], [ 9.766722, 50.402091997000959 ], [ 9.661199, 50.234349996959217 ], [ 9.511027, 50.23620999695973 ], [ 9.506686, 50.108104996927402 ], [ 9.406744, 50.092342996923392 ], [ 9.22877, 50.14381299693644 ], [ 9.010282, 50.096838996924575 ], [ 9.026716, 49.907392996876098 ], [ 9.146657, 49.74621399683415 ], [ 9.11069, 49.575113996789 ], [ 9.25342, 49.577567996789618 ], [ 9.427208, 49.708180996824161 ], [ 9.351864, 49.785746996844502 ], [ 9.653137, 49.772388996840974 ], [ 9.792509, 49.72197799682781 ], [ 9.929813, 49.550360996782388 ], [ 9.936324, 49.481733996764049 ], [ 10.127527, 49.51144799677202 ], [ 10.17109, 49.384323996737784 ], [ 10.146906, 49.205394996689051 ], [ 10.274443, 49.050184996646081 ], [ 10.354231, 49.033389996641425 ], [ 10.467351, 48.914998996608254 ], [ 10.424201, 48.701988996547705 ], [ 10.313097, 48.608169996520672 ], [ 10.314957, 48.531094996498346 ], [ 10.067944, 48.472234996481149 ], [ 9.980559, 48.381336996454465 ], [ 10.054095, 48.304854996431871 ], [ 10.136209, 48.107295996372855 ], [ 10.087013, 47.96027699632829 ], [ 10.131403, 47.687915996244392 ], [ 9.864649, 47.674815996240326 ], [ 9.61221, 47.587741996213083 ], [ 9.554144, 47.532742996195765 ], [ 9.948726, 47.524231996193066 ], [ 10.305913, 47.30217799612241 ], [ 10.451951, 47.438758996166044 ], [ 10.43097, 47.542163996198738 ], [ 10.60791, 47.562265996205085 ], [ 10.790328, 47.516066996190474 ], [ 11.083747, 47.389511996150311 ], [ 11.258827, 47.400724996153954 ], [ 11.412616, 47.506093996187303 ], [ 11.551212, 47.51368999618979 ], [ 11.620458, 47.589653996213684 ], [ 11.820343, 47.57528799620912 ], [ 11.935891, 47.61073899622027 ], [ 12.165645, 47.603968996218171 ], [ 12.202335, 47.677787996241229 ], [ 12.42413, 47.691559996245552 ], [ 12.49658, 47.628902996225953 ], [ 12.744834, 47.665359996237363 ], [ 12.77894, 47.554824996202747 ], [ 12.942548, 47.470488996176094 ], [ 13.037323, 47.493044996183251 ], [ 13.07484, 47.646653996231514 ], [ 12.892009, 47.72354799625549 ], [ 12.991227, 47.847105996293664 ], [ 12.760234, 48.064870996360092 ], [ 12.745041, 48.120629996376877 ], [ 13.032775, 48.263566996419648 ], [ 13.274207, 48.307103996432517 ], [ 13.405569, 48.376582996453074 ], [ 13.520704, 48.584580996513843 ], [ 13.714336, 48.523214996496066 ], [ 13.802392, 48.611710996521722 ], [ 13.815725, 48.766429996566146 ], [ 13.608657, 48.946160996616975 ], [ 13.482257, 48.937633996614608 ], [ 13.299529, 49.093644996658185 ], [ 13.178503, 49.118346996665025 ], [ 12.999806, 49.294924996713561 ], [ 12.797751, 49.327842996722502 ], [ 12.643548, 49.429489996749993 ], [ 12.622981, 49.509846996771529 ], [ 12.383616, 49.742855996833306 ], [ 12.524072, 49.904964996875414 ], [ 12.468158, 49.970232996892243 ], [ 12.24688, 50.04495699691136 ], [ 12.182698, 50.170736996943241 ], [ 12.079552, 50.24272199696135 ], [ 12.101344, 50.313979996979128 ], [ 11.9053, 50.415165997004202 ] ] ] } },
{ "type": "Feature", "properties": { "source": "https://simplemaps.com", "name": "Rheinland-Pfalz", "id": "DERP", "join_name": "rheinlandpfalz", "Population": 4127366, "pop": 4127366 }, "geometry": { "type": "Polygon", "coordinates": [ [ [ 6.3734, 50.323079996981427 ], [ 6.146839, 50.214041996954151 ], [ 6.096403, 50.048625996912314 ], [ 6.2227, 49.887136996870844 ], [ 6.500099, 49.794480996846794 ], [ 6.490071, 49.702621996822742 ], [ 6.348809, 49.52528999677569 ], [ 6.605106, 49.530206996777025 ], [ 6.936404, 49.627151996802816 ], [ 7.267546, 49.578498996789889 ], [ 7.385162, 49.369673996733866 ], [ 7.294677, 49.205161996688943 ], [ 7.371634, 49.166173996678275 ], [ 7.648814, 49.035715996642075 ], [ 7.931898, 49.034837996641834 ], [ 8.199892, 48.958249996620374 ], [ 8.357144, 49.109560996662566 ], [ 8.380657, 49.214851996691621 ], [ 8.479876, 49.296990996714115 ], [ 8.49388, 49.442614996753548 ], [ 8.41683, 49.579454996790119 ], [ 8.360555, 49.664462996812652 ], [ 8.439103, 49.726525996829018 ], [ 8.33544, 49.959637996889526 ], [ 8.173796, 50.045782996911569 ], [ 7.918566, 49.973874996893208 ], [ 7.771392, 50.053482996913544 ], [ 7.896294, 50.120713996930576 ], [ 7.922183, 50.200088996950605 ], [ 8.122688, 50.277912996970116 ], [ 8.022281, 50.389120996997761 ], [ 8.000267, 50.508828997027138 ], [ 8.163822, 50.585800997045936 ], [ 8.13447, 50.684037997069595 ], [ 8.056284, 50.690910997071313 ], [ 7.942544, 50.83203999710495 ], [ 7.770461, 50.854880997110328 ], [ 7.599464, 50.733440997081466 ], [ 7.386867, 50.703649997074358 ], [ 7.371519, 50.642593997059613 ], [ 6.939349, 50.554769997038335 ], [ 6.760136, 50.470665997017868 ], [ 6.795017, 50.355608996989488 ], [ 6.585573, 50.377389996994857 ], [ 6.3734, 50.323079996981427 ] ] ] } },
{ "type": "Feature", "properties": { "source": "https://simplemaps.com", "name": "Saarland", "id": "DESL", "join_name": "saarland", "Population": 1013094, "pop": 1013094 }, "geometry": { "type": "Polygon", "coordinates": [ [ [ 6.348809, 49.52528999677569 ], [ 6.574306, 49.361793996731684 ], [ 6.725563, 49.155553996675316 ], [ 6.843489, 49.211053996690538 ], [ 7.268062, 49.105633996661524 ], [ 7.371634, 49.166173996678275 ], [ 7.294677, 49.205161996688943 ], [ 7.385162, 49.369673996733866 ], [ 7.267546, 49.578498996789889 ], [ 6.936404, 49.627151996802816 ], [ 6.605106, 49.530206996777025 ], [ 6.348809, 49.52528999677569 ] ] ] } },
{ "type": "Feature", "properties": { "source": "https://simplemaps.com", "name": "Schleswig-Holstein", "id": "DESH", "join_name": "schleswigholstein", "Population": 2956360, "pop": 2956360 }, "geometry": { "type": "Polygon", "coordinates": [ [ [ 10.906016, 53.961208997741522 ], [ 10.752615, 54.043890997755703 ], [ 11.06658, 54.183904997779329 ], [ 11.077403, 54.342230997805622 ], [ 10.935313, 54.379543997811773 ], [ 10.77711, 54.315130997801155 ], [ 10.203868, 54.461004997825142 ], [ 10.02003, 54.545843997838858 ], [ 10.031912, 54.65277699785598 ], [ 9.97047, 54.762640997873341 ], [ 9.554373, 54.847112997886619 ], [ 9.226392, 54.805906997880193 ], [ 9.194766, 54.850399997887124 ], [ 8.824246, 54.905899997895723 ], [ 8.660776, 54.89631099789419 ], [ 8.688731, 54.735296997869085 ], [ 9.011567, 54.506333997832478 ], [ 8.860688, 54.413804997817458 ], [ 8.629161, 54.387680997813149 ], [ 8.651866, 54.274847997794517 ], [ 8.88795, 54.30394099779933 ], [ 8.812836, 54.180486997778743 ], [ 9.018321, 54.097886997764867 ], [ 8.833344, 54.036443997754425 ], [ 9.007823, 53.892482997729672 ], [ 9.22047, 53.890773997729383 ], [ 9.395193, 53.830999997718962 ], [ 9.550792, 53.634588997684368 ], [ 9.74081, 53.572574997673279 ], [ 10.142255, 53.713310997698343 ], [ 10.222767, 53.633651997684183 ], [ 10.183234, 53.528954997665451 ], [ 10.32798, 53.432655997647998 ], [ 10.601245, 53.371832997636908 ], [ 10.635403, 53.445238997650321 ], [ 10.954401, 53.566135997672127 ], [ 10.938123, 53.684707997693316 ], [ 10.760925, 53.746693997704234 ], [ 10.76325, 53.86505899772493 ], [ 10.906016, 53.961208997741522 ] ] ] } },
{ "type": "Feature", "properties": { "source": "https://simplemaps.com", "name": "Niedersachsen", "id": "DENI", "join_name": "niedersachsen", "Population": 8006312, "pop": 8006312 }, "geometry": { "type": "Polygon", "coordinates": [ [ [ 10.601245, 53.371832997636908 ], [ 10.32798, 53.432655997647998 ], [ 10.186541, 53.404388997642826 ], [ 10.083137, 53.450897997651339 ], [ 9.909349, 53.418082997645392 ], [ 9.763972, 53.547679997668844 ], [ 9.567068, 53.599594997678139 ], [ 9.274669, 53.865138997724898 ], [ 8.860688, 53.830999997718962 ], [ 8.684581, 53.888494997728941 ], [ 8.573253, 53.857651997723622 ], [ 8.492198, 53.715154997698676 ], [ 8.513038, 53.61709699768128 ], [ 8.625293, 53.604996997679081 ], [ 8.557203, 53.519940997663788 ], [ 8.320486, 53.509222997661894 ], [ 8.205333, 53.410711997643979 ], [ 8.058767, 53.50202099766063 ], [ 8.167979, 53.553208997669799 ], [ 7.951427, 53.721909997699846 ], [ 7.226085, 53.666489997690036 ], [ 7.086762, 53.586859997675859 ], [ 7.023285, 53.450506997651253 ], [ 7.075206, 53.337591997630646 ], [ 7.194591, 53.245021997613492 ], [ 7.183623, 52.966121997560933 ], [ 7.079857, 52.854423997539421 ], [ 7.036655, 52.647381997498961 ], [ 6.701792, 52.619114997493348 ], [ 6.695074, 52.475608997464704 ], [ 7.048231, 52.365073997442309 ], [ 7.0266, 52.238622997416371 ], [ 7.300568, 52.271796997423223 ], [ 7.561585, 52.371841997443667 ], [ 7.609076, 52.475556997464707 ], [ 7.97355, 52.312103997431493 ], [ 7.90358, 52.200379997408525 ], [ 8.017475, 52.174127997403076 ], [ 8.022901, 52.066149997380485 ], [ 8.266865, 52.133613997394583 ], [ 8.393628, 52.111263997389926 ], [ 8.486232, 52.170045997402219 ], [ 8.427734, 52.366777997442661 ], [ 8.33389, 52.398351997449041 ], [ 8.49667, 52.506510997470834 ], [ 8.632114, 52.523925997474372 ], [ 8.706735, 52.407291997450884 ], [ 9.128363, 52.408454997451081 ], [ 8.983256, 52.26497499742181 ], [ 9.003616, 52.133406997394552 ], [ 9.135494, 52.131908997394277 ], [ 9.20996, 51.971607997360564 ], [ 9.460901, 51.831668997330702 ], [ 9.389846, 51.729400997308609 ], [ 9.440075, 51.649043997291095 ], [ 9.623372, 51.629458997286811 ], [ 9.59681, 51.511584997260833 ], [ 9.682644, 51.314955997216742 ], [ 9.808012, 51.407249997237543 ], [ 9.949243, 51.38179899723184 ], [ 10.149696, 51.431795997243043 ], [ 10.364618, 51.542435997267603 ], [ 10.654161, 51.578246997275521 ], [ 10.697621, 51.637364997288536 ], [ 10.585277, 51.77792499731914 ], [ 10.639899, 51.883551997341797 ], [ 10.590238, 51.976155997361538 ], [ 10.660828, 52.044730997376028 ], [ 10.945565, 52.05770099737871 ], [ 11.082921, 52.22513299741361 ], [ 10.939054, 52.462120997461966 ], [ 10.952696, 52.593275997488178 ], [ 10.756894, 52.786493997526222 ], [ 10.76201, 52.838376997536336 ], [ 11.014656, 52.91186099755059 ], [ 11.264305, 52.877547997543942 ], [ 11.502017, 52.94415899755672 ], [ 11.58134, 53.042860997575545 ], [ 11.27409, 53.117543997589685 ], [ 11.089432, 53.144197997594709 ], [ 10.601245, 53.371832997636908 ] ], [ [ 8.560594, 53.212565997607491 ], [ 8.745544, 53.191610997603597 ], [ 8.989922, 53.093606997585162 ], [ 8.914526, 53.024618997572098 ], [ 8.702704, 53.07986099758255 ], [ 8.560594, 53.212565997607491 ] ] ] } },
{ "type": "Feature", "properties": { "source": "https://simplemaps.com", "name": "Nordrhein-Westfalen", "id": "DENW", "join_name": "nordrheinwestfalen", "Population": 18025987, "pop": 18025987 }, "geometry": { "type": "Polygon", "coordinates": [ [ [ 8.13447, 50.684037997069595 ], [ 8.139276, 50.784961997093724 ], [ 8.36412, 50.861598997111926 ], [ 8.750195, 51.172793997184371 ], [ 8.685496, 51.363428997227658 ], [ 8.935145, 51.391281997233953 ], [ 8.906154, 51.480914997253947 ], [ 9.015398, 51.509155997260258 ], [ 9.108674, 51.442906997245501 ], [ 9.335999, 51.553958997270179 ], [ 9.440075, 51.649043997291095 ], [ 9.389846, 51.729400997308609 ], [ 9.460901, 51.831668997330702 ], [ 9.20996, 51.971607997360564 ], [ 9.135494, 52.131908997394277 ], [ 9.003616, 52.133406997394552 ], [ 8.983256, 52.26497499742181 ], [ 9.128363, 52.408454997451081 ], [ 8.706735, 52.407291997450884 ], [ 8.632114, 52.523925997474372 ], [ 8.49667, 52.506510997470834 ], [ 8.33389, 52.398351997449041 ], [ 8.427734, 52.366777997442661 ], [ 8.486232, 52.170045997402219 ], [ 8.393628, 52.111263997389926 ], [ 8.266865, 52.133613997394583 ], [ 8.022901, 52.066149997380485 ], [ 8.017475, 52.174127997403076 ], [ 7.90358, 52.200379997408525 ], [ 7.97355, 52.312103997431493 ], [ 7.609076, 52.475556997464707 ], [ 7.561585, 52.371841997443667 ], [ 7.300568, 52.271796997423223 ], [ 7.0266, 52.238622997416371 ], [ 6.675024, 52.034808997373908 ], [ 6.804008, 51.984372997363224 ], [ 6.716675, 51.899261997345157 ], [ 6.382483, 51.827586997329796 ], [ 6.22518, 51.862545997337335 ], [ 5.928041, 51.806734997325329 ], [ 5.939306, 51.731881997309152 ], [ 6.099193, 51.644471997290118 ], [ 6.193348, 51.509337997260324 ], [ 6.183632, 51.335704997221455 ], [ 6.06519, 51.231628997197852 ], [ 6.132369, 51.139824997176781 ], [ 5.982921, 51.074686997161798 ], [ 6.063743, 50.907539997122804 ], [ 5.972999, 50.781810997093032 ], [ 6.232932, 50.587145997046193 ], [ 6.318715, 50.481673997020515 ], [ 6.3734, 50.323079996981427 ], [ 6.585573, 50.377389996994857 ], [ 6.795017, 50.355608996989488 ], [ 6.760136, 50.470665997017868 ], [ 6.939349, 50.554769997038335 ], [ 7.371519, 50.642593997059613 ], [ 7.386867, 50.703649997074358 ], [ 7.599464, 50.733440997081466 ], [ 7.770461, 50.854880997110328 ], [ 7.942544, 50.83203999710495 ], [ 8.056284, 50.690910997071313 ], [ 8.13447, 50.684037997069595 ] ] ] } },
{ "type": "Feature", "properties": { "source": "https://simplemaps.com", "name": "Baden-Württemberg", "id": "DEBW", "join_name": "badenwürttemberg", "Population": 11238319, "pop": 11238319 }, "geometry": { "type": "Polygon", "coordinates": [ [ [ 9.11069, 49.575113996789 ], [ 9.035087, 49.501319996769332 ], [ 8.816754, 49.402203996742635 ], [ 8.828433, 49.502817996769664 ], [ 8.671543, 49.622552996801616 ], [ 8.41683, 49.579454996790119 ], [ 8.49388, 49.442614996753548 ], [ 8.479876, 49.296990996714115 ], [ 8.380657, 49.214851996691621 ], [ 8.357144, 49.109560996662566 ], [ 8.199892, 48.958249996620374 ], [ 8.10274, 48.821310996581737 ], [ 7.970138, 48.757282996563504 ], [ 7.810252, 48.61501799652266 ], [ 7.75196, 48.355343996446834 ], [ 7.572643, 48.094972996369158 ], [ 7.618945, 48.002652996341219 ], [ 7.525928, 47.783156996273895 ], [ 7.521794, 47.670424996238928 ], [ 7.683438, 47.544256996199394 ], [ 7.819657, 47.595338996215453 ], [ 8.087237, 47.567381996206656 ], [ 8.179015, 47.615802996221852 ], [ 8.448869, 47.58427999621194 ], [ 8.390991, 47.6921289962457 ], [ 8.558216, 47.801165996279508 ], [ 8.797581, 47.720033996254386 ], [ 8.906205, 47.651794996233093 ], [ 9.016586, 47.678899996241555 ], [ 9.273211, 47.650089996232573 ], [ 9.554144, 47.532742996195765 ], [ 9.61221, 47.587741996213083 ], [ 9.864649, 47.674815996240326 ], [ 10.131403, 47.687915996244392 ], [ 10.087013, 47.96027699632829 ], [ 10.136209, 48.107295996372855 ], [ 10.054095, 48.304854996431871 ], [ 9.980559, 48.381336996454465 ], [ 10.067944, 48.472234996481149 ], [ 10.314957, 48.531094996498346 ], [ 10.313097, 48.608169996520672 ], [ 10.424201, 48.701988996547705 ], [ 10.467351, 48.914998996608254 ], [ 10.354231, 49.033389996641425 ], [ 10.274443, 49.050184996646081 ], [ 10.146906, 49.205394996689051 ], [ 10.17109, 49.384323996737784 ], [ 10.127527, 49.51144799677202 ], [ 9.936324, 49.481733996764049 ], [ 9.929813, 49.550360996782388 ], [ 9.792509, 49.72197799682781 ], [ 9.653137, 49.772388996840974 ], [ 9.351864, 49.785746996844502 ], [ 9.427208, 49.708180996824161 ], [ 9.25342, 49.577567996789618 ], [ 9.11069, 49.575113996789 ] ] ] } },
{ "type": "Feature", "properties": { "source": "https://simplemaps.com", "name": "Brandenburg", "id": "DEBB", "join_name": "brandenburg", "Population": 2555606, "pop": 2555606 }, "geometry": { "type": "Polygon", "coordinates": [ [ [ 13.061663, 51.615092997283647 ], [ 13.171527, 51.566206997272921 ], [ 13.252194, 51.38523599723257 ], [ 13.410789, 51.42140899724069 ], [ 13.521738, 51.366941997228473 ], [ 13.970341, 51.359190997226783 ], [ 14.158754, 51.526880997264193 ], [ 14.338588, 51.509930997260426 ], [ 14.509275, 51.556852997270838 ], [ 14.70677, 51.540827997267264 ], [ 14.719546, 51.675631997296911 ], [ 14.585807, 51.803892997324695 ], [ 14.695568, 51.931456997352029 ], [ 14.761403, 52.076666997382695 ], [ 14.686369, 52.121031997391967 ], [ 14.696911, 52.253477997419445 ], [ 14.606581, 52.275750997424012 ], [ 14.539815, 52.421865997453843 ], [ 14.644821, 52.576920997484983 ], [ 14.21601, 52.817990997532426 ], [ 14.14449, 52.95992099755977 ], [ 14.343341, 53.048623997576627 ], [ 14.44163, 53.251840997614757 ], [ 14.391261, 53.334016997629952 ], [ 14.248844, 53.25913499761613 ], [ 14.103202, 53.27251099761866 ], [ 14.242621, 53.427139997647004 ], [ 13.92061, 53.427139997646989 ], [ 13.869275, 53.508031997661675 ], [ 13.538947, 53.396662997641407 ], [ 13.405828, 53.274680997618994 ], [ 13.154009, 53.259281997616142 ], [ 13.000995, 53.167658997599055 ], [ 12.512188, 53.27269199761863 ], [ 12.430125, 53.268479997617867 ], [ 12.186936, 53.368964997636411 ], [ 11.839206, 53.226466997610103 ], [ 11.700196, 53.248377997614163 ], [ 11.555243, 53.14605899759502 ], [ 11.27409, 53.117543997589685 ], [ 11.58134, 53.042860997575545 ], [ 11.762879, 52.995111997566468 ], [ 11.965503, 52.885221997545386 ], [ 12.203266, 52.865920997541657 ], [ 12.149574, 52.519946997473575 ], [ 12.247036, 52.442354997457961 ], [ 12.19908, 52.193919997407136 ], [ 12.420824, 52.011605997369024 ], [ 12.666752, 51.994448997365353 ], [ 13.066159, 51.85264899733518 ], [ 13.181604, 51.708549997304047 ], [ 13.061663, 51.615092997283647 ] ], [ [ 13.623386, 52.490645997467716 ], [ 13.637338, 52.37597599744452 ], [ 13.458125, 52.416748997452807 ], [ 13.0921, 52.413699997452177 ], [ 13.157419, 52.600303997489597 ], [ 13.299685, 52.651307997499757 ], [ 13.50329, 52.610173997491643 ], [ 13.623386, 52.490645997467716 ] ] ] } },
{ "type": "Feature", "properties": { "source": "https://simplemaps.com", "name": "Mecklenburg-Vorpommern", "id": "DEMV", "join_name": "mecklenburgvorpommern", "Population": 1575819, "pop": 1575819 }, "geometry": { "type": "Polygon", "coordinates": [ [ [ 10.601245, 53.371832997636908 ], [ 11.089432, 53.144197997594709 ], [ 11.27409, 53.117543997589685 ], [ 11.555243, 53.14605899759502 ], [ 11.700196, 53.248377997614163 ], [ 11.839206, 53.226466997610103 ], [ 12.186936, 53.368964997636411 ], [ 12.430125, 53.268479997617867 ], [ 12.512188, 53.27269199761863 ], [ 13.000995, 53.167658997599055 ], [ 13.154009, 53.259281997616142 ], [ 13.405828, 53.274680997618994 ], [ 13.538947, 53.396662997641407 ], [ 13.869275, 53.508031997661675 ], [ 13.92061, 53.427139997646989 ], [ 14.242621, 53.427139997647004 ], [ 14.103202, 53.27251099761866 ], [ 14.248844, 53.25913499761613 ], [ 14.391261, 53.334016997629952 ], [ 14.30417, 53.508517997661784 ], [ 14.264496, 53.751613997705121 ], [ 13.984223, 53.773992997709001 ], [ 13.818533, 53.877996997727109 ], [ 13.890147, 53.912908997733254 ], [ 13.758149, 54.030991997753482 ], [ 13.808116, 54.104681997765958 ], [ 13.683442, 54.16803599777667 ], [ 13.479259, 54.125188997769413 ], [ 13.288829, 54.234279997787802 ], [ 13.114919, 54.280014997795348 ], [ 13.0088, 54.438055997821373 ], [ 12.875987, 54.365423997809472 ], [ 12.501964, 54.473577997827135 ], [ 12.342133, 54.303940997799316 ], [ 12.108897, 54.183009997779202 ], [ 11.657888, 54.14223899777236 ], [ 11.49171, 54.00234599774857 ], [ 11.458995, 53.916692997733826 ], [ 11.242931, 53.945216997738733 ], [ 11.175059, 54.018011997751238 ], [ 10.906016, 53.961208997741522 ], [ 10.76325, 53.86505899772493 ], [ 10.760925, 53.746693997704234 ], [ 10.938123, 53.684707997693316 ], [ 10.954401, 53.566135997672127 ], [ 10.635403, 53.445238997650321 ], [ 10.601245, 53.371832997636908 ] ] ] } },
{ "type": "Feature", "properties": { "source": "https://simplemaps.com", "name": "Bremen", "id": "DEHB", "join_name": "bremen", "Population": 703768, "pop": 703768 }, "geometry": { "type": "Polygon", "coordinates": [ [ [ 8.513038, 53.61709699768128 ], [ 8.557203, 53.519940997663788 ], [ 8.625293, 53.604996997679081 ], [ 8.513038, 53.61709699768128 ] ] ] } },
{ "type": "Feature", "properties": { "source": "https://simplemaps.com", "name": "Hamburg", "id": "DEHH", "join_name": "hamburg", "Population": 1857081, "pop": 1857081 }, "geometry": { "type": "Polygon", "coordinates": [ [ [ 9.74081, 53.572574997673279 ], [ 9.763972, 53.547679997668844 ], [ 9.909349, 53.418082997645392 ], [ 10.083137, 53.450897997651339 ], [ 10.186541, 53.404388997642826 ], [ 10.32798, 53.432655997647998 ], [ 10.183234, 53.528954997665451 ], [ 10.222767, 53.633651997684183 ], [ 10.142255, 53.713310997698343 ], [ 9.74081, 53.572574997673279 ] ] ] } },
{ "type": "Feature", "properties": { "source": "https://simplemaps.com", "name": "Hessen", "id": "DEHE", "join_name": "hessen", "Population": 6274170, "pop": 6274170 }, "geometry": { "type": "Polygon", "coordinates": [ [ [ 10.055025, 50.516502997029029 ], [ 10.052079, 50.669568997066136 ], [ 9.913225, 50.692667997071659 ], [ 9.949398, 50.815192997100944 ], [ 10.055955, 50.882630997116898 ], [ 10.051149, 51.007015997146055 ], [ 10.14241, 51.055229997157269 ], [ 10.23026, 51.184317997187001 ], [ 9.947021, 51.303948997214263 ], [ 9.949243, 51.38179899723184 ], [ 9.808012, 51.407249997237543 ], [ 9.682644, 51.314955997216742 ], [ 9.59681, 51.511584997260833 ], [ 9.623372, 51.629458997286811 ], [ 9.440075, 51.649043997291095 ], [ 9.335999, 51.553958997270179 ], [ 9.108674, 51.442906997245501 ], [ 9.015398, 51.509155997260258 ], [ 8.906154, 51.480914997253947 ], [ 8.935145, 51.391281997233953 ], [ 8.685496, 51.363428997227658 ], [ 8.750195, 51.172793997184371 ], [ 8.36412, 50.861598997111926 ], [ 8.139276, 50.784961997093724 ], [ 8.13447, 50.684037997069595 ], [ 8.163822, 50.585800997045936 ], [ 8.000267, 50.508828997027138 ], [ 8.022281, 50.389120996997761 ], [ 8.122688, 50.277912996970116 ], [ 7.922183, 50.200088996950605 ], [ 7.896294, 50.120713996930576 ], [ 7.771392, 50.053482996913544 ], [ 7.918566, 49.973874996893208 ], [ 8.173796, 50.045782996911569 ], [ 8.33544, 49.959637996889526 ], [ 8.439103, 49.726525996829018 ], [ 8.360555, 49.664462996812652 ], [ 8.41683, 49.579454996790119 ], [ 8.671543, 49.622552996801616 ], [ 8.828433, 49.502817996769664 ], [ 8.816754, 49.402203996742635 ], [ 9.035087, 49.501319996769332 ], [ 9.11069, 49.575113996789 ], [ 9.146657, 49.74621399683415 ], [ 9.026716, 49.907392996876098 ], [ 9.010282, 50.096838996924575 ], [ 9.22877, 50.14381299693644 ], [ 9.406744, 50.092342996923392 ], [ 9.506686, 50.108104996927402 ], [ 9.511027, 50.23620999695973 ], [ 9.661199, 50.234349996959217 ], [ 9.766722, 50.402091997000959 ], [ 10.000868, 50.448445997012364 ], [ 10.055025, 50.516502997029029 ] ] ] } },
{ "type": "Feature", "properties": { "source": "https://simplemaps.com", "name": "Thüringen", "id": "DETH", "join_name": "thüringen", "Population": 2107574, "pop": 2107574 }, "geometry": { "type": "Polygon", "coordinates": [ [ [ 12.264554, 51.083755997163884 ], [ 12.275406, 51.009754997146715 ], [ 12.159496, 50.952006997133203 ], [ 12.004622, 50.949034997132493 ], [ 11.689137, 51.091868997165712 ], [ 11.427396, 51.098792997167337 ], [ 11.344507, 51.204393997191602 ], [ 11.45189, 51.271495997206891 ], [ 11.314896, 51.383323997232182 ], [ 10.999102, 51.408748997237872 ], [ 10.911458, 51.571115997273949 ], [ 10.697621, 51.637364997288536 ], [ 10.654161, 51.578246997275521 ], [ 10.364618, 51.542435997267603 ], [ 10.149696, 51.431795997243043 ], [ 9.949243, 51.38179899723184 ], [ 9.947021, 51.303948997214263 ], [ 10.23026, 51.184317997187001 ], [ 10.14241, 51.055229997157269 ], [ 10.051149, 51.007015997146055 ], [ 10.055955, 50.882630997116898 ], [ 9.949398, 50.815192997100944 ], [ 9.913225, 50.692667997071659 ], [ 10.052079, 50.669568997066136 ], [ 10.055025, 50.516502997029029 ], [ 10.238011, 50.510120997027464 ], [ 10.592408, 50.322871996981327 ], [ 10.788882, 50.38625299699703 ], [ 11.280273, 50.358631996990219 ], [ 11.248647, 50.472629997018309 ], [ 11.346729, 50.518724997029622 ], [ 11.531679, 50.378423996995153 ], [ 11.9053, 50.415165997004202 ], [ 11.989429, 50.546113997036294 ], [ 12.145388, 50.562546997040307 ], [ 12.278817, 50.67969799706858 ], [ 12.258043, 50.792506997095536 ], [ 12.647218, 50.899942997120952 ], [ 12.483662, 51.058330997157938 ], [ 12.264554, 51.083755997163884 ] ] ] } },
{ "type": "Feature", "properties": { "source": "https://simplemaps.com", "name": "Sachsen-Anhalt", "id": "DEST", "join_name": "sachsenanhalt", "Population": 2140084, "pop": 2140084 }, "geometry": { "type": "Polygon", "coordinates": [ [ [ 13.061663, 51.615092997283647 ], [ 13.181604, 51.708549997304047 ], [ 13.066159, 51.85264899733518 ], [ 12.666752, 51.994448997365353 ], [ 12.420824, 52.011605997369024 ], [ 12.19908, 52.193919997407136 ], [ 12.247036, 52.442354997457961 ], [ 12.149574, 52.519946997473575 ], [ 12.203266, 52.865920997541657 ], [ 11.965503, 52.885221997545386 ], [ 11.762879, 52.995111997566468 ], [ 11.58134, 53.042860997575545 ], [ 11.502017, 52.94415899755672 ], [ 11.264305, 52.877547997543942 ], [ 11.014656, 52.91186099755059 ], [ 10.76201, 52.838376997536336 ], [ 10.756894, 52.786493997526222 ], [ 10.952696, 52.593275997488178 ], [ 10.939054, 52.462120997461966 ], [ 11.082921, 52.22513299741361 ], [ 10.945565, 52.05770099737871 ], [ 10.660828, 52.044730997376028 ], [ 10.590238, 51.976155997361538 ], [ 10.639899, 51.883551997341797 ], [ 10.585277, 51.77792499731914 ], [ 10.697621, 51.637364997288536 ], [ 10.911458, 51.571115997273949 ], [ 10.999102, 51.408748997237872 ], [ 11.314896, 51.383323997232182 ], [ 11.45189, 51.271495997206891 ], [ 11.344507, 51.204393997191602 ], [ 11.427396, 51.098792997167337 ], [ 11.689137, 51.091868997165712 ], [ 12.004622, 50.949034997132493 ], [ 12.159496, 50.952006997133203 ], [ 12.275406, 51.009754997146715 ], [ 12.264554, 51.083755997163884 ], [ 12.132314, 51.291752997211518 ], [ 12.157015, 51.449004997246853 ], [ 12.235357, 51.562149997271987 ], [ 12.443458, 51.601449997280653 ], [ 12.662101, 51.601449997280653 ], [ 12.914695, 51.649896997291279 ], [ 13.061663, 51.615092997283647 ] ] ] } },
{ "type": "Feature", "properties": { "source": "https://simplemaps.com", "name": "Berlin", "id": "DEBE", "join_name": "berlin", "Population": 3673823, "pop": 3673823 }, "geometry": { "type": "Polygon", "coordinates": [ [ [ 13.623386, 52.490645997467716 ], [ 13.50329, 52.610173997491643 ], [ 13.299685, 52.651307997499757 ], [ 13.157419, 52.600303997489597 ], [ 13.0921, 52.413699997452177 ], [ 13.458125, 52.416748997452807 ], [ 13.637338, 52.37597599744452 ], [ 13.623386, 52.490645997467716 ] ] ] } }
]
}
