{
"type": "FeatureCollection",
"name": "Netherlandsinput",
"crs": { "type": "name", "properties": { "name": "urn:ogc:def:crs:OGC:1.3:CRS84" } },
"features": [
{ "type": "Feature", "properties": { "name": "Drenthe", "regioFacetId": "tcm:106-353397-1024", "level": 3, "join_name": "drenthe", "all years": 493682, "pop": 493682 }, "geometry": { "type": "Polygon", "coordinates": [ [ [ 6.362521, 53.033968997573879 ], [ 6.427615, 52.971814997562028 ], [ 6.393436, 52.932842997554566 ], [ 6.302985, 52.924971997553051 ], [ 6.165993, 52.875026997543479 ], [ 6.11982, 52.854214997539437 ], [ 6.201731, 52.793695997527671 ], [ 6.120332, 52.750148997519155 ], [ 6.169651, 52.686120997506599 ], [ 6.183147, 52.675062997504419 ], [ 6.32629, 52.658985997501269 ], [ 6.383837, 52.612197997492011 ], [ 6.614527, 52.674048997504222 ], [ 6.700792, 52.628409997495176 ], [ 6.707171, 52.626759997494872 ], [ 6.741984, 52.645332997498564 ], [ 7.055729, 52.643419997498178 ], [ 7.09274, 52.838195997536339 ], [ 6.93661, 52.992759997565976 ], [ 6.743254, 53.116567997589506 ], [ 6.636597, 53.112842997588785 ], [ 6.492593, 53.201385997605328 ], [ 6.447712, 53.196440997604462 ], [ 6.344433, 53.087134997583945 ], [ 6.315157, 53.094052997585273 ], [ 6.305274, 53.081189997582783 ], [ 6.367811, 53.067359997580155 ], [ 6.362521, 53.033968997573879 ] ] ] } },
{ "type": "Feature", "properties": { "name": "Flevoland", "regioFacetId": "tcm:106-353410-1024", "level": 3, "join_name": "flevoland", "all years": 423021, "pop": 423021 }, "geometry": { "type": "Polygon", "coordinates": [ [ [ 5.37726, 52.764804997522056 ], [ 5.361147, 52.675725997504507 ], [ 5.060428, 52.578935997485381 ], [ 5.151024, 52.466359997462796 ], [ 5.079289, 52.370407997443401 ], [ 5.220406, 52.326053997434336 ], [ 5.30726, 52.306789997430386 ], [ 5.463376, 52.260002997420784 ], [ 5.533281, 52.272740997423433 ], [ 5.575604, 52.350759997439418 ], [ 5.811475, 52.436922997456847 ], [ 5.856698, 52.499805997469515 ], [ 5.855076, 52.550823997479796 ], [ 5.777968, 52.607533997491025 ], [ 5.988626, 52.629323997495355 ], [ 5.93387, 52.675509997504541 ], [ 5.962105, 52.690350997507458 ], [ 5.922574, 52.750691997519262 ], [ 5.849699, 52.784738997525906 ], [ 5.818792, 52.784696997525899 ], [ 5.805926, 52.794858997527861 ], [ 5.795177, 52.806521997530155 ], [ 5.789807, 52.803690997529607 ], [ 5.784382, 52.817475997532284 ], [ 5.748807, 52.839679997536628 ], [ 5.631353, 52.803054997529536 ], [ 5.37726, 52.764804997522056 ] ] ] } },
{ "type": "Feature", "properties": { "name": "Friesland (Fryslân)", "regioFacetId": "tcm:106-353417-1024", "level": 3, "join_name": "frieslandfryslân", "all years": 649957, "pop": 649957 }, "geometry": { "type": "Polygon", "coordinates": [ [ [ 6.352528, 53.539712997667401 ], [ 6.110461, 53.496482997659584 ], [ 5.703443, 53.471283997655014 ], [ 5.613209, 53.493948997659132 ], [ 5.357119, 53.431263997647768 ], [ 5.176693, 53.408620997643652 ], [ 5.027117, 53.3139229976263 ], [ 4.818376, 53.214274997607824 ], [ 5.050953, 53.143265997594575 ], [ 5.169135, 52.997611997566942 ], [ 5.238682, 52.874060997543275 ], [ 5.37726, 52.764804997522056 ], [ 5.631353, 52.803054997529536 ], [ 5.748807, 52.839679997536628 ], [ 5.784382, 52.817475997532284 ], [ 5.789807, 52.803690997529607 ], [ 5.819744, 52.817277997532273 ], [ 5.865636, 52.804649997529815 ], [ 5.882578, 52.80391999752964 ], [ 5.930689, 52.831937997535093 ], [ 5.945933, 52.837451997536185 ], [ 5.973128, 52.842469997537158 ], [ 6.0615, 52.839296997536515 ], [ 6.08748, 52.843113997537259 ], [ 6.165993, 52.875026997543479 ], [ 6.302985, 52.924971997553051 ], [ 6.393436, 52.932842997554566 ], [ 6.427615, 52.971814997562028 ], [ 6.362521, 53.033968997573879 ], [ 6.367811, 53.067359997580155 ], [ 6.305274, 53.081189997582783 ], [ 6.315157, 53.094052997585273 ], [ 6.290566, 53.099828997586364 ], [ 6.273904, 53.111252997588501 ], [ 6.205048, 53.11548399758933 ], [ 6.192854, 53.189067997603054 ], [ 6.22475, 53.214578997607852 ], [ 6.230173, 53.222439997609314 ], [ 6.225339, 53.225454997609859 ], [ 6.216753, 53.234341997611558 ], [ 6.224972, 53.238592997612379 ], [ 6.217978, 53.241931997612973 ], [ 6.231948, 53.247197997613881 ], [ 6.235101, 53.253354997615041 ], [ 6.255529, 53.268982997617933 ], [ 6.286981, 53.341381997631352 ], [ 6.170524, 53.37478199763742 ], [ 6.19402, 53.413288997644528 ], [ 6.350426, 53.446267997650466 ], [ 6.352528, 53.539712997667401 ] ] ] } },
{ "type": "Feature", "properties": { "name": "Gelderland", "regioFacetId": "tcm:106-353445-1024", "level": 3, "join_name": "gelderland", "all years": 2085952, "pop": 2085952 }, "geometry": { "type": "Polygon", "coordinates": [ [ [ 5.591998, 52.001391997366859 ], [ 5.609972, 51.993691997365211 ], [ 5.624856, 51.970447997360317 ], [ 5.624978, 51.960064997358138 ], [ 5.620162, 51.951497997356292 ], [ 5.616428, 51.949353997355843 ], [ 5.590992, 51.949775997355914 ], [ 5.512481, 51.973080997360896 ], [ 5.470991, 51.982986997362985 ], [ 5.270374, 51.96542699735928 ], [ 5.220633, 51.964555997359035 ], [ 5.180227, 51.967447997359706 ], [ 5.14846, 51.929484997351615 ], [ 5.119409, 51.898604997345025 ], [ 5.117671, 51.892569997343742 ], [ 5.080532, 51.875524997340129 ], [ 5.052199, 51.866642997338204 ], [ 4.995965, 51.861848997337127 ], [ 5.026352, 51.818856997327977 ], [ 5.000364, 51.820932997328342 ], [ 5.009325, 51.817511997327621 ], [ 5.016001, 51.808206997325627 ], [ 5.050836, 51.796617997323146 ], [ 5.068412, 51.779921997319533 ], [ 5.137581, 51.772904997318008 ], [ 5.126336, 51.745020997312004 ], [ 5.248232, 51.733614997309516 ], [ 5.294549, 51.736797997310227 ], [ 5.350995, 51.754616997314074 ], [ 5.403157, 51.821611997328603 ], [ 5.587398, 51.829701997330289 ], [ 5.746406, 51.758385997314939 ], [ 5.781115, 51.752305997313584 ], [ 5.80722, 51.756304997314416 ], [ 5.864469, 51.757681997314769 ], [ 5.869245, 51.762859997315843 ], [ 5.886375, 51.778589997319287 ], [ 5.929948, 51.744427997311888 ], [ 5.952436, 51.744536997311876 ], [ 5.945045, 51.823543997328926 ], [ 6.055305, 51.852353997335179 ], [ 6.16656, 51.840721997332665 ], [ 6.299006, 51.867825997338386 ], [ 6.388068, 51.833692997331134 ], [ 6.683994, 51.91757599734904 ], [ 6.788945, 51.929656997351636 ], [ 6.826607, 51.993526997365194 ], [ 6.687853, 52.039855997374943 ], [ 6.716272, 52.118269997391465 ], [ 6.662399, 52.1301669973939 ], [ 6.673748, 52.148286997397676 ], [ 6.67428, 52.158537997399847 ], [ 6.671339, 52.165682997401277 ], [ 6.490647, 52.179862997404207 ], [ 6.470293, 52.199373997408294 ], [ 6.446476, 52.212697997411048 ], [ 6.423134, 52.232012997415048 ], [ 6.41664, 52.242136997417113 ], [ 6.389863, 52.242558997417184 ], [ 6.325434, 52.226996997414012 ], [ 6.297942, 52.22552999741368 ], [ 6.168671, 52.220698997412718 ], [ 6.163933, 52.221923997412929 ], [ 6.135412, 52.249614997418654 ], [ 6.125145, 52.256824997420139 ], [ 6.079094, 52.362872997441883 ], [ 6.083725, 52.372410997443815 ], [ 6.126005, 52.384520997446252 ], [ 6.130553, 52.39997799744944 ], [ 6.119472, 52.432917997456087 ], [ 6.103351, 52.456431997460875 ], [ 6.089268, 52.476810997464931 ], [ 6.054666, 52.499546997469459 ], [ 5.925559, 52.474057997464406 ], [ 5.887277, 52.516905997472996 ], [ 5.86431, 52.518172997473229 ], [ 5.856698, 52.499805997469515 ], [ 5.811475, 52.436922997456847 ], [ 5.575604, 52.350759997439418 ], [ 5.533281, 52.272740997423433 ], [ 5.463376, 52.260002997420784 ], [ 5.404643, 52.249629997418658 ], [ 5.498982, 52.147392997397517 ], [ 5.48415, 52.069621997381262 ], [ 5.591998, 52.001391997366859 ] ] ] } },
{ "type": "Feature", "properties": { "name": "Groningen", "regioFacetId": "tcm:106-353502-1024", "level": 3, "join_name": "groningen", "all years": 585866, "pop": 585866 }, "geometry": { "type": "Polygon", "coordinates": [ [ [ 6.170524, 53.37478199763742 ], [ 6.286981, 53.341381997631352 ], [ 6.255529, 53.268982997617933 ], [ 6.235101, 53.253354997615041 ], [ 6.231948, 53.247197997613881 ], [ 6.217978, 53.241931997612973 ], [ 6.224972, 53.238592997612379 ], [ 6.216753, 53.234341997611558 ], [ 6.225339, 53.225454997609859 ], [ 6.230173, 53.222439997609314 ], [ 6.22475, 53.214578997607852 ], [ 6.192854, 53.189067997603054 ], [ 6.205048, 53.11548399758933 ], [ 6.273904, 53.111252997588501 ], [ 6.290566, 53.099828997586364 ], [ 6.344433, 53.087134997583945 ], [ 6.447712, 53.196440997604462 ], [ 6.492593, 53.201385997605328 ], [ 6.636597, 53.112842997588785 ], [ 6.743254, 53.116567997589506 ], [ 6.93661, 52.992759997565976 ], [ 7.09274, 52.838195997536339 ], [ 7.212968, 53.010876997569447 ], [ 7.217623, 53.197816997604683 ], [ 7.187601, 53.332181997629625 ], [ 6.995358, 53.331817997629564 ], [ 6.915925, 53.457357997652501 ], [ 6.637132, 53.576422997674001 ], [ 6.428588, 53.566035997672074 ], [ 6.352528, 53.539712997667401 ], [ 6.350426, 53.446267997650466 ], [ 6.19402, 53.413288997644528 ], [ 6.170524, 53.37478199763742 ] ] ] } },
{ "type": "Feature", "properties": { "name": "Limburg", "regioFacetId": "tcm:106-353526-1024", "level": 3, "join_name": "limburg", "all years": 1117201, "pop": 1117201 }, "geometry": { "type": "Polygon", "coordinates": [ [ [ 5.87956, 51.749913997313023 ], [ 5.955291, 51.709304997304294 ], [ 6.038572, 51.584285997276879 ], [ 5.838238, 51.566414997272929 ], [ 5.874543, 51.353312997225423 ], [ 5.672048, 51.31508199721678 ], [ 5.566045, 51.220908997195366 ], [ 5.855783, 51.144625997177968 ], [ 5.758386, 51.035013997152589 ], [ 5.758822, 50.951656997133092 ], [ 5.641665, 50.864161997112504 ], [ 5.739179, 50.757073997087097 ], [ 6.021009, 50.75428799708645 ], [ 6.018946, 50.846255997108308 ], [ 6.089436, 50.918524997125374 ], [ 6.026512, 50.983271997140541 ], [ 5.905517, 51.00217199714492 ], [ 6.009524, 51.090843997165493 ], [ 6.072664, 51.242559997200324 ], [ 6.22639, 51.360335997227011 ], [ 6.212024, 51.51339099726119 ], [ 5.952436, 51.744536997311876 ], [ 5.929948, 51.744427997311888 ], [ 5.886375, 51.778589997319287 ], [ 5.869245, 51.762859997315843 ], [ 5.864469, 51.757681997314769 ], [ 5.87956, 51.749913997313023 ] ] ] } },
{ "type": "Feature", "properties": { "name": "Noord-Brabant", "regioFacetId": "tcm:106-353560-1024", "level": 3, "join_name": "noordbrabant", "all years": 2562955, "pop": 2562955 }, "geometry": { "type": "Polygon", "coordinates": [ [ [ 5.248232, 51.733614997309516 ], [ 5.126336, 51.745020997312004 ], [ 5.137581, 51.772904997318008 ], [ 5.068412, 51.779921997319533 ], [ 5.050836, 51.796617997323146 ], [ 5.016001, 51.808206997325627 ], [ 5.009325, 51.817511997327621 ], [ 5.000364, 51.820932997328342 ], [ 4.987757, 51.821058997328365 ], [ 4.889401, 51.81889499732798 ], [ 4.836108, 51.797838997323396 ], [ 4.773539, 51.793323997322432 ], [ 4.75524, 51.781610997319937 ], [ 4.675223, 51.724208997307464 ], [ 4.379431, 51.683591997298642 ], [ 4.275003, 51.643777997289881 ], [ 4.242786, 51.647062997290639 ], [ 4.191893, 51.609834997282455 ], [ 4.228121, 51.563715997272347 ], [ 4.218927, 51.504857997259336 ], [ 4.277425, 51.376034997230541 ], [ 4.431692, 51.375048997230252 ], [ 4.384839, 51.449315997246948 ], [ 4.538185, 51.482397997254317 ], [ 4.66969, 51.426362997241831 ], [ 4.7527, 51.499807997258166 ], [ 4.828153, 51.422210997240875 ], [ 5.071182, 51.39348699723444 ], [ 5.242193, 51.305218997214553 ], [ 5.417412, 51.26228599720482 ], [ 5.48757, 51.299738997213325 ], [ 5.566045, 51.220908997195366 ], [ 5.672048, 51.31508199721678 ], [ 5.874543, 51.353312997225423 ], [ 5.838238, 51.566414997272929 ], [ 6.038572, 51.584285997276879 ], [ 5.955291, 51.709304997304294 ], [ 5.87956, 51.749913997313023 ], [ 5.80722, 51.756304997314416 ], [ 5.781115, 51.752305997313584 ], [ 5.746406, 51.758385997314939 ], [ 5.587398, 51.829701997330289 ], [ 5.403157, 51.821611997328603 ], [ 5.350995, 51.754616997314074 ], [ 5.294549, 51.736797997310227 ], [ 5.248232, 51.733614997309516 ] ] ] } },
{ "type": "Feature", "properties": { "name": "Noord-Holland", "regioFacetId": "tcm:106-353628-1024", "level": 3, "join_name": "noordholland", "all years": 2879527, "pop": 2879527 }, "geometry": { "type": "Polygon", "coordinates": [ [ [ 4.818376, 53.214274997607824 ], [ 4.71555, 53.087938997584097 ], [ 4.687077, 53.002405997567834 ], [ 4.613001, 52.97948299756353 ], [ 4.693992, 52.884472997545217 ], [ 4.623757, 52.725771997514393 ], [ 4.573289, 52.505540997470717 ], [ 4.477649, 52.332510997435698 ], [ 4.563707, 52.309297997430882 ], [ 4.55047, 52.226744997413988 ], [ 4.571396, 52.216958997411894 ], [ 4.734339, 52.206515997409731 ], [ 4.762074, 52.218129997412156 ], [ 4.780986, 52.228740997414363 ], [ 4.805404, 52.227988997414208 ], [ 4.830107, 52.230912997414777 ], [ 4.84728, 52.239764997416643 ], [ 4.851254, 52.241866997417084 ], [ 4.854938, 52.242145997417119 ], [ 4.868583, 52.25157899741906 ], [ 4.891325, 52.253302997419411 ], [ 4.903076, 52.253204997419409 ], [ 4.917601, 52.257076997420178 ], [ 5.021543, 52.302456997429481 ], [ 5.042049, 52.183369997404967 ], [ 5.121176, 52.180946997404412 ], [ 5.192586, 52.17783299740384 ], [ 5.265978, 52.281925997425319 ], [ 5.335461, 52.290217997426957 ], [ 5.30726, 52.306789997430386 ], [ 5.220406, 52.326053997434336 ], [ 5.079289, 52.370407997443401 ], [ 5.151024, 52.466359997462796 ], [ 5.060428, 52.578935997485381 ], [ 5.361147, 52.675725997504507 ], [ 5.37726, 52.764804997522056 ], [ 5.238682, 52.874060997543275 ], [ 5.169135, 52.997611997566942 ], [ 5.050953, 53.143265997594575 ], [ 4.818376, 53.214274997607824 ] ] ] } },
{ "type": "Feature", "properties": { "name": "Overijssel", "regioFacetId": "tcm:106-353682-1024", "level": 3, "join_name": "overijssel", "all years": 1162406, "pop": 1162406 }, "geometry": { "type": "Polygon", "coordinates": [ [ [ 6.103351, 52.456431997460875 ], [ 6.119472, 52.432917997456087 ], [ 6.130553, 52.39997799744944 ], [ 6.126005, 52.384520997446252 ], [ 6.083725, 52.372410997443815 ], [ 6.079094, 52.362872997441883 ], [ 6.125145, 52.256824997420139 ], [ 6.135412, 52.249614997418654 ], [ 6.163933, 52.221923997412929 ], [ 6.168671, 52.220698997412718 ], [ 6.297942, 52.22552999741368 ], [ 6.325434, 52.226996997414012 ], [ 6.389863, 52.242558997417184 ], [ 6.41664, 52.242136997417113 ], [ 6.423134, 52.232012997415048 ], [ 6.446476, 52.212697997411048 ], [ 6.470293, 52.199373997408294 ], [ 6.490647, 52.179862997404207 ], [ 6.671339, 52.165682997401277 ], [ 6.67428, 52.158537997399847 ], [ 6.673748, 52.148286997397676 ], [ 6.662399, 52.1301669973939 ], [ 6.716272, 52.118269997391465 ], [ 6.855474, 52.120461997391878 ], [ 6.985314, 52.225346997413645 ], [ 7.072255, 52.351878997439641 ], [ 7.010782, 52.429136997455274 ], [ 6.697524, 52.486322997466843 ], [ 6.707171, 52.626759997494872 ], [ 6.700792, 52.628409997495176 ], [ 6.614527, 52.674048997504222 ], [ 6.383837, 52.612197997492011 ], [ 6.32629, 52.658985997501269 ], [ 6.183147, 52.675062997504419 ], [ 6.169651, 52.686120997506599 ], [ 6.120332, 52.750148997519155 ], [ 6.201731, 52.793695997527671 ], [ 6.11982, 52.854214997539437 ], [ 6.08748, 52.843113997537259 ], [ 6.0615, 52.839296997536515 ], [ 5.973128, 52.842469997537158 ], [ 5.945933, 52.837451997536185 ], [ 5.930689, 52.831937997535093 ], [ 5.882578, 52.80391999752964 ], [ 5.865636, 52.804649997529815 ], [ 5.819744, 52.817277997532273 ], [ 5.795177, 52.806521997530155 ], [ 5.805926, 52.794858997527861 ], [ 5.818792, 52.784696997525899 ], [ 5.849699, 52.784738997525906 ], [ 5.922574, 52.750691997519262 ], [ 5.962105, 52.690350997507458 ], [ 5.93387, 52.675509997504541 ], [ 5.988626, 52.629323997495355 ], [ 5.777968, 52.607533997491025 ], [ 5.855076, 52.550823997479796 ], [ 5.86431, 52.518172997473229 ], [ 5.887277, 52.516905997472996 ], [ 5.925559, 52.474057997464406 ], [ 6.054666, 52.499546997469459 ], [ 6.089268, 52.476810997464931 ], [ 6.103351, 52.456431997460875 ] ] ] } },
{ "type": "Feature", "properties": { "name": "Utrecht", "regioFacetId": "tcm:106-353708-1024", "level": 3, "join_name": "utrecht", "all years": 1354834, "pop": 1354834 }, "geometry": { "type": "Polygon", "coordinates": [ [ [ 4.802925, 52.201027997408637 ], [ 4.873623, 52.156082997399274 ], [ 4.803523, 52.013955997369486 ], [ 4.877793, 51.938030997353458 ], [ 4.975436, 51.962885997358711 ], [ 5.027243, 51.969159997360059 ], [ 5.040402, 51.977443997361824 ], [ 5.047794, 51.976557997361624 ], [ 5.133352, 51.937754997353395 ], [ 5.180227, 51.967447997359706 ], [ 5.220633, 51.964555997359035 ], [ 5.270374, 51.96542699735928 ], [ 5.470991, 51.982986997362985 ], [ 5.512481, 51.973080997360896 ], [ 5.590992, 51.949775997355914 ], [ 5.616428, 51.949353997355843 ], [ 5.620162, 51.951497997356292 ], [ 5.624978, 51.960064997358138 ], [ 5.624856, 51.970447997360317 ], [ 5.609972, 51.993691997365211 ], [ 5.591998, 52.001391997366859 ], [ 5.48415, 52.069621997381262 ], [ 5.498982, 52.147392997397517 ], [ 5.404643, 52.249629997418658 ], [ 5.335461, 52.290217997426957 ], [ 5.265978, 52.281925997425319 ], [ 5.192586, 52.17783299740384 ], [ 5.121176, 52.180946997404412 ], [ 5.042049, 52.183369997404967 ], [ 5.021543, 52.302456997429481 ], [ 4.917601, 52.257076997420178 ], [ 4.903076, 52.253204997419409 ], [ 4.891325, 52.253302997419411 ], [ 4.868583, 52.25157899741906 ], [ 4.854938, 52.242145997417119 ], [ 4.851254, 52.241866997417084 ], [ 4.84728, 52.239764997416643 ], [ 4.830107, 52.230912997414777 ], [ 4.805404, 52.227988997414208 ], [ 4.794576, 52.226730997413959 ], [ 4.79443, 52.22342299741323 ], [ 4.802925, 52.201027997408637 ] ] ] } },
{ "type": "Feature", "properties": { "name": "Zeeland", "regioFacetId": "tcm:106-353735-1024", "level": 3, "join_name": "zeeland", "all years": 383488, "pop": 383488 }, "geometry": { "type": "Polygon", "coordinates": [ [ [ 3.773675, 51.781519997319883 ], [ 3.685364, 51.733635997309513 ], [ 3.570919, 51.604741997281366 ], [ 3.485917, 51.573628997274497 ], [ 3.387301, 51.592517997278691 ], [ 3.307938, 51.433375997243388 ], [ 3.448276, 51.241492997200062 ], [ 3.590832, 51.304416997214354 ], [ 3.795473, 51.256052997203405 ], [ 3.88635, 51.200161997190662 ], [ 4.166132, 51.292892997211787 ], [ 4.277425, 51.376034997230541 ], [ 4.218927, 51.504857997259336 ], [ 4.228121, 51.563715997272347 ], [ 4.191893, 51.609834997282455 ], [ 4.242786, 51.647062997290639 ], [ 4.047813, 51.694363997300954 ], [ 4.013336, 51.759011997315021 ], [ 3.886171, 51.749357997312956 ], [ 3.773675, 51.781519997319883 ] ] ] } },
{ "type": "Feature", "properties": { "name": "Zuid-Holland", "regioFacetId": "tcm:106-353749-1024", "level": 3, "join_name": "zuidholland", "all years": 3708696, "pop": 3708696 }, "geometry": { "type": "Polygon", "coordinates": [ [ [ 4.55047, 52.226744997413988 ], [ 4.563707, 52.309297997430882 ], [ 4.477649, 52.332510997435698 ], [ 4.360002, 52.192676997406892 ], [ 4.110164, 52.004436997367549 ], [ 3.953131, 51.989143997364287 ], [ 3.953147, 51.850031997334632 ], [ 3.773675, 51.781519997319883 ], [ 3.886171, 51.749357997312956 ], [ 4.013336, 51.759011997315021 ], [ 4.047813, 51.694363997300954 ], [ 4.242786, 51.647062997290639 ], [ 4.275003, 51.643777997289881 ], [ 4.379431, 51.683591997298642 ], [ 4.675223, 51.724208997307464 ], [ 4.75524, 51.781610997319937 ], [ 4.773539, 51.793323997322432 ], [ 4.836108, 51.797838997323396 ], [ 4.889401, 51.81889499732798 ], [ 4.987757, 51.821058997328365 ], [ 5.008281, 51.821018997328437 ], [ 5.026352, 51.818856997327977 ], [ 4.995965, 51.861848997337127 ], [ 5.052199, 51.866642997338204 ], [ 5.080532, 51.875524997340129 ], [ 5.117671, 51.892569997343742 ], [ 5.119409, 51.898604997345025 ], [ 5.14846, 51.929484997351615 ], [ 5.133352, 51.937754997353395 ], [ 5.047794, 51.976557997361624 ], [ 5.040402, 51.977443997361824 ], [ 5.027243, 51.969159997360059 ], [ 4.975436, 51.962885997358711 ], [ 4.877793, 51.938030997353458 ], [ 4.803523, 52.013955997369486 ], [ 4.873623, 52.156082997399274 ], [ 4.802925, 52.201027997408637 ], [ 4.79443, 52.22342299741323 ], [ 4.794576, 52.226730997413959 ], [ 4.762074, 52.218129997412156 ], [ 4.734339, 52.206515997409731 ], [ 4.571396, 52.216958997411894 ], [ 4.55047, 52.226744997413988 ] ] ] } }
]
}
