{
"type": "FeatureCollection",
"name": "Germany-R",
"crs": { "type": "name", "properties": { "name": "urn:ogc:def:crs:OGC:1.3:CRS84" } },
"features": [
{ "type": "Feature", "properties": { "source": "https://simplemaps.com", "name": "Sachsen", "id": "DESN", "join_name": "sachsen", "Population": 4048556, "pop": 4048556 }, "geometry": { "type": "Polygon", "coordinates": [ [ [ 12.208534189310862, 50.469802958295318 ], [ 12.04443326001901, 50.620130217518529 ], [ 12.063041681654587, 50.779961559178268 ], [ 12.194292088156526, 50.780748762071532 ], [ 12.29118699613697, 50.897382024619048 ], [ 12.25137378278548, 51.007657209336422 ], [ 12.607526755265427, 51.102240814535577 ], [ 12.458448292533218, 51.259082587352786 ], [ 12.262769241324378, 51.280026086261017 ], [ 12.157025952367828, 51.533371951848984 ], [ 12.132666025681811, 51.724430476015485 ], [ 12.164712716990126, 51.794651973274924 ], [ 12.26339942533045, 51.817493324789602 ], [ 12.401530318480551, 51.81129787323335 ], [ 12.663369214047812, 51.82575893217146 ], [ 12.85036763377437, 51.793160221679933 ], [ 12.966004145708666, 51.746439229493525 ], [ 13.055696701178103, 51.566343809016558 ], [ 13.184910681139897, 51.598820671330074 ], [ 13.283096984935376, 51.541849401182574 ], [ 13.652297283339763, 51.511761399953592 ], [ 13.784474941981387, 51.676371303736566 ], [ 13.954369013557505, 51.647303680554394 ], [ 14.113908204760584, 51.685896790776958 ], [ 14.318892213796833, 51.656506248217852 ], [ 14.583578844202883, 51.553493201066154 ], [ 14.687133027941881, 51.378083611106177 ], [ 14.647974985961827, 51.179057719094146 ], [ 14.496870253604799, 50.940772574922917 ], [ 14.326246620768789, 50.981285175427352 ], [ 14.338181633406849, 51.042945950625658 ], [ 14.169181615333629, 51.161367436865511 ], [ 13.971583031397119, 51.183310619508696 ], [ 14.076499409200256, 51.068195840034242 ], [ 13.61232750856697, 50.899104596348948 ], [ 13.418595420954109, 50.89250346481986 ], [ 13.297242665491865, 50.784716704267133 ], [ 13.12046664648914, 50.773654521120754 ], [ 13.065210270233942, 50.686552332844258 ], [ 12.941922491485403, 50.682844015160036 ], [ 12.865370844452832, 50.580333506304214 ], [ 12.789333174121268, 50.622450865175622 ], [ 12.665850394178262, 50.563492086849124 ], [ 12.526724949011248, 50.557140793990065 ], [ 12.389282485850568, 50.394004772584815 ], [ 12.208534189310862, 50.469802958295318 ] ] ] } },
{ "type": "Feature", "properties": { "source": "https://simplemaps.com", "name": "Bayern", "id": "DEBY", "join_name": "bayern", "Population": 13212677, "pop": 13212677 }, "geometry": { "type": "Polygon", "coordinates": [ [ [ 12.04443326001901, 50.620130217518529 ], [ 12.208534189310862, 50.469802958295318 ], [ 12.196254605730587, 50.373706286590156 ], [ 12.27043701911114, 50.27615911144148 ], [ 12.306285181501108, 50.112265196190805 ], [ 12.4618873665189, 50.031009861603948 ], [ 12.496757878256574, 49.959378154121168 ], [ 12.386551133925595, 49.79134600194061 ], [ 12.553279488133663, 49.57891612915261 ], [ 12.568793150952853, 49.508095830606031 ], [ 12.678509159948041, 49.4187498737003 ], [ 12.827071941723291, 49.390459200749426 ], [ 12.96661015633164, 49.238227404832301 ], [ 13.069828731370693, 49.217632990418878 ], [ 13.24514028571561, 49.081586317979934 ], [ 13.380837148081397, 49.088249428250819 ], [ 13.618212726979841, 48.919730077759233 ], [ 13.618481024211691, 48.775507777837163 ], [ 13.535087235392121, 48.696299797637799 ], [ 13.316831981434191, 48.764762661186701 ], [ 13.22996261440859, 48.578403951665145 ], [ 13.10715780118216, 48.523309620762291 ], [ 12.884150183009572, 48.500045842688294 ], [ 12.65520952177099, 48.381285128837149 ], [ 12.674385259970876, 48.327397003709812 ], [ 12.931564869145678, 48.076266937369475 ], [ 12.860807228516355, 47.949296206354681 ], [ 13.042274945181786, 47.853920940452582 ], [ 13.025338195235191, 47.690014751641748 ], [ 12.939584758955395, 47.669827591691998 ], [ 12.780296097526755, 47.770097343062027 ], [ 12.73500695277651, 47.89485361427991 ], [ 12.518265967249, 47.868662355957355 ], [ 12.446594314797462, 47.945498691659651 ], [ 12.259661973637334, 47.941988731996503 ], [ 12.236026760857387, 47.855180869809139 ], [ 12.044735970320811, 47.869716917969534 ], [ 11.950888106395809, 47.827499016554029 ], [ 11.788810229811759, 47.843357182041593 ], [ 11.727638994850365, 47.748385975327224 ], [ 11.612113720805526, 47.733744908799373 ], [ 11.469091741990129, 47.600131514583175 ], [ 11.315435385302418, 47.575406899376055 ], [ 11.084321921716807, 47.695410751414407 ], [ 10.934404350882573, 47.726690836224016 ], [ 10.765792886809695, 47.679959491113671 ], [ 10.755217123820234, 47.568562140544827 ], [ 10.580588232257879, 47.405560082542493 ], [ 10.286847467984844, 47.591423001762593 ], [ 9.867175741603269, 47.545920905727058 ], [ 9.948253016949806, 47.60493666075093 ], [ 10.254263955747392, 47.730316289448069 ], [ 10.531862459257777, 47.792439669082732 ], [ 10.617920926897209, 48.092346298521754 ], [ 10.730804676898797, 48.271411503342399 ], [ 10.704859812189866, 48.46929206995523 ], [ 10.646823275777921, 48.541101284790578 ], [ 10.742782343209141, 48.634674198287541 ], [ 10.945045819925816, 48.695907556163348 ], [ 10.945524906257406, 48.767174033205542 ], [ 11.017500019319844, 48.852803257853274 ], [ 11.037703692755887, 49.04803172026898 ], [ 10.965753571002359, 49.155186516640313 ], [ 10.914347658208117, 49.170376450610974 ], [ 10.828600567861439, 49.30102611222587 ], [ 10.852424586274841, 49.444728710294179 ], [ 10.828685387178599, 49.544915870310199 ], [ 10.673882799404266, 49.51783183737129 ], [ 10.671384451323641, 49.571631762124539 ], [ 10.554937349724996, 49.709082667530183 ], [ 10.411610393981272, 49.751109259305693 ], [ 10.048512538703406, 49.761705457230399 ], [ 10.139176908248178, 49.701399870730675 ], [ 9.906833022611062, 49.60685803124251 ], [ 9.708347236199694, 49.606994376384222 ], [ 9.771469155061258, 49.729535425088898 ], [ 9.629648538114269, 49.842596410248198 ], [ 9.653416760274213, 50.003521474207055 ], [ 9.959936101872511, 50.072845693959685 ], [ 10.171806813359394, 50.03351606507502 ], [ 10.295180889276832, 50.057437621260924 ], [ 10.329304638009269, 50.202100326269708 ], [ 10.498819632253737, 50.214496339655035 ], [ 10.662393625768246, 50.435730858078585 ], [ 10.910267710840593, 50.536801442056401 ], [ 10.989892248192692, 50.639256013264223 ], [ 11.132950459327891, 50.67393427206072 ], [ 11.290134381461103, 50.472189539105756 ], [ 11.423602334013482, 50.602389019112522 ], [ 11.670276361859445, 50.588708920144605 ], [ 11.654133710277405, 50.72654763360547 ], [ 11.702096790995352, 50.77008502311697 ], [ 11.80410467827326, 50.608212757783839 ], [ 12.04443326001901, 50.620130217518529 ] ] ] } },
{ "type": "Feature", "properties": { "source": "https://simplemaps.com", "name": "Rheinland-Pfalz", "id": "DERP", "join_name": "rheinlandpfalz", "Population": 4127366, "pop": 4127366 }, "geometry": { "type": "Polygon", "coordinates": [ [ [ 6.435336258945351, 50.149132359007083 ], [ 6.68146963023504, 50.160817607624963 ], [ 6.958271641516466, 50.107650992085631 ], [ 6.865345450490181, 50.202039653976939 ], [ 7.057814084745044, 50.22856148706704 ], [ 7.585304289579633, 50.231546717233158 ], [ 7.602360086902471, 50.286200147407847 ], [ 7.903940917707691, 50.323975189218444 ], [ 8.208004650081021, 50.538669507307489 ], [ 8.472465277244709, 50.526554109432674 ], [ 8.567590644619067, 50.352465008497639 ], [ 8.689307863238986, 50.365892151563493 ], [ 8.659759779287191, 50.279492170106181 ], [ 8.365886802792899, 50.176314615855503 ], [ 8.348629507337252, 50.09817991556158 ], [ 8.438588737267811, 50.035060649364276 ], [ 8.210308001116479, 49.978493270518399 ], [ 8.180268896482723, 49.93085629630923 ], [ 8.055305049501955, 49.890339209209166 ], [ 8.196583050622493, 49.839868566492726 ], [ 8.459207309536449, 49.891322231045983 ], [ 8.638607968550916, 49.844504115930548 ], [ 8.752203537712575, 49.697375247222595 ], [ 8.636640723950947, 49.654812387663682 ], [ 8.709008289830271, 49.597493036247478 ], [ 8.806951958272267, 49.501091135133876 ], [ 8.77667485888273, 49.381662778030801 ], [ 8.638015168767478, 49.305011074443918 ], [ 8.603932788412484, 49.198508353069634 ], [ 8.393919443874269, 49.032326574009495 ], [ 8.092229773558278, 49.105219980846712 ], [ 7.823102708281088, 49.076364959957374 ], [ 7.617857610289044, 49.184217508081794 ], [ 7.570871651730877, 49.212971490599287 ], [ 7.693458384001736, 49.403644869240992 ], [ 7.570815481000033, 49.585965308210625 ], [ 7.172744779597093, 49.661596808157149 ], [ 6.707565125065367, 49.534117158832188 ], [ 6.432913485675456, 49.489396221329734 ], [ 6.639477775110584, 49.664460642356879 ], [ 6.670010228355745, 49.735782021709802 ], [ 6.328293264235621, 49.801800356770947 ], [ 6.165866443392212, 49.942291044503079 ], [ 6.195077275041731, 50.081539114079298 ], [ 6.435336258945351, 50.149132359007083 ] ] ] } },
{ "type": "Feature", "properties": { "source": "https://simplemaps.com", "name": "Saarland", "id": "DESL", "join_name": "saarland", "Population": 1013094, "pop": 1013094 }, "geometry": { "type": "Polygon", "coordinates": [ [ [ 6.432913485675456, 49.489396221329734 ], [ 6.707565125065367, 49.534117158832188 ], [ 7.172744779597093, 49.661596808157149 ], [ 7.570815481000033, 49.585965308210625 ], [ 7.693458384001736, 49.403644869240992 ], [ 7.570871651730877, 49.212971490599287 ], [ 7.617857610289044, 49.184217508081794 ], [ 7.486555117480447, 49.09172376227567 ], [ 6.957516457139112, 49.135904660264409 ], [ 6.805819374152608, 49.08496097418687 ], [ 6.615764147138479, 49.328810602567096 ], [ 6.432913485675456, 49.489396221329734 ] ] ] } },
{ "type": "Feature", "properties": { "source": "https://simplemaps.com", "name": "Schleswig-Holstein", "id": "DESH", "join_name": "schleswigholstein", "Population": 2956360, "pop": 2956360 }, "geometry": { "type": "Polygon", "coordinates": [ [ [ 11.602454339585831, 53.829919066046585 ], [ 11.505952045060397, 53.790474006019423 ], [ 11.621511633477413, 53.669415123388099 ], [ 11.86075731984193, 53.580864567595519 ], [ 11.889128530082125, 53.489999090778269 ], [ 11.538750616759399, 53.29879448679462 ], [ 11.418939803089891, 53.173601361292242 ], [ 11.260491708756808, 53.128457184338423 ], [ 11.439216202625799, 53.35095336830905 ], [ 11.23257369444166, 53.760746461790774 ], [ 10.756296824154113, 53.917305112406332 ], [ 9.965698685142373, 53.524187127042111 ], [ 9.935229358518542, 53.609854615844846 ], [ 9.897574863031158, 53.837077341869026 ], [ 9.7901205002049, 53.897476463789367 ], [ 9.631517509063588, 53.909973012139965 ], [ 9.418963333040535, 54.036618790943855 ], [ 9.606734358399688, 54.079215875719584 ], [ 9.374113951602492, 54.151672982795361 ], [ 9.439175287882538, 54.245911975456124 ], [ 9.160505879313829, 54.238450366049754 ], [ 9.111277813205305, 54.337882552909115 ], [ 9.374414865284203, 54.340737631769152 ], [ 9.516801987721552, 54.404645139517527 ], [ 9.094958001107143, 54.653658927398702 ], [ 9.030617100248094, 54.811726411316066 ], [ 9.197063489691246, 54.808823750310992 ], [ 9.586560467972083, 54.719974098024764 ], [ 9.631464234373551, 54.670836706730519 ], [ 9.934078734992291, 54.67862275020434 ], [ 10.314907558294802, 54.550843992181989 ], [ 10.379643086712827, 54.455462348761152 ], [ 10.385625072794957, 54.380918697665251 ], [ 10.557984348705038, 54.313912791919435 ], [ 11.127292731006628, 54.156353523432749 ], [ 11.290536478300822, 54.183261539686178 ], [ 11.491711947311162, 54.12503246303195 ], [ 11.606686658942365, 53.981500163718884 ], [ 11.292775413264081, 53.958247375305248 ], [ 11.602454339585831, 53.829919066046585 ] ] ] } },
{ "type": "Feature", "properties": { "source": "https://simplemaps.com", "name": "Niedersachsen", "id": "DENI", "join_name": "niedersachsen", "Population": 8006312, "pop": 8006312 }, "geometry": { "type": "Polygon", "coordinates": [ [ [ 11.418939803089891, 53.173601361292242 ], [ 11.691246252237677, 53.072427349427819 ], [ 11.845439630424455, 53.103001122269262 ], [ 12.02940666216279, 53.103845012861903 ], [ 11.857992357491208, 52.89577376941029 ], [ 11.65783316655793, 52.74420014992819 ], [ 11.475359917541445, 52.77227344909344 ], [ 11.223824145873827, 52.696883628493985 ], [ 11.223906838278864, 52.651768273637096 ], [ 11.500297871429032, 52.395926529251277 ], [ 11.539106887238187, 52.293099809559045 ], [ 11.625947276627988, 52.16196421282325 ], [ 11.592703765487615, 52.075571940607233 ], [ 11.479822403391161, 52.089147208465462 ], [ 11.455417790812685, 52.057151159700346 ], [ 11.499063995726358, 51.997624810086464 ], [ 11.482459916088516, 51.934538084464918 ], [ 11.548030541189867, 51.827406216790287 ], [ 11.508094813302263, 51.761442111591471 ], [ 11.284730915380484, 51.699815765941004 ], [ 11.128499815541293, 51.577460479633899 ], [ 10.977275075595287, 51.540558124291429 ], [ 10.854353371575966, 51.586869323955717 ], [ 10.768916905557845, 51.490954417365714 ], [ 10.655406449646684, 51.736476235604258 ], [ 10.63843941404628, 51.878462123127527 ], [ 10.480604268550595, 51.935202610926027 ], [ 10.400474507937941, 52.05115566912184 ], [ 10.407662622930308, 52.150043785323646 ], [ 10.175788995190194, 52.303413130543618 ], [ 10.069582196776329, 52.417184546937868 ], [ 9.969802124828124, 52.436725393341526 ], [ 9.902193775473984, 52.516028619704834 ], [ 9.972928217681952, 52.576600212131581 ], [ 9.583794246366825, 52.653442593082524 ], [ 9.451772279407317, 52.745691974052384 ], [ 9.341711931563895, 52.763445181900209 ], [ 9.252544656389802, 52.733493291409921 ], [ 9.352046257571264, 52.693606785812307 ], [ 9.521070329141242, 52.560498625858607 ], [ 9.469635539488372, 52.545121756686711 ], [ 9.332584711676684, 52.58986395487932 ], [ 9.089284069081909, 52.58233320162774 ], [ 9.050957967855865, 52.669198606040233 ], [ 8.910552703552113, 52.705777921887197 ], [ 8.951895430567847, 52.761908195051127 ], [ 8.456327281579519, 52.889604406724722 ], [ 8.387420220665316, 52.846370651722125 ], [ 7.838970657007732, 52.779736558199914 ], [ 7.301765914316191, 52.720774789955421 ], [ 7.398610976944894, 52.82103132641388 ], [ 6.899689715410674, 52.838383944478622 ], [ 6.966496286293362, 52.945858770946323 ], [ 7.470506031215625, 52.994665026293191 ], [ 7.558640836729245, 53.130491210477423 ], [ 7.707901805496892, 53.202902466022124 ], [ 7.686904173231953, 53.405613204897271 ], [ 7.521313017192174, 53.486100309760566 ], [ 7.444301501389098, 53.580729025644715 ], [ 7.5041067599794, 53.692274455186642 ], [ 7.655630690608454, 53.753197338411859 ], [ 8.441622036981011, 53.745638550983799 ], [ 8.688651320205622, 53.522895426050326 ], [ 8.617994550879223, 53.487070043210323 ], [ 8.790153148475605, 53.353919421103249 ], [ 8.82302785651814, 53.425267545578066 ], [ 9.23979238411739, 53.245336692574824 ], [ 9.7351947140106, 53.611844951897595 ], [ 9.019674042460935, 53.716552000031434 ], [ 8.974285673441807, 53.761693863714221 ], [ 9.103172651961051, 53.892340277741262 ], [ 9.248492952173253, 53.92062150148633 ], [ 9.503320959850166, 53.866506509550796 ], [ 9.827188801956327, 53.870616286083084 ], [ 9.927578741635067, 53.549142925325299 ], [ 9.955457056986225, 53.455065387349137 ], [ 10.210032328947921, 53.034982888375566 ], [ 10.82847737513584, 52.959012879230336 ], [ 10.950832708712024, 52.980852254248298 ], [ 11.260491708756808, 53.128457184338423 ], [ 11.418939803089891, 53.173601361292242 ] ], [ [ 9.207414410395401, 53.151287391446139 ], [ 9.350673052092118, 53.079491481907226 ], [ 9.537599023474325, 53.038665722093477 ], [ 9.591878819321771, 53.073906747810973 ], [ 9.38001686865473, 53.13203094445673 ], [ 9.207414410395401, 53.151287391446139 ] ] ] } },
{ "type": "Feature", "properties": { "source": "https://simplemaps.com", "name": "Nordrhein-Westfalen", "id": "DENW", "join_name": "nordrheinwestfalen", "Population": 18025987, "pop": 18025987 }, "geometry": { "type": "Polygon", "coordinates": [ [ [ 8.689307863238986, 50.365892151563493 ], [ 8.567590644619067, 50.352465008497639 ], [ 8.472465277244709, 50.526554109432674 ], [ 8.208004650081021, 50.538669507307489 ], [ 7.903940917707691, 50.323975189218444 ], [ 7.602360086902471, 50.286200147407847 ], [ 7.585304289579633, 50.231546717233158 ], [ 7.057814084745044, 50.22856148706704 ], [ 6.865345450490181, 50.202039653976939 ], [ 6.958271641516466, 50.107650992085631 ], [ 6.68146963023504, 50.160817607624963 ], [ 6.435336258945351, 50.149132359007083 ], [ 6.311346439475589, 50.296908218938498 ], [ 6.170532136954068, 50.410405984748493 ], [ 5.82122039090934, 50.652875650071287 ], [ 5.856340589952412, 50.778506250316042 ], [ 5.718500307059892, 50.991280246662612 ], [ 5.816341574512, 51.053605729114096 ], [ 5.732594764144403, 51.185616040703202 ], [ 5.79668935725549, 51.323211582539422 ], [ 5.796377843151133, 51.584858076689976 ], [ 5.744386197291171, 51.777159993336547 ], [ 5.648883557504572, 51.877806517454765 ], [ 5.664170514493502, 51.973859249466216 ], [ 5.938486000263013, 52.10215250492098 ], [ 6.085681783077085, 52.086916543949059 ], [ 6.610956841110303, 52.247120081702221 ], [ 6.79308721032841, 52.383595860083076 ], [ 6.60030017768797, 52.429041596893654 ], [ 7.301765914316191, 52.720774789955421 ], [ 7.838970657007732, 52.779736558199914 ], [ 8.387420220665316, 52.846370651722125 ], [ 8.456327281579519, 52.889604406724722 ], [ 8.951895430567847, 52.761908195051127 ], [ 8.910552703552113, 52.705777921887197 ], [ 9.050957967855865, 52.669198606040233 ], [ 9.089284069081909, 52.58233320162774 ], [ 9.332584711676684, 52.58986395487932 ], [ 9.469635539488372, 52.545121756686711 ], [ 9.521070329141242, 52.560498625858607 ], [ 9.352046257571264, 52.693606785812307 ], [ 9.252544656389802, 52.733493291409921 ], [ 9.341711931563895, 52.763445181900209 ], [ 9.451772279407317, 52.745691974052384 ], [ 9.583794246366825, 52.653442593082524 ], [ 9.972928217681952, 52.576600212131581 ], [ 9.902193775473984, 52.516028619704834 ], [ 9.969802124828124, 52.436725393341526 ], [ 10.069582196776329, 52.417184546937868 ], [ 10.175788995190194, 52.303413130543618 ], [ 10.407662622930308, 52.150043785323646 ], [ 10.400474507937941, 52.05115566912184 ], [ 10.480604268550595, 51.935202610926027 ], [ 10.437932237825736, 51.824140843140313 ], [ 10.301899996826972, 51.693703969065126 ], [ 10.225078109409006, 51.796831562955511 ], [ 10.153545690618257, 51.762283585197558 ], [ 10.185352411275906, 51.625347816563981 ], [ 9.945244301625575, 51.578684487087273 ], [ 9.975752007443276, 51.280644521784467 ], [ 9.222126269020752, 50.670248990121266 ], [ 8.771647219410362, 50.495948338008965 ], [ 8.689307863238986, 50.365892151563493 ] ] ] } },
{ "type": "Feature", "properties": { "source": "https://simplemaps.com", "name": "Baden-Württemberg", "id": "DEBW", "join_name": "badenwürttemberg", "Population": 11238319, "pop": 11238319 }, "geometry": { "type": "Polygon", "coordinates": [ [ [ 9.708347236199694, 49.606994376384222 ], [ 9.906833022611062, 49.60685803124251 ], [ 10.139176908248178, 49.701399870730675 ], [ 10.048512538703406, 49.761705457230399 ], [ 10.411610393981272, 49.751109259305693 ], [ 10.554937349724996, 49.709082667530183 ], [ 10.671384451323641, 49.571631762124539 ], [ 10.673882799404266, 49.51783183737129 ], [ 10.828685387178599, 49.544915870310199 ], [ 10.852424586274841, 49.444728710294179 ], [ 10.828600567861439, 49.30102611222587 ], [ 10.914347658208117, 49.170376450610974 ], [ 10.965753571002359, 49.155186516640313 ], [ 11.037703692755887, 49.04803172026898 ], [ 11.017500019319844, 48.852803257853274 ], [ 10.945524906257406, 48.767174033205542 ], [ 10.945045819925816, 48.695907556163348 ], [ 10.742782343209141, 48.634674198287541 ], [ 10.646823275777921, 48.541101284790578 ], [ 10.704859812189866, 48.46929206995523 ], [ 10.730804676898797, 48.271411503342399 ], [ 10.617920926897209, 48.092346298521754 ], [ 10.531862459257777, 47.792439669082732 ], [ 10.254263955747392, 47.730316289448069 ], [ 9.948253016949806, 47.60493666075093 ], [ 9.867175741603269, 47.545920905727058 ], [ 9.574692611496651, 47.623036075306821 ], [ 9.271515540076738, 47.63108859469228 ], [ 9.135153192217647, 47.599290706336774 ], [ 9.010807708160678, 47.661380606449299 ], [ 8.726721534066021, 47.737855281004343 ], [ 8.534974642528045, 47.635691293851885 ], [ 8.60478729732246, 47.537325076420544 ], [ 8.307860127954255, 47.572841986208182 ], [ 8.211988107192107, 47.530037571129697 ], [ 7.928809567166286, 47.563114351812366 ], [ 7.789275248668797, 47.516734733958636 ], [ 7.618185829374637, 47.642456575495274 ], [ 7.617790421388384, 47.753003062224842 ], [ 7.700006488306487, 47.969106288283939 ], [ 7.649407691188673, 48.064095261640333 ], [ 7.813938487459194, 48.334642261482614 ], [ 7.892064457589152, 48.624409818137707 ], [ 8.091258698436789, 48.794644430057296 ], [ 8.26012469866394, 48.874290020246114 ], [ 8.393919443874269, 49.032326574009495 ], [ 8.603932788412484, 49.198508353069634 ], [ 8.638015168767478, 49.305011074443918 ], [ 8.77667485888273, 49.381662778030801 ], [ 8.806951958272267, 49.501091135133876 ], [ 8.709008289830271, 49.597493036247478 ], [ 9.081675404103851, 49.632295971548928 ], [ 9.296251422967913, 49.5532919838965 ], [ 9.26980923115706, 49.475909073790298 ], [ 9.596615166454638, 49.554968265387849 ], [ 9.708347236199694, 49.606994376384222 ] ] ] } },
{ "type": "Feature", "properties": { "source": "https://simplemaps.com", "name": "Brandenburg", "id": "DEBB", "join_name": "brandenburg", "Population": 2555606, "pop": 2555606 }, "geometry": { "type": "Polygon", "coordinates": [ [ [ 12.85036763377437, 51.793160221679933 ], [ 12.96952535952332, 51.868912015369496 ], [ 12.786175713460116, 51.917078816894673 ], [ 12.349115053245697, 51.983381961128174 ], [ 12.260069304632575, 52.000808993418381 ], [ 12.15367444365269, 52.089498989851172 ], [ 12.082390046452915, 52.20399900870477 ], [ 12.03246912691815, 52.255862605564104 ], [ 12.208287843743296, 52.923689587463791 ], [ 12.089664761190891, 52.902709700889474 ], [ 12.104036521087211, 53.081032687571707 ], [ 12.02940666216279, 53.103845012861903 ], [ 11.845439630424455, 53.103001122269262 ], [ 12.151926058281033, 53.271058986372552 ], [ 12.268024078364418, 53.368897062481935 ], [ 12.313614697401787, 53.363096733120422 ], [ 12.430657374967412, 53.412408339987174 ], [ 12.520254609254312, 53.38275789060323 ], [ 12.551204979147649, 53.385341514330243 ], [ 12.723899679692011, 53.356941172515228 ], [ 12.784451755388334, 53.393057146734328 ], [ 12.897868140567821, 53.390464693072339 ], [ 12.948108215729819, 53.444792025191667 ], [ 13.244291356925096, 53.461702990053205 ], [ 13.369245676103549, 53.389276891472235 ], [ 13.780359911242275, 53.332870804889012 ], [ 13.673630130927682, 53.198845555537019 ], [ 13.825252847986455, 53.162891810975069 ], [ 13.957911765797704, 53.230172080669988 ], [ 14.015667981710047, 53.142302828826743 ], [ 13.927509220985733, 52.901198528746157 ], [ 13.851400501531057, 52.859805272784747 ], [ 13.948378490315438, 52.721544500632895 ], [ 14.05862643626735, 52.496345186976278 ], [ 14.006866253844063, 52.389458525123793 ], [ 13.996393227822775, 52.307500140899755 ], [ 14.053264929002458, 52.297923676555726 ], [ 14.078683642432823, 52.207799281517786 ], [ 14.205967038972513, 52.15877015699165 ], [ 14.188152146036792, 52.040300310462122 ], [ 14.118451110288387, 51.932712493046289 ], [ 14.30241744481472, 51.789183538602479 ], [ 14.318892213796833, 51.656506248217852 ], [ 14.113908204760584, 51.685896790776958 ], [ 13.954369013557505, 51.647303680554394 ], [ 13.784474941981387, 51.676371303736566 ], [ 13.652297283339763, 51.511761399953592 ], [ 13.283096984935376, 51.541849401182574 ], [ 13.184910681139897, 51.598820671330074 ], [ 13.055696701178103, 51.566343809016558 ], [ 12.966004145708666, 51.746439229493525 ], [ 12.85036763377437, 51.793160221679933 ] ], [ [ 13.955678142495099, 52.38527622764979 ], [ 13.65288855320151, 52.956441144252473 ], [ 12.825325527158887, 53.162949398740047 ], [ 12.298430575532979, 52.859231025286064 ], [ 12.286236471957263, 52.095041057222666 ], [ 13.448040351430235, 52.019189576498938 ], [ 13.744224661595142, 52.147280709703956 ], [ 13.955678142495099, 52.38527622764979 ] ] ] } },
{ "type": "Feature", "properties": { "source": "https://simplemaps.com", "name": "Mecklenburg-Vorpommern", "id": "DEMV", "join_name": "mecklenburgvorpommern", "Population": 1575819, "pop": 1575819 }, "geometry": { "type": "Polygon", "coordinates": [ [ [ 11.418939803089891, 53.173601361292242 ], [ 11.538750616759399, 53.29879448679462 ], [ 11.889128530082125, 53.489999090778269 ], [ 11.86075731984193, 53.580864567595519 ], [ 11.621511633477413, 53.669415123388099 ], [ 11.505952045060397, 53.790474006019423 ], [ 11.602454339585831, 53.829919066046585 ], [ 11.925738726681015, 53.783391921494214 ], [ 12.080026423940689, 53.702661089457465 ], [ 12.207472337027085, 53.669441774659973 ], [ 12.21166832838083, 53.706466407448076 ], [ 12.259736631933832, 53.76400600655645 ], [ 12.423260986143529, 53.769705121923501 ], [ 12.501933354793074, 53.819777204927703 ], [ 12.557408199611096, 53.999280797424788 ], [ 12.709252630889122, 53.869060812164825 ], [ 12.826547441999463, 53.999597427907425 ], [ 12.797123423627363, 53.821755488952824 ], [ 12.874826274186281, 53.80869766415131 ], [ 12.952495689555596, 53.760969673218469 ], [ 13.217281654496592, 53.854170806721328 ], [ 13.324197971756332, 53.827329753595087 ], [ 13.196823952822379, 53.753893169282229 ], [ 13.31359785423998, 53.695347711784727 ], [ 13.179749207108014, 53.662790573285804 ], [ 13.406375204533466, 53.612985051083768 ], [ 13.78925108299272, 53.600560332111577 ], [ 13.839928496087808, 53.39987610481041 ], [ 13.957911765797704, 53.230172080669988 ], [ 13.825252847986455, 53.162891810975069 ], [ 13.673630130927682, 53.198845555537019 ], [ 13.780359911242275, 53.332870804889012 ], [ 13.369245676103549, 53.389276891472235 ], [ 13.244291356925096, 53.461702990053205 ], [ 12.948108215729819, 53.444792025191667 ], [ 12.897868140567821, 53.390464693072339 ], [ 12.784451755388334, 53.393057146734328 ], [ 12.723899679692011, 53.356941172515228 ], [ 12.551204979147649, 53.385341514330243 ], [ 12.520254609254312, 53.38275789060323 ], [ 12.430657374967412, 53.412408339987174 ], [ 12.313614697401787, 53.363096733120422 ], [ 12.268024078364418, 53.368897062481935 ], [ 12.151926058281033, 53.271058986372552 ], [ 11.845439630424455, 53.103001122269262 ], [ 11.691246252237677, 53.072427349427819 ], [ 11.418939803089891, 53.173601361292242 ] ] ] } },
{ "type": "Feature", "properties": { "source": "https://simplemaps.com", "name": "Bremen", "id": "DEHB", "join_name": "bremen", "Population": 703768, "pop": 703768 }, "geometry": { "type": "Polygon", "coordinates": [ [ [ 9.019674042460935, 53.716552000031434 ], [ 9.7351947140106, 53.611844951897595 ], [ 9.23979238411739, 53.245336692574824 ], [ 9.019674042460935, 53.716552000031434 ] ] ] } },
{ "type": "Feature", "properties": { "source": "https://simplemaps.com", "name": "Hamburg", "id": "DEHH", "join_name": "hamburg", "Population": 1857081, "pop": 1857081 }, "geometry": { "type": "Polygon", "coordinates": [ [ [ 9.965698685142373, 53.524187127042111 ], [ 10.756296824154113, 53.917305112406332 ], [ 11.23257369444166, 53.760746461790774 ], [ 11.439216202625799, 53.35095336830905 ], [ 11.260491708756808, 53.128457184338423 ], [ 10.950832708712024, 52.980852254248298 ], [ 10.82847737513584, 52.959012879230336 ], [ 10.210032328947921, 53.034982888375566 ], [ 9.955457056986225, 53.455065387349137 ], [ 9.965698685142373, 53.524187127042111 ] ] ] } },
{ "type": "Feature", "properties": { "source": "https://simplemaps.com", "name": "Hessen", "id": "DEHE", "join_name": "hessen", "Population": 6274170, "pop": 6274170 }, "geometry": { "type": "Polygon", "coordinates": [ [ [ 10.989892248192692, 50.639256013264223 ], [ 10.910267710840593, 50.536801442056401 ], [ 10.662393625768246, 50.435730858078585 ], [ 10.498819632253737, 50.214496339655035 ], [ 10.329304638009269, 50.202100326269708 ], [ 10.295180889276832, 50.057437621260924 ], [ 10.171806813359394, 50.03351606507502 ], [ 9.959936101872511, 50.072845693959685 ], [ 9.653416760274213, 50.003521474207055 ], [ 9.629648538114269, 49.842596410248198 ], [ 9.771469155061258, 49.729535425088898 ], [ 9.708347236199694, 49.606994376384222 ], [ 9.596615166454638, 49.554968265387849 ], [ 9.26980923115706, 49.475909073790298 ], [ 9.296251422967913, 49.5532919838965 ], [ 9.081675404103851, 49.632295971548928 ], [ 8.709008289830271, 49.597493036247478 ], [ 8.636640723950947, 49.654812387663682 ], [ 8.752203537712575, 49.697375247222595 ], [ 8.638607968550916, 49.844504115930548 ], [ 8.459207309536449, 49.891322231045983 ], [ 8.196583050622493, 49.839868566492726 ], [ 8.055305049501955, 49.890339209209166 ], [ 8.180268896482723, 49.93085629630923 ], [ 8.210308001116479, 49.978493270518399 ], [ 8.438588737267811, 50.035060649364276 ], [ 8.348629507337252, 50.09817991556158 ], [ 8.365886802792899, 50.176314615855503 ], [ 8.659759779287191, 50.279492170106181 ], [ 8.689307863238986, 50.365892151563493 ], [ 8.771647219410362, 50.495948338008965 ], [ 9.222126269020752, 50.670248990121266 ], [ 9.975752007443276, 51.280644521784467 ], [ 9.945244301625575, 51.578684487087273 ], [ 10.185352411275906, 51.625347816563981 ], [ 10.153545690618257, 51.762283585197558 ], [ 10.225078109409006, 51.796831562955511 ], [ 10.301899996826972, 51.693703969065126 ], [ 10.437932237825736, 51.824140843140313 ], [ 10.480604268550595, 51.935202610926027 ], [ 10.63843941404628, 51.878462123127527 ], [ 10.655406449646684, 51.736476235604258 ], [ 10.768916905557845, 51.490954417365714 ], [ 10.854353371575966, 51.586869323955717 ], [ 10.977275075595287, 51.540558124291429 ], [ 10.9944942029495, 51.448834202610442 ], [ 11.229677993654152, 51.291101838399697 ], [ 11.178943258755844, 51.182485442079589 ], [ 11.123991238882562, 51.142566596229265 ], [ 11.121186285665461, 51.036320166978058 ], [ 11.031398924935379, 50.969015361857529 ], [ 10.94532303870092, 50.830824838648532 ], [ 11.068873866776489, 50.832824258804244 ], [ 10.989892248192692, 50.639256013264223 ] ] ] } },
{ "type": "Feature", "properties": { "source": "https://simplemaps.com", "name": "Thüringen", "id": "DETH", "join_name": "thüringen", "Population": 2107574, "pop": 2107574 }, "geometry": { "type": "Polygon", "coordinates": [ [ [ 12.262769241324378, 51.280026086261017 ], [ 12.458448292533218, 51.259082587352786 ], [ 12.607526755265427, 51.102240814535577 ], [ 12.25137378278548, 51.007657209336422 ], [ 12.29118699613697, 50.897382024619048 ], [ 12.194292088156526, 50.780748762071532 ], [ 12.063041681654587, 50.779961559178268 ], [ 12.04443326001901, 50.620130217518529 ], [ 11.80410467827326, 50.608212757783839 ], [ 11.702096790995352, 50.77008502311697 ], [ 11.654133710277405, 50.72654763360547 ], [ 11.670276361859445, 50.588708920144605 ], [ 11.423602334013482, 50.602389019112522 ], [ 11.290134381461103, 50.472189539105756 ], [ 11.132950459327891, 50.67393427206072 ], [ 10.989892248192692, 50.639256013264223 ], [ 11.068873866776489, 50.832824258804244 ], [ 10.94532303870092, 50.830824838648532 ], [ 11.031398924935379, 50.969015361857529 ], [ 11.121186285665461, 51.036320166978058 ], [ 11.123991238882562, 51.142566596229265 ], [ 11.178943258755844, 51.182485442079589 ], [ 11.229677993654152, 51.291101838399697 ], [ 10.9944942029495, 51.448834202610442 ], [ 10.977275075595287, 51.540558124291429 ], [ 11.128499815541293, 51.577460479633899 ], [ 11.284730915380484, 51.699815765941004 ], [ 11.508094813302263, 51.761442111591471 ], [ 11.548030541189867, 51.827406216790287 ], [ 11.645312066193563, 51.774741904624626 ], [ 11.633357216521073, 51.551315681367008 ], [ 11.763109156505806, 51.57164026633842 ], [ 11.79130343482081, 51.433248509778792 ], [ 11.743581557127794, 51.360404116178941 ], [ 11.779915016417558, 51.272393124276476 ], [ 11.88394665709338, 51.265163038479358 ], [ 12.039015922760992, 51.14293010993272 ], [ 12.152759144023166, 51.148996918339122 ], [ 12.266375810848736, 51.206694504395891 ], [ 12.262769241324378, 51.280026086261017 ] ] ] } },
{ "type": "Feature", "properties": { "source": "https://simplemaps.com", "name": "Sachsen-Anhalt", "id": "DEST", "join_name": "sachsenanhalt", "Population": 2140084, "pop": 2140084 }, "geometry": { "type": "Polygon", "coordinates": [ [ [ 12.85036763377437, 51.793160221679933 ], [ 12.663369214047812, 51.82575893217146 ], [ 12.401530318480551, 51.81129787323335 ], [ 12.26339942533045, 51.817493324789602 ], [ 12.164712716990126, 51.794651973274924 ], [ 12.132666025681811, 51.724430476015485 ], [ 12.157025952367828, 51.533371951848984 ], [ 12.262769241324378, 51.280026086261017 ], [ 12.266375810848736, 51.206694504395891 ], [ 12.152759144023166, 51.148996918339122 ], [ 12.039015922760992, 51.14293010993272 ], [ 11.88394665709338, 51.265163038479358 ], [ 11.779915016417558, 51.272393124276476 ], [ 11.743581557127794, 51.360404116178941 ], [ 11.79130343482081, 51.433248509778792 ], [ 11.763109156505806, 51.57164026633842 ], [ 11.633357216521073, 51.551315681367008 ], [ 11.645312066193563, 51.774741904624626 ], [ 11.548030541189867, 51.827406216790287 ], [ 11.482459916088516, 51.934538084464918 ], [ 11.499063995726358, 51.997624810086464 ], [ 11.455417790812685, 52.057151159700346 ], [ 11.479822403391161, 52.089147208465462 ], [ 11.592703765487615, 52.075571940607233 ], [ 11.625947276627988, 52.16196421282325 ], [ 11.539106887238187, 52.293099809559045 ], [ 11.500297871429032, 52.395926529251277 ], [ 11.223906838278864, 52.651768273637096 ], [ 11.223824145873827, 52.696883628493985 ], [ 11.475359917541445, 52.77227344909344 ], [ 11.65783316655793, 52.74420014992819 ], [ 11.857992357491208, 52.89577376941029 ], [ 12.02940666216279, 53.103845012861903 ], [ 12.104036521087211, 53.081032687571707 ], [ 12.089664761190891, 52.902709700889474 ], [ 12.208287843743296, 52.923689587463791 ], [ 12.03246912691815, 52.255862605564104 ], [ 12.082390046452915, 52.20399900870477 ], [ 12.15367444365269, 52.089498989851172 ], [ 12.260069304632575, 52.000808993418381 ], [ 12.349115053245697, 51.983381961128174 ], [ 12.786175713460116, 51.917078816894673 ], [ 12.96952535952332, 51.868912015369496 ], [ 12.85036763377437, 51.793160221679933 ] ] ] } },
{ "type": "Feature", "properties": { "source": "https://simplemaps.com", "name": "Berlin", "id": "DEBE", "join_name": "berlin", "Population": 3673823, "pop": 3673823 }, "geometry": { "type": "Polygon", "coordinates": [ [ [ 13.955678142495099, 52.38527622764979 ], [ 13.744224661595142, 52.147280709703956 ], [ 13.448040351430235, 52.019189576498938 ], [ 12.286236471957263, 52.095041057222666 ], [ 12.298430575532979, 52.859231025286064 ], [ 12.825325527158887, 53.162949398740047 ], [ 13.65288855320151, 52.956441144252473 ], [ 13.955678142495099, 52.38527622764979 ] ] ] } }
]
}
