{
"type": "FeatureCollection",
"name": "Germany-RD",
"crs": { "type": "name", "properties": { "name": "urn:ogc:def:crs:OGC:1.3:CRS84" } },
"features": [
{ "type": "Feature", "properties": { "source": "https://simplemaps.com", "name": "Sachsen", "id": "DESN", "join_name": "sachsen", "Population": 4048556, "pop": 4048556 }, "geometry": { "type": "Polygon", "coordinates": [ [ [ 13.801803128399477, 51.034404330951617 ], [ 13.799950363951258, 51.019438777045963 ], [ 13.796859632442015, 51.004554953394411 ], [ 13.792540568271356, 50.989793551578792 ], [ 13.787006130948702, 50.975194890242399 ], [ 13.780272557457529, 50.960798806193452 ], [ 13.772359306264546, 50.946644547213602 ], [ 13.763288993247695, 50.932770666842352 ], [ 13.753087319830408, 50.919214921398442 ], [ 13.741782993620372, 50.906014169490234 ], [ 13.729407641861089, 50.89320427425686 ], [ 13.715995718011946, 50.880820008572051 ], [ 13.70158440177906, 50.868894963431913 ], [ 13.686213492924098, 50.857461459737422 ], [ 13.66992529918166, 50.846550463671889 ], [ 13.652764518618486, 50.836191505862452 ], [ 13.634778116768965, 50.826412604503957 ], [ 13.616015198881971, 50.817240192612857 ], [ 13.596526877613936, 50.808699049567295 ], [ 13.576366136501775, 50.800812237079136 ], [ 13.55558768954822, 50.793601039732387 ], [ 13.534247837250165, 50.787084910211775 ], [ 13.512404319398417, 50.78128141933442 ], [ 13.490116164975154, 50.776206210986416 ], [ 13.467443539472827, 50.771872962056328 ], [ 13.44444758995623, 50.768293347445308 ], [ 13.42119028818696, 50.765477010225069 ], [ 13.397734272127575, 50.763431537002255 ], [ 13.374142686141109, 50.762162438538944 ], [ 13.3504790201999, 50.761673135667571 ], [ 13.326806948416786, 50.76196495052826 ], [ 13.30319016721076, 50.763037103146821 ], [ 13.27969223341908, 50.764886713360021 ], [ 13.256376402667708, 50.767508808085694 ], [ 13.233305468312492, 50.770896333923893 ], [ 13.210541601264534, 50.775040175065008 ], [ 13.18814619101423, 50.779929176470894 ], [ 13.166179688170322, 50.785550172283571 ], [ 13.144701448832054, 50.791888019406294 ], [ 13.123769581114848, 50.798925636191001 ], [ 13.103440794152281, 50.806644046154624 ], [ 13.083770249899422, 50.81502242663769 ], [ 13.064811418065442, 50.824038162305705 ], [ 13.046615934505626, 50.833666903384845 ], [ 13.029233463405241, 50.84388262851099 ], [ 13.012711563589809, 50.854657712061083 ], [ 12.997095559297863, 50.86596299582439 ], [ 12.982428415753576, 50.87776786485982 ], [ 12.968750619876888, 50.89004032737499 ], [ 12.956100066468586, 50.902747098451023 ], [ 12.944511950206843, 50.915853687426292 ], [ 12.93401866378905, 50.929324488741237 ], [ 12.924649702549999, 50.943122876035467 ], [ 12.916431575882223, 50.957211299277581 ], [ 12.909387725778769, 50.971551384697477 ], [ 12.903538452810734, 50.986104037280796 ], [ 12.898900849842647, 51.000829545574774 ], [ 12.895488743778008, 51.01568768854505 ], [ 12.89331264561404, 51.030637844214013 ], [ 12.892379709070264, 51.045639099801782 ], [ 12.892693698038309, 51.060650363082935 ], [ 12.894254963081796, 51.075630474664209 ], [ 12.897060427193964, 51.09053832088096 ], [ 12.901103580997674, 51.105332947004491 ], [ 12.906374487547312, 51.119973670445496 ], [ 12.912859796864781, 51.134420193635286 ], [ 12.920542770312482, 51.148632716261901 ], [ 12.929403314875275, 51.162572046535331 ], [ 12.939418027389936, 51.17619971115468 ], [ 12.950560248726473, 51.189478063648743 ], [ 12.962800127888896, 51.202370390762596 ], [ 12.976104695965752, 51.214841016563639 ], [ 12.990437949821986, 51.226855403944519 ], [ 13.005760945383665, 51.238380253203324 ], [ 13.022031900327159, 51.249383597387819 ], [ 13.039206305943177, 51.259834894097281 ], [ 13.057237047905415, 51.269705113443152 ], [ 13.076074535632623, 51.278966821880054 ], [ 13.095666839892512, 51.287594261628826 ], [ 13.115959838256741, 51.295563425426415 ], [ 13.136897367977472, 51.302852126349876 ], [ 13.158421385818876, 51.309440062477606 ], [ 13.180472134342317, 51.315308876166021 ], [ 13.202988314109888, 51.320442207737955 ], [ 13.225907261240794, 51.324825743395962 ], [ 13.249165129726295, 51.328447257194497 ], [ 13.272697077883864, 51.331296646923491 ], [ 13.296437458308805, 51.33336596377783 ], [ 13.320320010662492, 51.334649435708272 ], [ 13.344278056621196, 51.335143484371478 ], [ 13.368244696297365, 51.334846735619749 ], [ 13.392153005437454, 51.333760023493376 ], [ 13.415936232695945, 51.331886387702639 ], [ 13.439527996285037, 51.32923106460823 ], [ 13.46286247930299, 51.325801471733634 ], [ 13.485874623051467, 51.321607185864401 ], [ 13.50850031766347, 51.316659914813251 ], [ 13.530676589378292, 51.310973462950805 ], [ 13.552341783818266, 51.304563690624576 ], [ 13.573435744643783, 51.297448467609044 ], [ 13.593899986987974, 51.289647620749697 ], [ 13.613677865100211, 51.281182875984108 ], [ 13.632714733657956, 51.272077794940067 ], [ 13.650958102239359, 51.262357706329396 ], [ 13.668357782483787, 51.252049632371104 ], [ 13.68486602750432, 51.24118221049298 ], [ 13.70043766315422, 51.229785610574524 ], [ 13.715030210788555, 51.217891448005645 ], [ 13.728604001202617, 51.205532692848053 ], [ 13.741122279469113, 51.192743575394381 ], [ 13.752551300436879, 51.179559488429653 ], [ 13.762860414694906, 51.166016886506121 ], [ 13.77202214484541, 51.152153182548453 ], [ 13.780012251969803, 51.138006642110426 ], [ 13.786809792209858, 51.123616275607603 ], [ 13.792397163424228, 51.109021728851992 ], [ 13.796760141916927, 51.094263172215577 ], [ 13.799887909268891, 51.079381188749053 ], [ 13.801773069337335, 51.064416661580168 ], [ 13.802411655518524, 51.04941066091375 ], [ 13.801803128399477, 51.034404330951617 ] ] ] } },
{ "type": "Feature", "properties": { "source": "https://simplemaps.com", "name": "Bayern", "id": "DEBY", "join_name": "bayern", "Population": 13212677, "pop": 13212677 }, "geometry": { "type": "Polygon", "coordinates": [ [ [ 12.205660678390911, 48.923613669470235 ], [ 12.203377359628709, 48.896516277437279 ], [ 12.198951219630599, 48.869535237655938 ], [ 12.192397823404491, 48.842744241042745 ], [ 12.183738457914952, 48.816216341180493 ], [ 12.17300003807936, 48.790023758591815 ], [ 12.160214999122626, 48.764237688486915 ], [ 12.14542117593202, 48.738928112441876 ], [ 12.128661670061442, 48.714163614442555 ], [ 12.109984705038281, 48.690011201706973 ], [ 12.089443470625616, 48.666536130676512 ], [ 12.067095956687941, 48.643801738545051 ], [ 12.043004777301631, 48.621869280672612 ], [ 12.017236985740256, 48.600797774209035 ], [ 11.989863880952708, 48.580643848232285 ], [ 11.960960806136367, 48.561461600684837 ], [ 11.930606939991518, 48.543302462372417 ], [ 11.898885081225131, 48.526215068268776 ], [ 11.86588142685325, 48.510245136352182 ], [ 11.831685344832248, 48.495435354180799 ], [ 11.79638914152968, 48.481825273395728 ], [ 11.760087824525856, 48.469451212324515 ], [ 11.722878861219078, 48.458346166840577 ], [ 11.684861933688728, 48.448539729618389 ], [ 11.64613869025357, 48.440058017908839 ], [ 11.606812494146491, 48.43292360994441 ], [ 11.566988169712655, 48.42715549006904 ], [ 11.526771746524538, 48.422769002674102 ], [ 11.486270201796479, 48.419775815007661 ], [ 11.445591201471723, 48.418183888911294 ], [ 11.404842840347483, 48.417997461525566 ], [ 11.364133381598245, 48.419217034992108 ], [ 11.323570996053999, 48.421839375167991 ], [ 11.283263501588999, 48.425857519354722 ], [ 11.243318102977652, 48.431260793032081 ], [ 11.203841132577011, 48.438034835574022 ], [ 11.164937792200737, 48.446161634910673 ], [ 11.12671189655655, 48.45561957108788 ], [ 11.089265618628271, 48.466383468662194 ], [ 11.052699237394988, 48.478424657855143 ], [ 11.017110888292125, 48.491711044377531 ], [ 10.982596316834218, 48.506207187818866 ], [ 10.949248635834659, 48.521874388483312 ], [ 10.917158086674934, 48.538670782537224 ], [ 10.886411805093685, 48.556551445317801 ], [ 10.857093591985286, 48.57546850263595 ], [ 10.829283689716437, 48.595371249888814 ], [ 10.803058564489046, 48.616206278780403 ], [ 10.778490695297277, 48.637917611429806 ], [ 10.755648370045227, 48.660446841627689 ], [ 10.734595489410195, 48.683733282982487 ], [ 10.715391379053479, 48.707714123676986 ], [ 10.698090610795679, 48.732324587536105 ], [ 10.682742833387563, 48.757498101084742 ], [ 10.669392613517836, 48.783166466253753 ], [ 10.658079287708146, 48.80926003836948 ], [ 10.648836825749967, 48.835707909041005 ], [ 10.641693706339783, 48.862438093536333 ], [ 10.63667280556607, 48.889377722216693 ], [ 10.633791298894359, 48.916453235576171 ], [ 10.633060577284917, 48.94359058241205 ], [ 10.634486178059875, 48.970715420629375 ], [ 10.638067731114502, 48.997753320163284 ], [ 10.643798921038561, 49.024629967481893 ], [ 10.651667465679571, 49.051271371114204 ], [ 10.661655111638863, 49.077604067629423 ], [ 10.673737647145273, 49.103555327477991 ], [ 10.687884932697827, 49.129053360089678 ], [ 10.704060949809881, 49.154027517611958 ], [ 10.72222386812213, 49.178408496660296 ], [ 10.742326131080565, 49.202128537444558 ], [ 10.764314560299548, 49.225121619629107 ], [ 10.788130478647737, 49.247323654281224 ], [ 10.813709852009225, 49.268672671262557 ], [ 10.840983449580998, 49.2891090014203 ], [ 10.869877022474817, 49.308575452941447 ], [ 10.900311500294759, 49.327017481242073 ], [ 10.932203205263274, 49.344383351776841 ], [ 10.965464083369664, 49.360624295169423 ], [ 11.000001951914996, 49.375694654084405 ], [ 11.035720762729124, 49.389552021284238 ], [ 11.072520880239027, 49.402157368341278 ], [ 11.110299373473318, 49.413475164504817 ], [ 11.148950320998379, 49.423473485256153 ], [ 11.188365127696288, 49.432124110120782 ], [ 11.228432852215622, 49.439402609346402 ], [ 11.269040543853446, 49.445288419096627 ], [ 11.310073587562538, 49.449764904855364 ], [ 11.351416055720849, 49.452819412782453 ], [ 11.392951065253127, 49.454443308810305 ], [ 11.434561138656795, 49.454632005320484 ], [ 11.476128567456316, 49.453384975290618 ], [ 11.51753577659337, 49.450705753853512 ], [ 11.558665688253313, 49.446601927263032 ], [ 11.599402083632627, 49.441085109312951 ], [ 11.639629961167026, 49.434170905307646 ], [ 11.679235889765106, 49.425878863733949 ], [ 11.71810835562794, 49.416232415834351 ], [ 11.756138101280513, 49.405258803329573 ], [ 11.79321845549496, 49.392988994586126 ], [ 11.829245652849123, 49.379457589568723 ], [ 11.864119141734173, 49.364702713959858 ], [ 11.897741879703133, 49.348765902868649 ], [ 11.930020615135629, 49.33169197458777 ], [ 11.960866154283476, 49.313528894891121 ], [ 11.990193612854018, 49.294327632394889 ], [ 12.017922651384744, 49.274142005532774 ], [ 12.04397769376069, 49.253028521718726 ], [ 12.06828812832506, 49.231046209291648 ], [ 12.090788491133337, 49.208256442852814 ], [ 12.111418630999349, 49.184722762620069 ], [ 12.130123856078495, 49.160510688433142 ], [ 12.146855061828179, 49.135687529050159 ], [ 12.161568840275802, 49.1103221873799 ], [ 12.174227570612517, 49.084484962293537 ], [ 12.184799491212875, 49.05824734765784 ], [ 12.193258753258611, 49.031681829225889 ], [ 12.199585456216544, 49.004861680013853 ], [ 12.203765665487127, 48.977860754782043 ], [ 12.205791412600506, 48.95075328422616 ], [ 12.205660678390911, 48.923613669470235 ] ] ] } },
{ "type": "Feature", "properties": { "source": "https://simplemaps.com", "name": "Rheinland-Pfalz", "id": "DERP", "join_name": "rheinlandpfalz", "Population": 4127366, "pop": 4127366 }, "geometry": { "type": "Polygon", "coordinates": [ [ [ 7.896834500231276, 49.912993352669531 ], [ 7.896883743127908, 49.897829803622557 ], [ 7.895704759440797, 49.88268500075241 ], [ 7.893301935991274, 49.867600420622345 ], [ 7.889682994392952, 49.852617336017282 ], [ 7.884858957536543, 49.83777670368967 ], [ 7.878844107419861, 49.82311905338188 ], [ 7.871655934566055, 49.808684378413062 ], [ 7.863315079289737, 49.79451202811115 ], [ 7.853845265084874, 49.780640602360478 ], [ 7.84327322442121, 49.767107848527331 ], [ 7.831628617246534, 49.753950561014413 ], [ 7.818943942501593, 49.74120448368695 ], [ 7.805254442961622, 49.728904215400746 ], [ 7.790598003725042, 49.717083118853544 ], [ 7.775015044674083, 49.705773232968959 ], [ 7.758548407236138, 49.695005189011944 ], [ 7.741243235776509, 49.684808130623551 ], [ 7.723146853955162, 49.675209637951184 ], [ 7.704308636380123, 49.66623565604008 ], [ 7.684779875890427, 49.657910427639443 ], [ 7.664613646800461, 49.650256430566763 ], [ 7.643864664436333, 49.643294319761402 ], [ 7.622589141293389, 49.637042874148072 ], [ 7.600844640141773, 49.631518948419711 ], [ 7.578689924405258, 49.626737429837718 ], [ 7.556184806135986, 49.622711200137061 ], [ 7.533389991906071, 49.619451102612544 ], [ 7.51036692693452, 49.616965914451541 ], [ 7.487177637766536, 49.615262324367997 ], [ 7.463884573820201, 49.614344915581441 ], [ 7.440550448114469, 49.614216154174201 ], [ 7.417238077491199, 49.614876382849189 ], [ 7.39401022264328, 49.616323820100042 ], [ 7.370929428260588, 49.618554564794884 ], [ 7.348057863605467, 49.621562606164005 ], [ 7.325457163829939, 49.625339839171502 ], [ 7.303188272347384, 49.629876085239871 ], [ 7.281311284572848, 49.635159118286516 ], [ 7.259885293347046, 49.641174696019391 ], [ 7.238968236361245, 49.647906596429472 ], [ 7.218616745901586, 49.655336659406068 ], [ 7.198886001233732, 49.663444833390379 ], [ 7.179829583950402, 49.672209226972164 ], [ 7.161499336606595, 49.681606165322812 ], [ 7.143945224969011, 49.691610251347804 ], [ 7.127215204207859, 49.702194431429866 ], [ 7.111355089360694, 49.713330065623595 ], [ 7.096408430398511, 49.724987002150904 ], [ 7.082416392225103, 49.737133656035461 ], [ 7.069417639939878, 49.749737091703793 ], [ 7.057448229693675, 49.762763109368606 ], [ 7.046541505464613, 49.776176335000088 ], [ 7.036728002078382, 49.789940313679111 ], [ 7.028035354792621, 49.80401760611597 ], [ 7.020488215759922, 49.818369888107398 ], [ 7.014108177676593, 49.832958052694352 ], [ 7.008913704916172, 49.847742314773164 ], [ 7.004920072436219, 49.86268231790207 ], [ 7.002139312735212, 49.877737243036357 ], [ 7.000580171122634, 49.892865918916243 ], [ 7.000248069549672, 49.90802693382259 ], [ 7.001145079230513, 49.923178748407963 ], [ 7.003269902264636, 49.938279809302877 ], [ 7.006617862448992, 49.953288663190655 ], [ 7.011180905445368, 49.968164071037791 ], [ 7.016947608442798, 49.982865122162181 ], [ 7.023903199427268, 49.997351347816817 ], [ 7.032029586141673, 50.01158283396321 ], [ 7.041305394787759, 50.025520332906872 ], [ 7.051706018488881, 50.039125373465282 ], [ 7.063203675498072, 50.052360369339461 ], [ 7.075767477099917, 50.065188725360052 ], [ 7.089363505117914, 50.077574941282514 ], [ 7.103954898900675, 50.089484712808549 ], [ 7.119501951621779, 50.100885029515709 ], [ 7.135962215688378, 50.111744269384168 ], [ 7.153290617014393, 50.122032289615682 ], [ 7.171439577874064, 50.131720513450233 ], [ 7.190359148012666, 50.140782012694359 ], [ 7.2099971436521, 50.149191585687937 ], [ 7.230299293991407, 50.156925830448309 ], [ 7.25120939476551, 50.16396321274518 ], [ 7.272669468390224, 50.170284128873988 ], [ 7.294619930188446, 50.175870962913777 ], [ 7.316999760160858, 50.180708138270973 ], [ 7.339746679735894, 50.18478216333115 ], [ 7.362797332907125, 50.188081671058612 ], [ 7.386087471143202, 50.190597452405633 ], [ 7.409552141434791, 50.192322483413257 ], [ 7.43312587682631, 50.193251945907846 ], [ 7.456742888766361, 50.193383241720056 ], [ 7.480337260601008, 50.192716000375178 ], [ 7.503843141527556, 50.191252080227471 ], [ 7.527194940323957, 50.188995563033799 ], [ 7.55032751817017, 50.185952741985403 ], [ 7.573176379882472, 50.182132103239809 ], [ 7.59567786289074, 50.177544301017406 ], [ 7.617769323300402, 50.17220212635042 ], [ 7.639389318397003, 50.166120469593388 ], [ 7.660477784969951, 50.159316276826452 ], [ 7.680976212854625, 50.151808500302714 ], [ 7.700827813116852, 50.143618043111786 ], [ 7.719977680332135, 50.134767698249817 ], [ 7.73837294844204, 50.125282082305326 ], [ 7.755962939703022, 50.115187563985913 ], [ 7.772699306277533, 50.104512187728055 ], [ 7.788536164053206, 50.093285592645877 ], [ 7.803430218313838, 50.081538927088374 ], [ 7.817340880923938, 50.069304759086933 ], [ 7.830230378728362, 50.056616982985396 ], [ 7.842063852907707, 50.043510722554373 ], [ 7.852809449070413, 50.030022230899618 ], [ 7.862438397901667, 50.016188787480985 ], [ 7.870925086228797, 50.002048592563881 ], [ 7.878247118400996, 49.987640659428834 ], [ 7.884385367919029, 49.97300470466822 ], [ 7.889324019286858, 49.958181036899973 ], [ 7.893050600092304, 49.943210444228967 ], [ 7.895556003357426, 49.928134080785611 ], [ 7.896834500231276, 49.912993352669531 ] ] ] } },
{ "type": "Feature", "properties": { "source": "https://simplemaps.com", "name": "Saarland", "id": "DESL", "join_name": "saarland", "Population": 1013094, "pop": 1013094 }, "geometry": { "type": "Polygon", "coordinates": [ [ [ 7.178472732994949, 49.389763839184432 ], [ 7.178605614380197, 49.382250850696401 ], [ 7.178136183307338, 49.374743346168373 ], [ 7.177066003239476, 49.367261896895698 ], [ 7.17539828036555, 49.359826993347617 ], [ 7.173137851831973, 49.352458989184584 ], [ 7.170291169584215, 49.345178045751119 ], [ 7.166866279894116, 49.338004077193212 ], [ 7.162872798659094, 49.330956696346377 ], [ 7.158321882569308, 49.324055161537146 ], [ 7.1532261962483, 49.317318324437842 ], [ 7.147599875481407, 49.310764579110213 ], [ 7.141458486654495, 49.30441181236985 ], [ 7.134818982533213, 49.298277355598564 ], [ 7.127699654520185, 49.292377938128176 ], [ 7.120120081534184, 49.286729642312892 ], [ 7.112101075661245, 49.281347860404331 ], [ 7.103664624733643, 49.276247253336201 ], [ 7.094833831997303, 49.271441711521526 ], [ 7.085632853033299, 49.266944317759041 ], [ 7.076086830103043, 49.26276731234001 ], [ 7.066221824090617, 49.258922060440639 ], [ 7.056064744219189, 49.255419021879263 ], [ 7.045643275721385, 49.252267723311626 ], [ 7.034985805646184, 49.249476732931221 ], [ 7.02412134698733, 49.24705363773495 ], [ 7.013079461320199, 49.245005023409043 ], [ 7.001890180135813, 49.243336456882595 ], [ 6.990583925062394, 49.242052471590249 ], [ 6.979191427165638, 49.241156555478987 ], [ 6.967743645520424, 49.240651141787176 ], [ 6.956271685246974, 49.240537602617373 ], [ 6.944806715205279, 49.240816245318435 ], [ 6.933379885541868, 49.241486311684739 ], [ 6.922022245283098, 49.242545979974665 ], [ 6.910764660169158, 49.243992369743239 ], [ 6.899637730922465, 49.245821549477512 ], [ 6.888671712144033, 49.248028547016467 ], [ 6.877896432030277, 49.250607362730534 ], [ 6.867341213102026, 49.253550985429747 ], [ 6.857034794136379, 49.256851410962156 ], [ 6.847005253490507, 49.260499663458489 ], [ 6.837279934004948, 49.26448581917208 ], [ 6.827885369672007, 49.26879903285689 ], [ 6.818847214252608, 49.273427566620072 ], [ 6.810190172022463, 49.278358821179438 ], [ 6.80193793082559, 49.283579369449917 ], [ 6.794113097609817, 49.289074992377053 ], [ 6.786737136615652, 49.294830716929994 ], [ 6.779830310385505, 49.300830856160097 ], [ 6.773411623756221, 49.307059051226211 ], [ 6.767498770992752, 49.313498315281898 ], [ 6.762108086215582, 49.320131079114553 ], [ 6.757254497268801, 49.326939238421652 ], [ 6.752951483169253, 49.333904202603641 ], [ 6.749211035270504, 49.341006944949541 ], [ 6.746043622267929, 49.348228054085482 ], [ 6.743458159163395, 49.355547786553572 ], [ 6.741461980299548, 49.362946120383363 ], [ 6.740060816564577, 49.37040280951571 ], [ 6.739258776859026, 49.377897438934738 ], [ 6.739058333905862, 49.385409480360863 ], [ 6.739460314474472, 49.392918348355479 ], [ 6.740463894078013, 49.400403456685623 ], [ 6.742066596191886, 49.407844274794471 ], [ 6.744264296028809, 49.41522038422336 ], [ 6.747051228893434, 49.422511534828601 ], [ 6.750420003126188, 49.429697700636858 ], [ 6.754361617632625, 49.43675913518215 ], [ 6.758865483980798, 49.443676426168103 ], [ 6.763919453034833, 49.45043054929998 ], [ 6.769509846078704, 49.457002921132009 ], [ 6.775621490369478, 49.463375450777733 ], [ 6.782237759044732, 49.469530590333129 ], [ 6.789340615294005, 49.475451383865128 ], [ 6.796910660689401, 49.481121514821488 ], [ 6.804927187555966, 49.486525351721752 ], [ 6.8133682352477, 49.491647991993545 ], [ 6.822210650181152, 49.496475303822677 ], [ 6.831430149464301, 49.500993965891738 ], [ 6.841001387945173, 49.505191504886476 ], [ 6.850898028491445, 49.509056330656762 ], [ 6.861092815299848, 49.512577768924224 ], [ 6.871557650022388, 49.515746091436931 ], [ 6.882263670485183, 49.518552543478116 ], [ 6.893181331765414, 49.520989368644074 ], [ 6.904280489382458, 49.523049830814799 ], [ 6.91553048435054, 49.524728233248759 ], [ 6.926900229832651, 49.526019934742635 ], [ 6.93835829912914, 49.526921362805552 ], [ 6.949873014728367, 49.527430023806495 ], [ 6.96141253814289, 49.527544510063088 ], [ 6.972944960251043, 49.527264503849615 ], [ 6.984438391861763, 49.526590778311366 ], [ 6.995861054219536, 49.525525195282512 ], [ 7.007181369166528, 49.524070700014043 ], [ 7.018368048680532, 49.522231312828268 ], [ 7.029390183509626, 49.520012117725827 ], [ 7.040217330628487, 49.517419247980428 ], [ 7.050819599245995, 49.514459868766387 ], [ 7.061167735099667, 49.511142156872907 ], [ 7.071233202779585, 49.507475277567572 ], [ 7.080988265832389, 49.503469358681293 ], [ 7.090406064404892, 49.499135461993937 ], [ 7.099460690196734, 49.494485552009223 ], [ 7.108127258502141, 49.489532462214314 ], [ 7.116381977132233, 49.484289858927262 ], [ 7.124202212021664, 49.478772202842279 ], [ 7.131566549335731, 49.472994708389351 ], [ 7.138454853907779, 49.466973301030833 ], [ 7.144848323850049, 49.460724572623036 ], [ 7.150729541195496, 49.454265734976175 ], [ 7.156082518442371, 49.447614571750556 ], [ 7.160892740887895, 49.440789388831277 ], [ 7.165147204652211, 49.433808963326619 ], [ 7.168834450308527, 49.426692491339551 ], [ 7.171944592050167, 49.419459534663361 ], [ 7.174469342339899, 49.412129966555128 ], [ 7.176402032001518, 49.404723916742213 ], [ 7.177737625728067, 49.397261715818111 ], [ 7.178472732994949, 49.389763839184432 ] ] ] } },
{ "type": "Feature", "properties": { "source": "https://simplemaps.com", "name": "Schleswig-Holstein", "id": "DESH", "join_name": "schleswigholstein", "Population": 2956360, "pop": 2956360 }, "geometry": { "type": "Polygon", "coordinates": [ [ [ 10.259959798681875, 54.170402806295058 ], [ 10.259308247288732, 54.157582367773855 ], [ 10.257515622799282, 54.14479946322075 ], [ 10.254587874227454, 54.132089079541537 ], [ 10.250534036719639, 54.119485973916767 ], [ 10.245366195822454, 54.107024579476068 ], [ 10.239099443820036, 54.094738912185065 ], [ 10.231751828372939, 54.082662479185444 ], [ 10.22334429370439, 54.070828188820563 ], [ 10.2139006145928, 54.059268262572246 ], [ 10.203447323440225, 54.048014149125891 ], [ 10.19201363069589, 54.037096440773048 ], [ 10.179631338922203, 54.026544792351423 ], [ 10.166334750796736, 54.01638784291432 ], [ 10.152160571349334, 54.006653140311577 ], [ 10.137147804737323, 53.997367068855787 ], [ 10.121337645865051, 53.988554780237514 ], [ 10.104773367155691, 53.980240127844326 ], [ 10.087500200784831, 53.972445604628945 ], [ 10.069565216685485, 53.965192284662272 ], [ 10.051017196634346, 53.958499768497504 ], [ 10.031906504727948, 53.952386132462117 ], [ 10.012284954557062, 53.946867881985092 ], [ 9.992205673385387, 53.941959909057132 ], [ 9.971722963638006, 53.937675453912313 ], [ 9.950892162002397, 53.934026071009995 ], [ 9.929769496443955, 53.931021599386682 ], [ 9.908411941435702, 53.92867013743831 ], [ 9.886877071700475, 53.926978022183356 ], [ 9.865222914762716, 53.925949813049293 ], [ 9.843507802605346, 53.925588280214207 ], [ 9.821790222726737, 53.925894397527053 ], [ 9.800128668891789, 53.926867340020955 ], [ 9.778581491871048, 53.928504486024096 ], [ 9.757206750461657, 53.930801423864111 ], [ 9.736062063084196, 53.933751963152559 ], [ 9.715204460250261, 53.937348150627024 ], [ 9.694690238196214, 53.941580290518807 ], [ 9.674574813980032, 53.94643696940539 ], [ 9.654912582339383, 53.951905085497337 ], [ 9.635756774610478, 53.957969882300127 ], [ 9.617159320009343, 53.964614986581914 ], [ 9.599170709578205, 53.971822450569263 ], [ 9.581839863102164, 53.979572798282888 ], [ 9.565213999302095, 53.987845075916589 ], [ 9.549338509611841, 53.996616906152681 ], [ 9.534256835848261, 54.005864546298184 ], [ 9.520010352083823, 54.01556295011585 ], [ 9.506638251031275, 54.025685833215398 ], [ 9.494177435249933, 54.036205741860456 ], [ 9.482662413481547, 54.047094125036985 ], [ 9.472125202422065, 54.058321409620369 ], [ 9.462595234232564, 54.069857078468246 ], [ 9.454099270088717, 54.081669751257557 ], [ 9.446661320062741, 54.093727267874911 ], [ 9.440302569625809, 54.105996774160886 ], [ 9.435041313050622, 54.118444809799783 ], [ 9.430892893984723, 54.13103739813856 ], [ 9.42786965345431, 54.143740137710097 ], [ 9.425980885545441, 54.15651829522885 ], [ 9.425232800995929, 54.169336899819029 ], [ 9.425628498914344, 54.182160838229244 ], [ 9.427167946825488, 54.194954950780883 ], [ 9.429847969221521, 54.207684127791737 ], [ 9.433662244776896, 54.220313406211751 ], [ 9.438601312361328, 54.232808066202708 ], [ 9.444652585960847, 54.245133727390368 ], [ 9.45180037858923, 54.257256444514766 ], [ 9.460025935244323, 54.269142802201785 ], [ 9.469307474933469, 54.280760008578575 ], [ 9.479620241760852, 54.292075987454716 ], [ 9.490936565037019, 54.30305946879178 ], [ 9.503225928336578, 54.313680077186056 ], [ 9.516455047395715, 54.323908418091342 ], [ 9.530587956705368, 54.333716161513195 ], [ 9.545586104619856, 54.343076122910631 ], [ 9.561408456764362, 54.35196234104734 ], [ 9.578011607488421, 54.360350152541912 ], [ 9.595349899076044, 54.368216262874313 ], [ 9.613375548387761, 54.375538813616053 ], [ 9.632038780574446, 54.382297445661152 ], [ 9.651287969469458, 54.388473358246877 ], [ 9.671069784232232, 54.394049363566154 ], [ 9.691329341786208, 54.399009936786307 ], [ 9.712010364563991, 54.403341261304021 ], [ 9.733055343046221, 54.40703126908123 ], [ 9.754405702555255, 54.410069675922998 ], [ 9.7760019737429, 54.412448011575556 ], [ 9.797783966191892, 54.414159644539431 ], [ 9.819690944533992, 54.41519980151179 ], [ 9.84166180647463, 54.41556558138948 ], [ 9.863635262103221, 54.415255963784091 ], [ 9.885550013861817, 54.414271812019066 ], [ 9.907344936540888, 54.412615870598167 ], [ 9.928959256670963, 54.410292757154473 ], [ 9.950332730682282, 54.407308948907797 ], [ 9.97140582121088, 54.403672763678045 ], [ 9.992119870939977, 54.399394335520867 ], [ 10.012417273378272, 54.394485585070512 ], [ 10.032241639993227, 54.388960184692827 ], [ 10.051537963136793, 54.382833518569051 ], [ 10.070252774222604, 54.376122637847907 ], [ 10.088334296638868, 54.368846211019914 ], [ 10.105732592907358, 54.361024469682597 ], [ 10.122399705628794, 54.352679149880913 ], [ 10.138289791784935, 54.34383342921992 ], [ 10.153359250001024, 54.334511859959491 ], [ 10.167566840405426, 54.324740298313095 ], [ 10.180873796758673, 54.31454583018261 ], [ 10.193243930559399, 54.303956693570882 ], [ 10.204643726871137, 54.293002197922021 ], [ 10.215042431650236, 54.28171264064693 ], [ 10.224412130391517, 54.270119221097431 ], [ 10.232727817944404, 54.258253952257547 ], [ 10.239967459388119, 54.246149570424564 ], [ 10.246112041888962, 54.233839443154949 ], [ 10.251145617497043, 54.221357475752676 ], [ 10.255055336872557, 54.208738016577747 ], [ 10.257831473963083, 54.196015761452799 ], [ 10.259467441683995, 54.183225657444588 ], [ 10.259959798681875, 54.170402806295058 ] ] ] } },
{ "type": "Feature", "properties": { "source": "https://simplemaps.com", "name": "Niedersachsen", "id": "DENI", "join_name": "niedersachsen", "Population": 8006312, "pop": 8006312 }, "geometry": { "type": "Polygon", "coordinates": [ [ [ 9.823701965891674, 52.762677491952367 ], [ 9.822876462104052, 52.741574977492498 ], [ 9.820234106216203, 52.720527538097528 ], [ 9.815784731693617, 52.699592743833826 ], [ 9.809543063372614, 52.678827775598812 ], [ 9.801528649780703, 52.658289270801191 ], [ 9.791765783347312, 52.638033171368129 ], [ 9.780283408996974, 52.618114574455774 ], [ 9.767115021630964, 52.598587586223715 ], [ 9.752298553013071, 52.579505179017794 ], [ 9.735876248581834, 52.56091905229021 ], [ 9.717894534715015, 52.542879497568798 ], [ 9.698403876972048, 52.525435267771265 ], [ 9.677458629837989, 52.508633451144057 ], [ 9.655116878488055, 52.492519350088834 ], [ 9.631440273084785, 52.477136365123691 ], [ 9.606493856111475, 52.462525884210329 ], [ 9.580345883236111, 52.448727177662803 ], [ 9.553067638188242, 52.435777298837969 ], [ 9.524733242120195, 52.423710990793019 ], [ 9.495419457911124, 52.412560599080507 ], [ 9.465205489860001, 52.402355990837307 ], [ 9.434172779200534, 52.393124480309588 ], [ 9.402404795859033, 52.384890760942682 ], [ 9.369986826863393, 52.377676844151217 ], [ 9.337005761800427, 52.371502004871836 ], [ 9.303549875707441, 52.366382733988694 ], [ 9.269708609774659, 52.362332697708908 ], [ 9.235572350225709, 52.359362703953799 ], [ 9.201232205736446, 52.357480675818984 ], [ 9.166779783745675, 52.356691632145882 ], [ 9.132306966006624, 52.35699767523456 ], [ 9.097905683724647, 52.358397985717133 ], [ 9.063667692624669, 52.360888824599471 ], [ 9.029684348291408, 52.364463542467497 ], [ 8.996046382126751, 52.369112595843376 ], [ 8.962843678271103, 52.374823570665264 ], [ 8.930165051839579, 52.381581212852893 ], [ 8.898098028829901, 52.389367465910162 ], [ 8.866728628065069, 52.398161515503354 ], [ 8.836141145542705, 52.407939840942255 ], [ 8.806417941571683, 52.418676273479612 ], [ 8.77763923108747, 52.430342061330613 ], [ 8.749882877548194, 52.442905941302897 ], [ 8.723224190825952, 52.456334216913888 ], [ 8.697735729519634, 52.47059084285798 ], [ 8.673487108128532, 52.48563751567464 ], [ 8.650544809538451, 52.501433770451634 ], [ 8.628972003284987, 52.517937083385668 ], [ 8.608828370070027, 52.535102980005895 ], [ 8.590169933019663, 52.552885148852631 ], [ 8.573048896181673, 52.571235560386008 ], [ 8.5575134907698, 52.590104590885836 ], [ 8.543607829669964, 52.609441151086216 ], [ 8.531371770728892, 52.629192819273598 ], [ 8.520840789349103, 52.649305978559653 ], [ 8.512045860915405, 52.669725958025268 ], [ 8.505013353576059, 52.690397177414361 ], [ 8.499764931896722, 52.711263295041064 ], [ 8.496317471897225, 52.732267358557294 ], [ 8.494682987969187, 52.753351958212122 ], [ 8.494868572156584, 52.774459382219099 ], [ 8.49687634626167, 52.795531773833169 ], [ 8.500703427214361, 52.816511289724183 ], [ 8.506341906114697, 52.837340259221264 ], [ 8.513778841324886, 52.857961343989757 ], [ 8.522996265949883, 52.878317697690925 ], [ 8.533971210003221, 52.898353125165087 ], [ 8.546675737508021, 52.918012240669469 ], [ 8.56107699873219, 52.937240624695633 ], [ 8.577137297701386, 52.955984978885127 ], [ 8.594814175073751, 52.97419327855868 ], [ 8.614060506397598, 52.991814922372193 ], [ 8.634824615706782, 53.008800878613137 ], [ 8.657050404338632, 53.02510382765319 ], [ 8.680677494787881, 53.04067830007741 ], [ 8.705641389335987, 53.055480810017237 ], [ 8.731873643119512, 53.06946998322384 ], [ 8.759302051225898, 53.082606679429894 ], [ 8.787850849328072, 53.094854108561812 ], [ 8.817440927294028, 53.106177940381265 ], [ 8.847990055132986, 53.116546407153258 ], [ 8.879413120567582, 53.125930398960044 ], [ 8.911622377451394, 53.134303551302416 ], [ 8.944527704185331, 53.141642324657305 ], [ 8.978036871223884, 53.147926075686918 ], [ 9.012055816705189, 53.153137119825359 ], [ 9.046488929186536, 53.157260784999764 ], [ 9.081239336421225, 53.160285456276213 ], [ 9.116209199073296, 53.162202611255196 ], [ 9.151300008233598, 53.16300684607711 ], [ 9.186412885576138, 53.162695891934753 ], [ 9.221448884975487, 53.161270622027189 ], [ 9.256309294396551, 53.158735048927284 ], [ 9.290895936866022, 53.155096312372777 ], [ 9.3251114693409, 53.150364657529018 ], [ 9.358859678303508, 53.144553403808935 ], [ 9.392045770934208, 53.137678904372805 ], [ 9.424576660741792, 53.129760496466211 ], [ 9.456361246568388, 53.120820442790766 ], [ 9.487310683928195, 53.11088386413433 ], [ 9.517338647688975, 53.099978663521341 ], [ 9.546361585159875, 53.088135442173581 ], [ 9.574298958709532, 53.075387407600815 ], [ 9.601073477102361, 53.061770274167372 ], [ 9.626611314809606, 53.047322156505622 ], [ 9.650842318622651, 53.032083456169097 ], [ 9.673700200969961, 53.016096741938881 ], [ 9.695122719413719, 52.999406624213925 ], [ 9.715051841879012, 52.982059623931093 ], [ 9.733433897243989, 52.964104036474424 ], [ 9.75021971099558, 52.945589791042316 ], [ 9.765364725730139, 52.926568305950148 ], [ 9.778829106350972, 52.907092340351277 ], [ 9.790577829885704, 52.887215842862531 ], [ 9.800580759914498, 52.866993797581841 ], [ 9.808812705664558, 52.846482067984418 ], [ 9.815253465887785, 52.825737239181514 ], [ 9.819887857695878, 52.804816459020195 ], [ 9.822705730580068, 52.783777278497418 ], [ 9.823701965891674, 52.762677491952367 ] ] ] } },
{ "type": "Feature", "properties": { "source": "https://simplemaps.com", "name": "Nordrhein-Westfalen", "id": "DENW", "join_name": "nordrheinwestfalen", "Population": 18025987, "pop": 18025987 }, "geometry": { "type": "Polygon", "coordinates": [ [ [ 8.527703735052267, 51.48772143876927 ], [ 8.527396534369039, 51.456044134389593 ], [ 8.524437850400696, 51.424419986380173 ], [ 8.518841254392417, 51.392935483752531 ], [ 8.510627434653452, 51.36167655721426 ], [ 8.499824082309287, 51.330728348352991 ], [ 8.486465760160327, 51.300174982805544 ], [ 8.470593755572006, 51.270099347947045 ], [ 8.452255918324987, 51.24058287560468 ], [ 8.431506484350214, 51.21170533027118 ], [ 8.408405886263466, 51.183544603264274 ], [ 8.383020551598809, 51.156176513248788 ], [ 8.35542268961945, 51.129674613510296 ], [ 8.325690067559457, 51.104110006341486 ], [ 8.293905777121804, 51.079551164875909 ], [ 8.260157992026222, 51.05606376267766 ], [ 8.224539717367028, 51.033710511371339 ], [ 8.187148531505732, 51.012551006572558 ], [ 8.148086321186618, 50.992641582356868 ], [ 8.107459010526762, 50.974035174483355 ], [ 8.065376284495116, 50.956781192569117 ], [ 8.021951307458792, 50.940925401390913 ], [ 7.977300437339276, 50.926509811472641 ], [ 7.931542935887269, 50.913572579099664 ], [ 7.884800675552502, 50.90214791588506 ], [ 7.837197843394568, 50.892266007996881 ], [ 7.788860642452754, 50.883952945141864 ], [ 7.73991699096771, 50.877230659386306 ], [ 7.690496219825063, 50.872116873882639 ], [ 7.64072876857167, 50.868625061556898 ], [ 7.590745880338939, 50.866764413800794 ], [ 7.540679295994397, 50.866539819200653 ], [ 7.490660947833373, 50.867951852323614 ], [ 7.440822653116252, 50.870996772571424 ], [ 7.391295807754308, 50.875666533100059 ], [ 7.34221108044806, 50.881948799794095 ], [ 7.293698107586442, 50.889826980272339 ], [ 7.245885189223224, 50.899280262891409 ], [ 7.198898986458466, 50.910283665701755 ], [ 7.152864220567497, 50.922808095299715 ], [ 7.107903374238153, 50.936820415506411 ], [ 7.064136395297841, 50.952283525792325 ], [ 7.021680403336202, 50.969156449352461 ], [ 6.980649399655829, 50.987394430723789 ], [ 6.941153981012707, 51.006949042821297 ], [ 6.90330105763929, 51.02776830325373 ], [ 6.867193576076557, 51.049796799763634 ], [ 6.832930247375916, 51.072975824618482 ], [ 6.800605281267912, 51.097243517761562 ], [ 6.770308126931041, 51.122535018511684 ], [ 6.742123221030923, 51.148782625579585 ], [ 6.716129743736445, 51.175915965148093 ], [ 6.69240138345528, 51.203862166739377 ], [ 6.671006111065301, 51.232546046569276 ], [ 6.652005964450741, 51.261890298063626 ], [ 6.635456844181556, 51.291815689185107 ], [ 6.621408321200563, 51.322241266193465 ], [ 6.609903457405252, 51.35308456343283 ], [ 6.600978640028827, 51.384261818712794 ], [ 6.594663430736912, 51.415688193820621 ], [ 6.590980430362721, 51.447277999672302 ], [ 6.589945160202697, 51.478944925581779 ], [ 6.591565960786464, 51.510602272097358 ], [ 6.595843909019123, 51.542163186825661 ], [ 6.60277275456902, 51.573540902635138 ], [ 6.612338876340764, 51.604648977602714 ], [ 6.624521259830037, 51.635401536041464 ], [ 6.639291496103883, 51.665713509920849 ], [ 6.65661380308764, 51.695500879968677 ], [ 6.676445069766607, 51.724680915721507 ], [ 6.698734923827847, 51.753172413772027 ], [ 6.723425823174963, 51.780895933444782 ], [ 6.750453171646436, 51.807774029119422 ], [ 6.77974545915697, 51.833731478409454 ], [ 6.811224426361877, 51.858695505400085 ], [ 6.844805253817195, 51.882595998144431 ], [ 6.880396775474627, 51.905365719621557 ], [ 6.917901716210763, 51.926940511364812 ], [ 6.957216952946639, 51.94725948898072 ], [ 6.998233798766603, 51.96626522879474 ], [ 7.04083830929756, 51.983903944880687 ], [ 7.084911610461138, 52.000125655756726 ], [ 7.130330246565043, 52.014884340061649 ], [ 7.176966547556312, 52.028138080560268 ], [ 7.224689014121278, 52.039849195867575 ], [ 7.273362719185093, 52.049984359326388 ], [ 7.322849724240862, 52.058514704521478 ], [ 7.37300950882471, 52.065415916967865 ], [ 7.423699411351414, 52.070668311566415 ], [ 7.47477507943586, 52.074256895481426 ], [ 7.526090927750148, 52.076171416156889 ], [ 7.577500601406065, 52.076406394253901 ], [ 7.62885744280766, 52.074961141359175 ], [ 7.680014959890634, 52.071839762382233 ], [ 7.730827293653766, 52.067051142628955 ], [ 7.781149682892879, 52.060608919607503 ], [ 7.830838924070474, 52.052531439692274 ], [ 7.87975382429272, 52.042841699838611 ], [ 7.927755645420619, 52.031567274607596 ], [ 7.974708537412245, 52.018740228824242 ], [ 8.020479959077349, 52.004397016253563 ], [ 8.064941084523383, 51.988578364738046 ], [ 8.107967193681516, 51.971329148293691 ], [ 8.149438045421062, 51.95269824671437 ], [ 8.189238231889739, 51.93273839327918 ], [ 8.227257512853258, 51.911506011201418 ], [ 8.263391128949696, 51.889061039494038 ], [ 8.297540092919553, 51.865466748960337 ], [ 8.329611458020619, 51.840789549045482 ], [ 8.359518562985285, 51.815098786308269 ], [ 8.387181253025638, 51.788466535289785 ], [ 8.412526076536539, 51.760967382569099 ], [ 8.435486457288727, 51.732678204804891 ], [ 8.456002842039505, 51.703677941564528 ], [ 8.474022823618945, 51.674047363743568 ], [ 8.489501239671942, 51.643868838371787 ], [ 8.502400247350769, 51.613226090595703 ], [ 8.512689374358658, 51.582203963613637 ], [ 8.520345546841318, 51.550888177325511 ], [ 8.52535309470942, 51.51936508644107 ], [ 8.527703735052267, 51.48772143876927 ] ] ] } },
{ "type": "Feature", "properties": { "source": "https://simplemaps.com", "name": "Baden-Württemberg", "id": "DEBW", "join_name": "badenwürttemberg", "Population": 11238319, "pop": 11238319 }, "geometry": { "type": "Polygon", "coordinates": [ [ [ 9.769228229440264, 48.549817282470563 ], [ 9.768357528960729, 48.524788169606587 ], [ 9.765519358677755, 48.499823242955799 ], [ 9.76072440550487, 48.47499078212595 ], [ 9.753988650672946, 48.450358603536905 ], [ 9.745333295296533, 48.425993877545622 ], [ 9.734784672891358, 48.401962948382668 ], [ 9.722374149387738, 48.378331157343304 ], [ 9.708138011199063, 48.355162669656849 ], [ 9.692117341913265, 48.332520305438514 ], [ 9.674357888181449, 48.310465375108706 ], [ 9.654909915379502, 48.289057519644608 ], [ 9.633828053618, 48.268354556009776 ], [ 9.61117113467124, 48.248412328086928 ], [ 9.587002020390269, 48.229284563420741 ], [ 9.561387423155839, 48.21102273605738 ], [ 9.534397718917198, 48.193675935749212 ], [ 9.506106753350108, 48.177290743774321 ], [ 9.476591641655306, 48.16191111560255 ], [ 9.445932562503597, 48.147578270621885 ], [ 9.41421254662056, 48.13433058912225 ], [ 9.381517260487982, 48.122203516716382 ], [ 9.347934785625458, 48.111229476361927 ], [ 9.313555393900501, 48.101437788132181 ], [ 9.278471319301868, 48.092854596868719 ], [ 9.242776526597906, 48.085502807832739 ], [ 9.20656647728886, 48.07940203045893 ], [ 9.169937893251552, 48.074568530300049 ], [ 9.132988518464419, 48.071015189237592 ], [ 9.095816879192693, 48.068751474019983 ], [ 9.058522043006063, 48.06778341317596 ], [ 9.021203376996024, 48.068113582338569 ], [ 8.983960305555874, 48.069741098001302 ], [ 8.946892068084237, 48.072661619715753 ], [ 8.9100974769727, 48.076867360726524 ], [ 8.873674676238815, 48.082347107027104 ], [ 8.837720901169295, 48.089086244807007 ], [ 8.802332239342146, 48.097066796247198 ], [ 8.767603393403204, 48.106267463608532 ], [ 8.733627445979684, 48.116663681543393 ], [ 8.700495627123095, 48.128227677547969 ], [ 8.668297084683637, 48.140928540458326 ], [ 8.637118658030332, 48.154732296878798 ], [ 8.607044655543588, 48.16960199541726 ], [ 8.578156636320044, 48.185497798586113 ], [ 8.550533196544267, 48.202377082212706 ], [ 8.524249760995444, 48.22019454218686 ], [ 8.49937838017293, 48.238902308356685 ], [ 8.475987533537914, 48.258450065367185 ], [ 8.454141939383591, 48.278785180218669 ], [ 8.433902371859045, 48.299852836304211 ], [ 8.41532548568491, 48.32159617366753 ], [ 8.398463649109921, 48.343956435203467 ], [ 8.38336478566713, 48.366873118505012 ], [ 8.370072225295905, 48.390284133041163 ], [ 8.358624565401414, 48.414125962330537 ], [ 8.349055542425548, 48.43833383075637 ], [ 8.341393914503115, 48.462841874648319 ], [ 8.335663355772885, 48.487583317237544 ], [ 8.331882362906263, 48.512490647071836 ], [ 8.33006417440428, 48.537495799457972 ], [ 8.330216703198268, 48.562530340480961 ], [ 8.332342483069425, 48.587525653130129 ], [ 8.33643862937719, 48.61241312504589 ], [ 8.34249681455697, 48.637124337383867 ], [ 8.350503258812568, 48.66159125427766 ], [ 8.360438736388645, 48.685746412367486 ], [ 8.372278597763843, 48.709523109848767 ], [ 8.385992808054242, 48.73285559448405 ], [ 8.40154600186222, 48.755679250011802 ], [ 8.418897554745232, 48.777930780378071 ], [ 8.438001671414588, 48.799548391212298 ], [ 8.458807490704949, 48.820471967964828 ], [ 8.481259207282672, 48.8406432501232 ], [ 8.505296209984442, 48.860006000926788 ], [ 8.530853236598348, 48.87850617200332 ], [ 8.557860544817627, 48.896092062359088 ], [ 8.586244099014136, 48.912714471164065 ], [ 8.615925772393441, 48.928326843787794 ], [ 8.646823564009363, 48.942885410556819 ], [ 8.67885183003046, 48.956349317725227 ], [ 8.711921528568718, 48.968680750170776 ], [ 8.745940477298843, 48.979845045355511 ], [ 8.780813623019041, 48.989810798116963 ], [ 8.816443322229523, 48.998549955887398 ], [ 8.852729631734817, 49.006037903971666 ], [ 8.889570608211985, 49.01225354055007 ], [ 8.926862615627615, 49.01717934111069 ], [ 8.964500639335094, 49.020801412055569 ], [ 9.002378605638544, 49.023109533267203 ], [ 9.040389705573471, 49.024097189464278 ], [ 9.078426721625004, 49.023761590220865 ], [ 9.116382356085079, 49.022103678568037 ], [ 9.154149559738295, 49.019128128142754 ], [ 9.191621859563901, 49.014843328895147 ], [ 9.228693684148306, 49.009261361411419 ], [ 9.265260685517593, 49.002397959954735 ], [ 9.301220056124121, 48.994272464372109 ], [ 9.336470839753732, 48.984907761058544 ], [ 9.370914235160917, 48.974330213212674 ], [ 9.404453891287238, 48.962569580658872 ], [ 9.436996192974002, 48.949658929550196 ], [ 9.468450536141313, 48.93563453230324 ], [ 9.49872959147303, 48.920535758150827 ], [ 9.527749555719707, 48.904404954730879 ], [ 9.555430389807226, 48.887287321158936 ], [ 9.581696043019468, 48.869230773058973 ], [ 9.606474662604457, 48.850285800050742 ], [ 9.629698788238517, 48.830505316213277 ], [ 9.651305530866708, 48.809944504061342 ], [ 9.671236735523484, 48.788660652587652 ], [ 9.689439127821268, 48.766712989934568 ], [ 9.70586444387769, 48.744162511268861 ], [ 9.720469543532843, 48.721071802438985 ], [ 9.733216506786368, 48.697504859997508 ], [ 9.744072713458596, 48.673526908172583 ], [ 9.753010906151623, 48.649204213370318 ], [ 9.760009236652872, 48.624603896785459 ], [ 9.765051295986821, 48.599793745692182 ], [ 9.768126128377791, 48.574842023977595 ], [ 9.769228229440264, 48.549817282470563 ] ] ] } },
{ "type": "Feature", "properties": { "source": "https://simplemaps.com", "name": "Brandenburg", "id": "DEBB", "join_name": "brandenburg", "Population": 2555606, "pop": 2555606 }, "geometry": { "type": "Polygon", "coordinates": [ [ [ 13.948088854494939, 52.230634142278539 ], [ 13.946525996760689, 52.218748870408447 ], [ 13.943953318200515, 52.206929930504884 ], [ 13.940378653112955, 52.195209648260288 ], [ 13.935812553915788, 52.18362005453703 ], [ 13.930268254050649, 52.172192798633432 ], [ 13.923761623959807, 52.160959062847915 ], [ 13.916311120337603, 52.14994947855962 ], [ 13.907937728871929, 52.139194044038412 ], [ 13.898664900701853, 52.128722044189452 ], [ 13.888518482827735, 52.118561972430392 ], [ 13.877526642718507, 52.108741454891735 ], [ 13.86571978736848, 52.099287177122875 ], [ 13.853130477062281, 52.090224813477995 ], [ 13.839793334111862, 52.08157895934837 ], [ 13.825744946834236, 52.073373066398304 ], [ 13.811023769041658, 52.065629380953915 ], [ 13.795670015319422, 52.05836888568507 ], [ 13.779725552368129, 52.051611244711921 ], [ 13.763233786688984, 52.045374752258802 ], [ 13.746239548891909, 52.039676284968955 ], [ 13.728788974906623, 52.034531257985215 ], [ 13.710929384377325, 52.029953584891807 ], [ 13.692709156521511, 52.025955641604838 ], [ 13.674177603733419, 52.022548234288344 ], [ 13.655384843212113, 52.019740571365283 ], [ 13.636381666893891, 52.01754023968266 ], [ 13.617219409968287, 52.015953184882022 ], [ 13.597949818256408, 52.01498369601628 ], [ 13.578624914730169, 52.014634394446368 ], [ 13.559296865450575, 52.014906227040484 ], [ 13.540017845202931, 52.015798463691354 ], [ 13.520839903107115, 52.017308699156722 ], [ 13.50181482848086, 52.019432859219854 ], [ 13.482994017234208, 52.022165211157514 ], [ 13.464428339073876, 52.025498378494298 ], [ 13.446168005796467, 52.029423360012622 ], [ 13.428262440949988, 52.033929552978954 ], [ 13.410760151143926, 52.039004780537667 ], [ 13.393708599288461, 52.044635323214941 ], [ 13.377154080044132, 52.050805954465901 ], [ 13.361141597763609, 52.057499980189213 ], [ 13.34571474720758, 52.064699282123975 ], [ 13.330915597316958, 52.072384365035063 ], [ 13.316784578323301, 52.080534407583592 ], [ 13.303360372478979, 52.089127316770323 ], [ 13.290679808687432, 52.098139785830639 ], [ 13.278777761312691, 52.107547355450791 ], [ 13.267687053445083, 52.117324478166097 ], [ 13.25743836489722, 52.127444585793334 ], [ 13.248060145201215, 52.137880159739922 ], [ 13.239578531873182, 52.148602804024804 ], [ 13.232017274206253, 52.159583320837299 ], [ 13.225397662846721, 52.170791788451226 ], [ 13.219738465400567, 52.182197641304604 ], [ 13.215055868309108, 52.193769752046855 ], [ 13.211363425222496, 52.205476515347883 ], [ 13.208672012088948, 52.217285933256775 ], [ 13.206989789164719, 52.229165701890558 ], [ 13.206322170136366, 52.241083299227704 ], [ 13.206671798531229, 52.253006073774472 ], [ 13.208038531575584, 52.264901333867513 ], [ 13.210419431641542, 52.276736437371241 ], [ 13.213808765404396, 52.288478881523559 ], [ 13.218198010810861, 52.300096392681304 ], [ 13.223575871936534, 52.311557015712665 ], [ 13.229928301786959, 52.32282920278243 ], [ 13.237238533072034, 52.33388190127436 ], [ 13.245487116957079, 52.344684640594501 ], [ 13.254651969767094, 52.355207617599611 ], [ 13.264708427592451, 52.365421780395934 ], [ 13.27562930871545, 52.375298910255836 ], [ 13.287384983747742, 52.384811701403024 ], [ 13.299943453338596, 52.393933838420388 ], [ 13.313270433283808, 52.402640071040601 ], [ 13.327329446834378, 52.410906286084462 ], [ 13.342081923974362, 52.418709576319607 ], [ 13.357487307406611, 52.426028306019852 ], [ 13.373503164956126, 52.432842173014166 ], [ 13.390085308071859, 52.439132267024569 ], [ 13.407187916079705, 52.444881124102046 ], [ 13.424763665813099, 52.450072776982381 ], [ 13.442763866222025, 52.454692801194959 ], [ 13.461138597537596, 52.458728356771807 ], [ 13.479836854547219, 52.462168225417635 ], [ 13.498806693515393, 52.465002843016052 ], [ 13.517995382267163, 52.46722432736329 ], [ 13.537349552935467, 52.468826501035416 ], [ 13.556815356860419, 52.469804909311954 ], [ 13.576338621117593, 52.470156833095608 ], [ 13.595865006144289, 52.469881296784152 ], [ 13.615340163927247, 52.468979071068297 ], [ 13.634709896212355, 52.467452670646423 ], [ 13.653920312196924, 52.465306346864097 ], [ 13.672917985167901, 52.462546075304566 ], [ 13.691650107554596, 52.459179538372268 ], [ 13.710064643872791, 52.455216102929469 ], [ 13.72811048104785, 52.450666793062197 ], [ 13.745737575617452, 52.445544258068026 ], [ 13.762897097330455, 52.439862735774113 ], [ 13.779541568676091, 52.433638011308972 ], [ 13.795624999897793, 52.42688737146613 ], [ 13.811103019067932, 52.419629554812118 ], [ 13.825932996823191, 52.411884697703513 ], [ 13.840074165385916, 52.4036742763913 ], [ 13.853487731522941, 52.395021045401549 ], [ 13.866136983121663, 52.385948972392448 ], [ 13.877987389091315, 52.376483169697288 ], [ 13.889006692327092, 52.366649822772267 ], [ 13.899164995504744, 52.356476115775138 ], [ 13.908434839503082, 52.345990154508662 ], [ 13.916791274282637, 52.335220886967427 ], [ 13.924211922078486, 52.324198021733061 ], [ 13.930677032795353, 52.312951944465759 ], [ 13.936169531522495, 52.301513632743543 ], [ 13.940675058114543, 52.289914569502912 ], [ 13.944181998812656, 52.278186655335467 ], [ 13.946681509907132, 52.266362119896073 ], [ 13.948167533468993, 52.254473432676505 ], [ 13.948636805202549, 52.242553213398715 ], [ 13.948088854494939, 52.230634142278539 ] ] ] } },
{ "type": "Feature", "properties": { "source": "https://simplemaps.com", "name": "Mecklenburg-Vorpommern", "id": "DEMV", "join_name": "mecklenburgvorpommern", "Population": 1575819, "pop": 1575819 }, "geometry": { "type": "Polygon", "coordinates": [ [ [ 12.752369636787813, 53.710262312432313 ], [ 12.751350081326434, 53.700918459260585 ], [ 12.749508578851497, 53.691618803591467 ], [ 12.746850706408551, 53.682388796316815 ], [ 12.74338426172241, 53.67325368148618 ], [ 12.739119236254512, 53.664238427733459 ], [ 12.73406778250626, 53.65536766062462 ], [ 12.728244175714556, 53.646665596102267 ], [ 12.721664770097579, 53.638155975199567 ], [ 12.714347949819359, 53.629862000189625 ], [ 12.706314074851592, 53.621806272332243 ], [ 12.697585421919969, 53.614010731373362 ], [ 12.688186120730006, 53.606496596947515 ], [ 12.678142085674876, 53.599284312026789 ], [ 12.667480943233477, 53.592393488554031 ], [ 12.656231955273112, 53.58584285539095 ], [ 12.644425938475427, 53.579650208705651 ], [ 12.632095180109031, 53.573832364917024 ], [ 12.619273350375178, 53.568405116306188 ], [ 12.605995411556638, 53.56338318939892 ], [ 12.592297524201799, 53.558780206214841 ], [ 12.578216950578689, 53.554608648472907 ], [ 12.56379195563512, 53.550879824834411 ], [ 12.54906170570257, 53.547603841258329 ], [ 12.534066165182779, 53.544789574535656 ], [ 12.51884599145653, 53.542444649062382 ], [ 12.50344242825536, 53.540575416903259 ], [ 12.487897197736885, 53.539186941190437 ], [ 12.472252391505242, 53.538282982894536 ], [ 12.456550360818342, 53.537865990997147 ], [ 12.440833606223711, 53.537937096086999 ], [ 12.425144666864982, 53.538496107393684 ], [ 12.409526009701262, 53.539541513266094 ], [ 12.394019918881463, 53.541070485094544 ], [ 12.378668385515789, 53.543078884668098 ], [ 12.363512998086547, 53.545561274951325 ], [ 12.348594833740391, 53.548510934256434 ], [ 12.333954350703786, 53.551919873780349 ], [ 12.319631282063314, 53.555778858467207 ], [ 12.305664531152214, 53.560077431150546 ], [ 12.292092068783578, 53.564803939921134 ], [ 12.278950832570521, 53.569945568659179 ], [ 12.266276628572202, 53.575488370662008 ], [ 12.254104035503646, 53.581417305291154 ], [ 12.242466311745844, 53.587716277554946 ], [ 12.231395305390551, 53.594368180535746 ], [ 12.22092136755233, 53.601354940563688 ], [ 12.211073269177177, 53.608657565031137 ], [ 12.201878121574444, 53.616256192735733 ], [ 12.193361300894368, 53.624130146632126 ], [ 12.185546376769782, 53.632257988866364 ], [ 12.178455045334802, 53.640617577959752 ], [ 12.17210706682827, 53.649186128002555 ], [ 12.16652020798238, 53.657940269711993 ], [ 12.161710189390169, 53.666856113201938 ], [ 12.157690638036925, 53.675909312307368 ], [ 12.154473045171541, 53.685075130299317 ], [ 12.152066729683792, 53.694328506822259 ], [ 12.15047880714239, 53.703644125880018 ], [ 12.149714164636643, 53.712996484692034 ], [ 12.149775441551583, 53.722359963237679 ], [ 12.150663016392432, 53.73170889430218 ], [ 12.152374999759152, 53.741017633835057 ], [ 12.154907233555976, 53.750260631428162 ], [ 12.158253296503778, 53.759412500719144 ], [ 12.162404516005461, 53.768448089523275 ], [ 12.167349986395632, 53.777342549496396 ], [ 12.173076593586469, 53.786071405130222 ], [ 12.179569046101339, 53.794610621881482 ], [ 12.186809912466874, 53.802936673237532 ], [ 12.194779664912652, 53.811026606521224 ], [ 12.203456729305602, 53.818858107240835 ], [ 12.212817541224112, 53.82640956179273 ], [ 12.2228366080538, 53.833660118328218 ], [ 12.233486576964776, 53.840589745599615 ], [ 12.244738308606761, 53.847179289605847 ], [ 12.256560956336594, 53.853410527862614 ], [ 12.26892205076954, 53.859266221129062 ], [ 12.28178758942472, 53.864730162428749 ], [ 12.295122131212898, 53.869787223211389 ], [ 12.308888895494892, 53.874423396508583 ], [ 12.323049865418621, 53.87862583694676 ], [ 12.337565895224348, 53.88238289748903 ], [ 12.352396821189979, 53.88568416278806 ], [ 12.367501575871808, 53.888520479042214 ], [ 12.382838305281521, 53.890883980258423 ], [ 12.398364488626267, 53.892768110836187 ], [ 12.41403706022739, 53.894167644399644 ], [ 12.429812533222911, 53.895078698815468 ], [ 12.445647124650606, 53.895498747348519 ], [ 12.46149688150223, 53.895426625917786 ], [ 12.477317807334753, 53.894862536429734 ], [ 12.493065989021801, 53.893808046177803 ], [ 12.508697723227996, 53.892266083310481 ], [ 12.524169642190282, 53.890240928383022 ], [ 12.539438838393387, 53.887738202020714 ], [ 12.554462987731942, 53.884764848734449 ], [ 12.569200470758965, 53.881329116941821 ], [ 12.583610491629306, 53.877440535259375 ], [ 12.597653194357189, 53.873109885143222 ], [ 12.61128977601985, 53.868349169967438 ], [ 12.624482596552625, 53.86317158064039 ], [ 12.637195284796846, 53.857591457870065 ], [ 12.649392840478333, 53.851624251199517 ], [ 12.661041731812384, 53.845286474943968 ], [ 12.672109988450442, 53.83859566116881 ], [ 12.682567289503243, 53.831570309857959 ], [ 12.692385046396742, 53.824229836428465 ], [ 12.701536480337873, 53.816594516755423 ], [ 12.709996694190036, 53.808685429877265 ], [ 12.717742738579821, 53.800524398557563 ], [ 12.724753672079867, 53.792133927884819 ], [ 12.731010615334688, 53.78353714209544 ], [ 12.736496799019731, 53.774757719810111 ], [ 12.741197605545803, 53.765819827875362 ], [ 12.745100604443548, 53.756748054005882 ], [ 12.748195581384314, 53.747567338423558 ], [ 12.750474560814967, 53.738302904691487 ], [ 12.751931822205002, 53.72898018994043 ], [ 12.752563909924129, 53.719624774685869 ], [ 12.752369636787813, 53.710262312432313 ] ] ] } },
{ "type": "Feature", "properties": { "source": "https://simplemaps.com", "name": "Bremen", "id": "DEHB", "join_name": "bremen", "Population": 703768, "pop": 703768 }, "geometry": { "type": "Polygon", "coordinates": [ [ [ 8.765963865542243, 53.582887055246069 ], [ 8.765869814250415, 53.57662949312531 ], [ 8.765225832408188, 53.570383503196339 ], [ 8.764033925310788, 53.564166196928504 ], [ 8.762297595559785, 53.557994599847895 ], [ 8.760021830890167, 53.551885605049371 ], [ 8.757213088008477, 53.545855927149681 ], [ 8.753879272513302, 53.539922056804407 ], [ 8.750029714978606, 53.534100215910101 ], [ 8.745675143290047, 53.52840631360985 ], [ 8.740827651331809, 53.522855903217263 ], [ 8.735500664130701, 53.517464140171555 ], [ 8.729708899570536, 53.51224574113219 ], [ 8.723468326797803, 53.507214944318342 ], [ 8.716796121445386, 53.502385471194536 ], [ 8.709710617807554, 53.497770489599411 ], [ 8.702231258104867, 53.493382578411193 ], [ 8.69437853898264, 53.489233693837932 ], [ 8.686173955391547, 53.485335137416826 ], [ 8.677639942002843, 53.481697525802169 ], [ 8.668799812314932, 53.478330762416114 ], [ 8.659677695611396, 53.475244011032295 ], [ 8.650298471933423, 53.472445671356525 ], [ 8.640687705232873, 53.46994335666416 ], [ 8.630871574874361, 53.467743873548557 ], [ 8.620876805657037, 53.465853203828992 ], [ 8.610730596528528, 53.464276488662222 ], [ 8.600460548165469, 53.463018014895397 ], [ 8.590094589595852, 53.462081203693138 ], [ 8.579660904040177, 53.461468601465889 ], [ 8.569187854148828, 53.461181873121227 ], [ 8.558703906814101, 53.461221797653998 ], [ 8.54823755773554, 53.461588266086054 ], [ 8.53781725591767, 53.462280281759924 ], [ 8.527471328279296, 53.46329596298623 ], [ 8.517227904553234, 53.464632548038139 ], [ 8.50711484265522, 53.466286402480947 ], [ 8.497159654699924, 53.468253028819348 ], [ 8.487389433841683, 53.470527078439247 ], [ 8.477830782115976, 53.473102365815578 ], [ 8.468509739457025, 53.475971884951711 ], [ 8.459451714065116, 53.479127828011507 ], [ 8.450681414295699, 53.482561606098201 ], [ 8.442222782240119, 53.486263872130706 ], [ 8.434098929166007, 53.490224545761045 ], [ 8.426332072982278, 53.494432840272601 ], [ 8.418943477891082, 53.4988772913932 ], [ 8.411953396385906, 53.503545787951978 ], [ 8.40538101375124, 53.508425604304612 ], [ 8.399244395215293, 53.513503434445965 ], [ 8.393560435903023, 53.518765427725434 ], [ 8.388344813731754, 53.524197226074847 ], [ 8.383611945386725, 53.529784002655134 ], [ 8.379374945507855, 53.53551050182363 ], [ 8.375645589213503, 53.541361080319575 ], [ 8.372434278079465, 53.547319749562106 ], [ 8.369750009685626, 53.553370218951073 ], [ 8.367600350833728, 53.559495940057708 ], [ 8.365991414532861, 53.565680151589341 ], [ 8.36492784083992, 53.571905925009268 ], [ 8.364412781633531, 53.578156210690345 ], [ 8.364447889390293, 53.584413884478671 ], [ 8.365033310022355, 53.590661794541639 ], [ 8.366167679824452, 53.596882808373394 ], [ 8.367848126568072, 53.603059859828605 ], [ 8.370070274768663, 53.609175996055342 ], [ 8.372828255140233, 53.615214424196736 ], [ 8.376114718239499, 53.621158557731015 ], [ 8.379920852289624, 53.626992062319523 ], [ 8.384236405160086, 53.632698901033066 ], [ 8.389049710467454, 53.638263378827681 ], [ 8.394347717747392, 53.643670186142295 ], [ 8.400116026636212, 53.648904441492476 ], [ 8.406338924985954, 53.653951732936719 ], [ 8.412999430824355, 53.658798158294076 ], [ 8.420079338057365, 53.663430363995076 ], [ 8.427559265798891, 53.667835582451332 ], [ 8.435418711199489, 53.672001667832689 ], [ 8.443636105632887, 53.675917130145379 ], [ 8.452188874087152, 53.679571167509117 ], [ 8.461053497594939, 53.682953696535513 ], [ 8.470205578525963, 53.686055380716439 ], [ 8.479619908554062, 53.688867656736001 ], [ 8.489270539100499, 53.691382758625679 ], [ 8.499130854045658, 53.693593739689248 ], [ 8.509173644492398, 53.695494492129782 ], [ 8.519371185356086, 53.69707976431858 ], [ 8.529695313548807, 53.698345175652761 ], [ 8.540117507519348, 53.699287228955527 ], [ 8.55060896790445, 53.699903320380756 ], [ 8.561140699042708, 53.700191746791027 ], [ 8.571683591098722, 53.700151710586383 ], [ 8.582208502542823, 53.699783321968603 ], [ 8.592686342730033, 53.69908759863393 ], [ 8.603088154321551, 53.698066462895213 ], [ 8.613385195292782, 53.696722736242378 ], [ 8.623549020273526, 53.695060131357785 ], [ 8.633551560968781, 53.69308324161171 ], [ 8.643365205412049, 53.690797528069865 ], [ 8.652962875808319, 53.688209304053423 ], [ 8.662318104729065, 53.685325717299236 ], [ 8.671405109428537, 53.682154729774766 ], [ 8.680198864057974, 53.678705095210304 ], [ 8.688675169562961, 53.674986334416552 ], [ 8.696810721057799, 53.671008708463653 ], [ 8.704583172481131, 53.666783189802899 ], [ 8.711971198347271, 53.662321431418576 ], [ 8.718954552418699, 53.657635734103437 ], [ 8.725514123137023, 53.652739011956101 ], [ 8.731631985661652, 53.647644756203469 ], [ 8.737291450377898, 53.642366997456385 ], [ 8.742477107749071, 53.636920266509939 ], [ 8.74717486939992, 53.631319553804559 ], [ 8.751372005332453, 53.625580267666471 ], [ 8.755057177187693, 53.619718191449373 ], [ 8.758220467481387, 53.613749439701898 ], [ 8.760853404753655, 53.607690413486651 ], [ 8.762948984587217, 53.60155775497963 ], [ 8.764501686460742, 53.595368301478345 ], [ 8.765507486417546, 53.589139038949455 ], [ 8.765963865542243, 53.582887055246069 ] ] ] } },
{ "type": "Feature", "properties": { "source": "https://simplemaps.com", "name": "Hamburg", "id": "DEHH", "join_name": "hamburg", "Population": 1857081, "pop": 1857081 }, "geometry": { "type": "Polygon", "coordinates": [ [ [ 10.362124751203377, 53.543893863828536 ], [ 10.36159199624324, 53.533733184109643 ], [ 10.360168071929152, 53.523602994939814 ], [ 10.357857508621834, 53.513531030968643 ], [ 10.354667251644846, 53.50354484817781 ], [ 10.350606635588852, 53.493671748931582 ], [ 10.345687352323564, 53.483938707922832 ], [ 10.339923412873704, 53.474372299208909 ], [ 10.333331103327897, 53.464998624525734 ], [ 10.325928934961478, 53.455843243063953 ], [ 10.317737588764729, 53.446931102884392 ], [ 10.30877985457758, 53.438286474145208 ], [ 10.299080565040846, 53.429932884305018 ], [ 10.288666524581043, 53.421893055461368 ], [ 10.277566433653138, 53.41418884397622 ], [ 10.265810808470961, 53.4068411825331 ], [ 10.253431896460484, 53.399870024763558 ], [ 10.240463587674837, 53.393294292573131 ], [ 10.226941322414177, 53.387131826289696 ], [ 10.212901995296203, 53.381399337748981 ], [ 10.198383856025371, 53.376112366424962 ], [ 10.183426407111176, 53.37128523870475 ], [ 10.168070298787214, 53.366931030399599 ], [ 10.152357221383781, 53.363061532576147 ], [ 10.136329795407919, 53.359687220783847 ], [ 10.120031459585075, 53.356817227746625 ], [ 10.103506357117253, 53.354459319578723 ], [ 10.08679922041256, 53.352619875577261 ], [ 10.069955254541336, 53.351303871634727 ], [ 10.053020019674069, 53.350514867308455 ], [ 10.036039312756079, 53.350254996574328 ], [ 10.019059048674521, 53.3505249622851 ], [ 10.002125141172499, 53.351324034345232 ], [ 9.985283383765585, 53.352650051606219 ], [ 9.96857933091604, 53.354499427478004 ], [ 9.952058179719481, 53.356867159245112 ], [ 9.935764652359628, 53.359746841066375 ], [ 9.919742879586058, 53.36313068063091 ], [ 9.904036285470202, 53.36700951943368 ], [ 9.888687473694755, 53.371372856626614 ], [ 9.873738115631443, 53.376208876392994 ], [ 9.859228840461984, 53.381504478784898 ], [ 9.845199127596453, 53.387245313955617 ], [ 9.831687201642916, 53.393415819710611 ], [ 9.81872993018111, 53.399999262293349 ], [ 9.806362724591866, 53.406977780313618 ], [ 9.794619444192602, 53.414332431718861 ], [ 9.783532303926933, 53.422043243700813 ], [ 9.773131785854137, 53.430089265422119 ], [ 9.763446554681547, 53.438448623440358 ], [ 9.754503377578676, 53.447098579698611 ], [ 9.746327048508203, 53.456015591945487 ], [ 9.738940317303467, 53.465175376439056 ], [ 9.732363823716669, 53.474552972783314 ], [ 9.726616036654784, 53.484122810737908 ], [ 9.72171319881301, 53.493858778835978 ], [ 9.717669276906703, 53.503734294638356 ], [ 9.714495917693078, 53.51372237644614 ], [ 9.712202409963473, 53.523795716288376 ], [ 9.71079565267484, 53.533926753995573 ], [ 9.710280129376585, 53.544087752165346 ], [ 9.710657889074557, 53.554250871821438 ], [ 9.711928533658728, 53.564388248563581 ], [ 9.714089212005144, 53.574472069001736 ], [ 9.717134620844721, 53.58447464726531 ], [ 9.721057012473377, 53.594368501375271 ], [ 9.725846209358203, 53.604126429265129 ], [ 9.731489625673547, 53.6137215842354 ], [ 9.737972295779736, 53.623127549625629 ], [ 9.745276909634358, 53.632318412487415 ], [ 9.753383855103067, 53.641268836043572 ], [ 9.762271267113015, 53.649954130719081 ], [ 9.771915083567286, 53.658350323531778 ], [ 9.782289107914371, 53.666434225634362 ], [ 9.79336507824101, 53.67418349780197 ], [ 9.805112742731943, 53.681576713664768 ], [ 9.817499941314207, 53.688593420490136 ], [ 9.830492693279211, 53.695214197324759 ], [ 9.844055290650255, 53.701420710314174 ], [ 9.858150397039127, 53.707195765024643 ], [ 9.87273915171194, 53.712523355600908 ], [ 9.887781278561043, 53.717388710601796 ], [ 9.903235199658205, 53.721778335366217 ], [ 9.919058153043656, 53.725680050771928 ], [ 9.93520631438582, 53.72908302826098 ], [ 9.951634922129022, 53.731977821016656 ], [ 9.968298405729781, 53.734356391190033 ], [ 9.985150516567918, 53.736212133085871 ], [ 10.002144461105839, 53.737539892231091 ], [ 10.019233035858573, 53.73833598026301 ], [ 10.036368763728699, 53.738598185587207 ], [ 10.053504031253057, 53.738325779769994 ], [ 10.070591226304423, 53.737519519643989 ], [ 10.087582875788705, 53.736181645119792 ], [ 10.10443178287815, 53.734315872711072 ], [ 10.121091163323843, 53.731927384794673 ], [ 10.137514780394529, 53.729022814641539 ], [ 10.153657077996007, 53.725610227268028 ], [ 10.169473311533887, 53.721699096171676 ], [ 10.184919676093315, 53.717300276027608 ], [ 10.199953431522152, 53.712425971436602 ], [ 10.214533024018548, 53.707089701826845 ], [ 10.228618203840506, 53.701306262624584 ], [ 10.242170138772702, 53.695091682820362 ], [ 10.255151523005477, 53.688463179068179 ], [ 10.26752668110165, 53.681439106465795 ], [ 10.279261666748491, 53.674038906173976 ], [ 10.290324356015377, 53.666283050041379 ], [ 10.300684534861325, 53.658192982410334 ], [ 10.31031398066053, 53.649791059286507 ], [ 10.319186537539622, 53.641100485061557 ], [ 10.327278185344815, 53.632145246984798 ], [ 10.334567102082959, 53.622950047584574 ], [ 10.341033719705335, 53.613540235244585 ], [ 10.346660773128733, 53.60394173314441 ], [ 10.351433342412665, 53.59418096677588 ], [ 10.3553388880363, 53.584284790249519 ], [ 10.358367279242511, 53.574280411606445 ], [ 10.360510815439483, 53.564195317351803 ], [ 10.361764240672946, 53.554057196425958 ], [ 10.362124751203377, 53.543893863828536 ] ] ] } },
{ "type": "Feature", "properties": { "source": "https://simplemaps.com", "name": "Hessen", "id": "DEHE", "join_name": "hessen", "Population": 6274170, "pop": 6274170 }, "geometry": { "type": "Polygon", "coordinates": [ [ [ 9.598130808212558, 50.601957698406956 ], [ 9.597522046473996, 50.583268486143069 ], [ 9.595379046762863, 50.564625010453881 ], [ 9.591709491038197, 50.546078287896037 ], [ 9.586525204421637, 50.527679010500243 ], [ 9.579842103647453, 50.509477408533314 ], [ 9.571680135038577, 50.491523115146741 ], [ 9.562063202372096, 50.47386503325442 ], [ 9.551019085013786, 50.45655120496955 ], [ 9.538579346714162, 50.439628683918571 ], [ 9.524779235468639, 50.423143410736138 ], [ 9.509657574852534, 50.407140092032328 ], [ 9.493256647246763, 50.39166208310963 ], [ 9.475622069374097, 50.376751274693049 ], [ 9.456802660566733, 50.362447983923346 ], [ 9.436850304186404, 50.34879084984928 ], [ 9.41581980261603, 50.335816733640939 ], [ 9.393768726239518, 50.323560623732448 ], [ 9.370757256821843, 50.312055546088594 ], [ 9.346848025697014, 50.301332479776377 ], [ 9.322105947165866, 50.291420278009241 ], [ 9.296598047499399, 50.282345594818111 ], [ 9.270393289937333, 50.274132817490589 ], [ 9.243562396064958, 50.266804004906824 ], [ 9.216177663944777, 50.260378831887685 ], [ 9.188312783373279, 50.254874539658239 ], [ 9.160042648627392, 50.25030589251773 ], [ 9.131443169059132, 50.246685140794632 ], [ 9.102591077892528, 50.244021990153314 ], [ 9.073563739572213, 50.24232357730736 ], [ 9.044438956009518, 50.241594452182554 ], [ 9.015294772069046, 50.241836566560892 ], [ 8.986209280636654, 50.243049269225473 ], [ 8.957260427608682, 50.24522930761465 ], [ 8.92852581714185, 50.248370835982065 ], [ 8.900082517504048, 50.252465430047991 ], [ 8.872006867867521, 50.257502108115538 ], [ 8.844374286388481, 50.263467358614001 ], [ 8.817259079920087, 50.270345174019752 ], [ 8.790734255710133, 50.278117091093065 ], [ 8.764871335438635, 50.286762237358303 ], [ 8.739740171956374, 50.29625738374137 ], [ 8.715408769090821, 50.306577003267577 ], [ 8.691943104891866, 50.317693335710018 ], [ 8.669406958696237, 50.329576458065702 ], [ 8.647861742395957, 50.342194360724832 ], [ 8.627366336302389, 50.355513029185062 ], [ 8.60797693000365, 50.369496531149508 ], [ 8.589746868619109, 50.384107108834371 ], [ 8.572726504859689, 50.399305276298357 ], [ 8.55696305730735, 50.415049921592427 ], [ 8.542500475330336, 50.431298413515094 ], [ 8.52937931105359, 50.448006712744451 ], [ 8.517636598803985, 50.465129487104001 ], [ 8.507305742450168, 50.482620230706679 ], [ 8.498416411053755, 50.500431386706246 ], [ 8.49099444324464, 50.518514473372676 ], [ 8.485061760726293, 50.536820213194389 ], [ 8.480636291308109, 50.555298664696842 ], [ 8.477731901850479, 50.573899356654067 ], [ 8.476358341493565, 50.592571424357999 ], [ 8.476521195524395, 50.611263747597121 ], [ 8.478221850216181, 50.62992508998618 ], [ 8.481457468951268, 50.648504239276619 ], [ 8.486220979912353, 50.666950148268569 ], [ 8.492501075597971, 50.685212075935652 ], [ 8.500282224384895, 50.703239728365922 ], [ 8.509544694325237, 50.720983399115816 ], [ 8.520264589326871, 50.738394108567661 ], [ 8.532413897824293, 50.755423741877479 ], [ 8.545960554002727, 50.772025185096886 ], [ 8.560868511591028, 50.788152459050593 ], [ 8.577097830189913, 50.803760850552671 ], [ 8.594604774049955, 50.818807040544939 ], [ 8.613341923161192, 50.8332492287457 ], [ 8.63325829646082, 50.847047254401467 ], [ 8.654299486910089, 50.860162712742017 ], [ 8.676407808134723, 50.872559066748117 ], [ 8.699522452266724, 50.88420175385199 ], [ 8.723579658568768, 50.895058287203639 ], [ 8.748512892366652, 50.905098351150826 ], [ 8.774253033760914, 50.914293890597257 ], [ 8.800728575535546, 50.922619193921548 ], [ 8.827865829631026, 50.930050969160135 ], [ 8.855589141501147, 50.936568413178883 ], [ 8.883821111627807, 50.942153273581795 ], [ 8.912482823426503, 50.946789903129662 ], [ 8.941494076738312, 50.950465306468352 ], [ 8.970773626070455, 50.953169178993257 ], [ 9.000239422719581, 50.954893937705414 ], [ 9.029808859888369, 50.955634743943619 ], [ 9.059399019887975, 50.955389517907633 ], [ 9.088926922506079, 50.954158944917531 ], [ 9.118309773613172, 50.951946473385341 ], [ 9.147465213078293, 50.94875830450674 ], [ 9.176311561069413, 50.944603373710649 ], [ 9.204768061823698, 50.939493323936432 ], [ 9.232755123987969, 50.933442470837967 ], [ 9.260194556650507, 50.926467760043948 ], [ 9.287009800210805, 50.918588716633096 ], [ 9.313126151264996, 50.909827387010232 ], [ 9.338470980719469, 50.900208273396728 ], [ 9.362973944384633, 50.889758261174336 ], [ 9.386567185344145, 50.878506539345317 ], [ 9.409185527441224, 50.866484514394948 ], [ 9.430766659273059, 50.853725717863455 ], [ 9.451251308136335, 50.840265707953414 ], [ 9.470583403420591, 50.826141965516996 ], [ 9.48871022900126, 50.811393784782538 ], [ 9.505582564240651, 50.796062159194179 ], [ 9.521154813261509, 50.780189662750082 ], [ 9.535385122214914, 50.763820327235031 ], [ 9.548235484320006, 50.746999515751348 ], [ 9.55967183250903, 50.729773792958298 ], [ 9.569664119564768, 50.712190792434654 ], [ 9.578186385690417, 50.694299081582336 ], [ 9.58521681350231, 50.676148024489095 ], [ 9.590737770484383, 50.657787643168575 ], [ 9.5947358389891, 50.639268477593426 ], [ 9.597201833912592, 50.620641444933618 ], [ 9.598130808212558, 50.601957698406956 ] ] ] } },
{ "type": "Feature", "properties": { "source": "https://simplemaps.com", "name": "Thüringen", "id": "DETH", "join_name": "thüringen", "Population": 2107574, "pop": 2107574 }, "geometry": { "type": "Polygon", "coordinates": [ [ [ 11.360258007243559, 50.897556044425599 ], [ 11.359493419811681, 50.88673375816601 ], [ 11.35783505219508, 50.875951628737369 ], [ 11.355288061905659, 50.86523917006798 ], [ 11.351860025298503, 50.854625685249069 ], [ 11.34756091033627, 50.844140186889412 ], [ 11.342403043069009, 50.833811318474559 ], [ 11.336401067987637, 50.823667276935339 ], [ 11.329571902421828, 50.813735736626022 ], [ 11.321934685164885, 50.804043774905978 ], [ 11.31351071951873, 50.794617799512842 ], [ 11.304323410961564, 50.785483477908663 ], [ 11.294398199649557, 50.776665668773525 ], [ 11.283762487971298, 50.768188355814253 ], [ 11.272445563380543, 50.760074584048539 ], [ 11.260478516738683, 50.752346398716902 ], [ 11.247894156403328, 50.745024786967839 ], [ 11.234726918303817, 50.738129622453002 ], [ 11.221012772248171, 50.731679612961656 ], [ 11.206789124708873, 50.72569225121547 ], [ 11.192094718337723, 50.720183768936366 ], [ 11.176969528461932, 50.71516909429188 ], [ 11.161454656814993, 50.710661812814273 ], [ 11.145592222757687, 50.706674131880895 ], [ 11.129425252245207, 50.70321684883541 ], [ 11.112997564797055, 50.700299322820015 ], [ 11.096353658727269, 50.69792945038138 ], [ 11.079538594892512, 50.696113644903846 ], [ 11.062597879216037, 50.694856819914563 ], [ 11.045577344245643, 50.694162376297662 ], [ 11.028523030003859, 50.694032193444897 ], [ 11.011481064388507, 50.694466624362292 ], [ 10.994497543382121, 50.69546449474349 ], [ 10.97761841132847, 50.697023106011827 ], [ 10.960889341534497, 50.699138242324715 ], [ 10.944355617456178, 50.701804181525361 ], [ 10.928062014726581, 50.705013710017795 ], [ 10.91205268428441, 50.708758141533202 ], [ 10.896371036861364, 50.713027339746624 ], [ 10.881059629086312, 50.717809744694556 ], [ 10.866160051464171, 50.723092402935123 ], [ 10.851712818486671, 50.728861001384701 ], [ 10.837757261132078, 50.735099904755458 ], [ 10.82433142200945, 50.741792196510261 ], [ 10.811471953402622, 50.748919723242871 ], [ 10.799214018467017, 50.756463142382898 ], [ 10.787591195830847, 50.764401973116421 ], [ 10.776635387850046, 50.772714650405405 ], [ 10.766376732763213, 50.781378581980121 ], [ 10.756843520989653, 50.790370208171538 ], [ 10.748062115809502, 50.799665064441847 ], [ 10.740056878660125, 50.809237846464143 ], [ 10.732850099277691, 50.819062477594223 ], [ 10.72646193090625, 50.829112178570391 ], [ 10.72091033078962, 50.839359539269402 ], [ 10.716211006153232, 50.849776592340383 ], [ 10.712377365873875, 50.860334888531384 ], [ 10.709420478025242, 50.87100557351711 ], [ 10.707349033475955, 50.88175946603026 ], [ 10.706169315704397, 50.892567137093451 ], [ 10.705885176981432, 50.90339899014333 ], [ 10.706498021057248, 50.91422534183377 ], [ 10.708006792473441, 50.925016503301009 ], [ 10.710407972603969, 50.935742861669645 ], [ 10.713695582511512, 50.94637496157538 ], [ 10.717861192686211, 50.956883586477801 ], [ 10.722893939714215, 50.967239839534919 ], [ 10.728780549902346, 50.977415223809231 ], [ 10.735505369863452, 50.987381721575574 ], [ 10.743050404044356, 50.997111872500248 ], [ 10.751395359154971, 51.006578850462688 ], [ 10.760517695433196, 51.015756538792019 ], [ 10.770392684655642, 51.02461960369407 ], [ 10.780993474779468, 51.033143565647059 ], [ 10.792291161075484, 51.041304868549297 ], [ 10.804254863587362, 51.04908094640583 ], [ 10.816851810726812, 51.056450287348881 ], [ 10.830047428789529, 51.063392494791309 ], [ 10.843805437152108, 51.069888345521825 ], [ 10.858087948886304, 51.075919844557639 ], [ 10.872855576503413, 51.08147027658022 ], [ 10.888067542519119, 51.086524253789193 ], [ 10.903681794508179, 51.091067760019882 ], [ 10.919655124297385, 51.095088190982295 ], [ 10.93594329092684, 51.098574390489745 ], [ 10.952501146992262, 51.101516682559229 ], [ 10.969282767964856, 51.103906899278051 ], [ 10.98624158407176, 51.105738404344955 ], [ 11.003330514307699, 51.107006112207962 ], [ 11.020502102138432, 51.107706502735908 ], [ 11.037708652448389, 51.107837631374679 ], [ 11.054902369279185, 51.107399134754836 ], [ 11.072035493901513, 51.106392231731888 ], [ 11.089060442761646, 51.104819719855868 ], [ 11.105929944844346, 51.102685967282198 ], [ 11.122597177996571, 51.099996900150558 ], [ 11.139015903761711, 51.096759985474144 ], [ 11.15514060028112, 51.092984209595706 ], [ 11.170926592828831, 51.088680052282299 ], [ 11.186330181556817, 51.083859456543557 ], [ 11.201308766041128, 51.078535794273584 ], [ 11.215820966234476, 51.072723827828682 ], [ 11.229826739447095, 51.066439667666288 ], [ 11.243287492996521, 51.059700726183202 ], [ 11.256166192185871, 51.052525667901868 ], [ 11.268427463291719, 51.044934356165037 ], [ 11.280037691264413, 51.036947796509097 ], [ 11.290965111866473, 51.028588076895716 ], [ 11.301179897998784, 51.019878304990272 ], [ 11.310654239988329, 51.010842542683193 ], [ 11.319362419636153, 51.001505738057588 ], [ 11.327280877849326, 50.991893655012575 ], [ 11.334388275705642, 50.982032800757345 ], [ 11.340665548825228, 50.971950351395073 ], [ 11.346095954947982, 50.961674075820284 ], [ 11.350665114640469, 50.951232258155336 ], [ 11.354361045080111, 50.940653618954286 ], [ 11.357174186888136, 50.92996723540395 ], [ 11.359097424005592, 50.919202460751599 ], [ 11.360126096629026, 50.908388843189591 ], [ 11.360258007243559, 50.897556044425599 ] ] ] } },
{ "type": "Feature", "properties": { "source": "https://simplemaps.com", "name": "Sachsen-Anhalt", "id": "DEST", "join_name": "sachsenanhalt", "Population": 2140084, "pop": 2140084 }, "geometry": { "type": "Polygon", "coordinates": [ [ [ 12.027361188997814, 51.990829027297501 ], [ 12.02640655194779, 51.979931255617053 ], [ 12.024530233562652, 51.969079197131855 ], [ 12.021738033178512, 51.958302551251201 ], [ 12.01803824102144, 51.947630789978831 ], [ 12.013441608567096, 51.937093077883461 ], [ 12.007961312460443, 51.926718193128025 ], [ 12.001612912165216, 51.916534449762551 ], [ 11.994414301524955, 51.90656962148072 ], [ 11.986385654429341, 51.896850867033365 ], [ 11.977549364789708, 51.887404657486371 ], [ 11.967929981036958, 51.878256705503503 ], [ 11.957554135363695, 51.869431896827557 ], [ 11.946450467939041, 51.860954224126573 ], [ 11.934649546331608, 51.852846723363598 ], [ 11.922183780381046, 51.84513141284183 ], [ 11.909087332763637, 51.837829235068064 ], [ 11.895396025500981, 51.83096000157046 ], [ 11.881147242664484, 51.824542340797841 ], [ 11.866379829530571, 51.818593649219942 ], [ 11.851133988444092, 51.813130045739548 ], [ 11.835451171648661, 51.80816632951953 ], [ 11.819373971344373, 51.803715941318615 ], [ 11.802946007233784, 51.799790928422453 ], [ 11.78621181181809, 51.796401913246804 ], [ 11.769216713705624, 51.793558065682284 ], [ 11.752006719195183, 51.791267079240967 ], [ 11.734628392396813, 51.789535151056683 ], [ 11.717128734152499, 51.78836696578275 ], [ 11.699555060019664, 51.787765683421718 ], [ 11.681954877579839, 51.78773293111356 ], [ 11.664375763335171, 51.788268798900305 ], [ 11.646865239455375, 51.78937183947626 ], [ 11.629470650637661, 51.791039071924295 ], [ 11.612239041342244, 51.793265989430843 ], [ 11.59521703366616, 51.796046570962936 ], [ 11.578450706118305, 51.799373296882244 ], [ 11.561985473558355, 51.803237168462971 ], [ 11.545865968562799, 51.807627731271225 ], [ 11.530135924480925, 51.812533102355438 ], [ 11.514838060443699, 51.81794000118866 ], [ 11.500013968588378, 51.823833784295097 ], [ 11.485704003761136, 51.830198483484402 ], [ 11.471947175959697, 51.837016847609583 ], [ 11.45878104577667, 51.844270387754577 ], [ 11.446241623103623, 51.851939425750714 ], [ 11.434363269353863, 51.860003145911364 ], [ 11.423178603460245, 51.868439649866779 ], [ 11.412718411901311, 51.877226014372873 ], [ 11.403011563006363, 51.886338351958607 ], [ 11.394084925785751, 51.895751874269884 ], [ 11.385963293528494, 51.905440957959264 ], [ 11.378669312403504, 51.91537921296306 ], [ 11.372223415294986, 51.925539553000242 ], [ 11.366643761094673, 51.93589426812018 ], [ 11.361946179666084, 51.946415099118994 ], [ 11.358144122686276, 51.957073313637537 ], [ 11.355248620560374, 51.967839783748261 ], [ 11.353268245592789, 51.978685064831041 ], [ 11.352209081586192, 51.989579475533276 ], [ 11.352074700025849, 52.000493178603641 ], [ 11.352866142991443, 52.011396262384856 ], [ 11.354581912922791, 52.022258822745442 ], [ 11.357217969347932, 52.033051045227538 ], [ 11.360767732664007, 52.043743287184668 ], [ 11.365222095041057, 52.05430615967984 ], [ 11.37056943849861, 52.064710608913785 ], [ 11.376795660182498, 52.074927996950663 ], [ 11.383884204846977, 52.084930181508895 ], [ 11.391816104523164, 52.094689594584629 ], [ 11.400570025330552, 52.104179319676462 ], [ 11.410122321363165, 52.113373167381546 ], [ 11.420447095555916, 52.122245749136582 ], [ 11.43151626741119, 52.130772548879648 ], [ 11.443299647438662, 52.138929992413992 ], [ 11.45576501813545, 52.146695514259378 ], [ 11.468878221306777, 52.154047621783405 ], [ 11.482603251501597, 52.160965956410926 ], [ 11.496902355311317, 52.167431351718662 ], [ 11.511736136255095, 52.173425888229602 ], [ 11.527063664950155, 52.178932944731791 ], [ 11.542842594242613, 52.183937245955782 ], [ 11.559029278951227, 52.188424906456177 ], [ 11.575578899856021, 52.192383470554098 ], [ 11.59244559154361, 52.195801948209613 ], [ 11.60958257370288, 52.198670846706058 ], [ 11.626942285448958, 52.200982198041828 ], [ 11.644476522238008, 52.20272958193835 ], [ 11.662136574923872, 52.203908144388372 ], [ 11.679873370496429, 52.204514611682384 ], [ 11.697637614033955, 52.204547299866746 ], [ 11.715379931395553, 52.204006119601821 ], [ 11.733051012176096, 52.202892576404167 ], [ 11.750601752445046, 52.201209766272029 ], [ 11.767983396791525, 52.198962366709047 ], [ 11.785147679201394, 52.196156623176364 ], [ 11.802046962297753, 52.192800331018688 ], [ 11.81863437448464, 52.188902812924496 ], [ 11.834863944543383, 52.184474891996075 ], [ 11.850690733243782, 52.179528860518637 ], [ 11.866070961546459, 52.174078444531716 ], [ 11.880962134988817, 52.168138764320574 ], [ 11.895323163865211, 52.16172629095643 ], [ 11.909114478831203, 52.154858799028084 ], [ 11.922298141583225, 52.147555315718556 ], [ 11.934837950286759, 52.139836066390707 ], [ 11.946699539450094, 52.131722416857187 ], [ 11.957850473964594, 52.123236812518151 ], [ 11.968260337058068, 52.11440271455961 ], [ 11.977900811933086, 52.105244533412552 ], [ 11.986745756888626, 52.095787559680225 ], [ 11.994771273749455, 52.086057892746759 ], [ 12.00195576945452, 52.076082367285558 ], [ 12.008280010681414, 52.065888477890354 ], [ 12.013727171410745, 52.055504302055425 ], [ 12.018282873359325, 52.044958421733511 ], [ 12.021935219236596, 52.034279843703025 ], [ 12.024674818803176, 52.023497918975792 ], [ 12.026494807734041, 52.012642261477993 ], [ 12.027390859311886, 52.001742666235984 ], [ 12.027361188997814, 51.990829027297501 ] ] ] } },
{ "type": "Feature", "properties": { "source": "https://simplemaps.com", "name": "Berlin", "id": "DEBE", "join_name": "berlin", "Population": 3673823, "pop": 3673823 }, "geometry": { "type": "Polygon", "coordinates": [ [ [ 13.666009145324415, 52.67933353372441 ], [ 13.664202028844462, 52.66507938569103 ], [ 13.661171704131457, 52.650901931431953 ], [ 13.656927632664457, 52.6368399325901 ], [ 13.651482561757318, 52.622931798716671 ], [ 13.644852477573602, 52.609215483516962 ], [ 13.637056549883567, 52.595728382712373 ], [ 13.628117068834326, 52.58250723377666 ], [ 13.618059374017752, 52.569588017795454 ], [ 13.606911776131843, 52.557005863689355 ], [ 13.594705471540383, 52.54479495503103 ], [ 13.581474450043727, 52.532988439677887 ], [ 13.567255396179736, 52.521618342430855 ], [ 13.552087584378445, 52.510715480920759 ], [ 13.536012768297873, 52.500309384912967 ], [ 13.519075064670469, 52.490428219211026 ], [ 13.501320831991107, 52.481098710329221 ], [ 13.482798544377882, 52.472346077093952 ], [ 13.463558660936698, 52.464193965323325 ], [ 13.443653490959461, 52.456664386723723 ], [ 13.423137055284419, 52.449777662131602 ], [ 13.402064944145144, 52.443552369219397 ], [ 13.380494171832249, 52.438005294772211 ], [ 13.358483028490291, 52.43315139163392 ], [ 13.336090929369004, 52.429003740409108 ], [ 13.313378261846234, 52.425573515998472 ], [ 13.290406230537595, 52.4228699590346 ], [ 13.267236700805563, 52.420900352275027 ], [ 13.243932040979027, 52.419670001999727 ], [ 13.22055496359291, 52.419182224449727 ], [ 13.197168365956133, 52.419438337334391 ], [ 13.1738351703554, 52.420437656424156 ], [ 13.150618164202102, 52.422177497235893 ], [ 13.127579840429501, 52.424653181808907 ], [ 13.104782238447836, 52.427858050558022 ], [ 13.082286785966046, 52.431783479182101 ], [ 13.060154141989864, 52.436418900595115 ], [ 13.038444041307679, 52.441751831837081 ], [ 13.017215140777687, 52.447767905913004 ], [ 12.99652486773194, 52.454450908496185 ], [ 12.976429270815116, 52.461782819423888 ], [ 12.956982873578641, 52.469743858901623 ], [ 12.938238531153321, 52.478312538322939 ], [ 12.92024729032588, 52.487465715600813 ], [ 12.903058253347316, 52.497178654896253 ], [ 12.886718445803337, 52.507425090619364 ], [ 12.87127268887825, 52.518177295567739 ], [ 12.856763476345551, 52.529406153055817 ], [ 12.843230856618526, 52.541081232879165 ], [ 12.83071232019439, 52.553170870946325 ], [ 12.819242692824258, 52.565642252400465 ], [ 12.808854034739211, 52.57846149804309 ], [ 12.799575546259573, 52.591593753860728 ], [ 12.791433480110094, 52.605003283446315 ], [ 12.784451060757634, 52.618653563095847 ], [ 12.77864841108082, 52.632507379351921 ], [ 12.774042486671917, 52.64652692875562 ], [ 12.770647018060387, 52.660673919558832 ], [ 12.768472461135026, 52.67490967514081 ], [ 12.76752595602713, 52.689195238863341 ], [ 12.767811294700161, 52.703491480091827 ], [ 12.769328897473521, 52.717759201101472 ], [ 12.772075798686567, 52.731959244581205 ], [ 12.776045641687045, 52.746052601441768 ], [ 12.781228683302496, 52.760000518629099 ], [ 12.787611807927229, 52.773764606639148 ], [ 12.79517855132757, 52.787306946427428 ], [ 12.803909134238193, 52.800590195402577 ], [ 12.813780505789222, 52.813577692192638 ], [ 12.824766396769618, 52.826233559871191 ], [ 12.836837382696585, 52.838522807331337 ], [ 12.849960956623557, 52.850411428497011 ], [ 12.864101611580828, 52.861866499063431 ], [ 12.879220932503907, 52.87285627046311 ], [ 12.895277697464365, 52.88335026075859 ], [ 12.912227987977834, 52.893319342169697 ], [ 12.930025308123156, 52.902735824951044 ], [ 12.948620712166356, 52.911573537344296 ], [ 12.967962940343094, 52.919807901340398 ], [ 12.987998562414274, 52.927416003998324 ], [ 13.008672128571154, 52.934376664079892 ], [ 13.029926327229811, 52.940670493774235 ], [ 13.051702149219947, 52.946279955300575 ], [ 13.073939057839546, 52.951189412194481 ], [ 13.096575164216963, 52.955385175099813 ], [ 13.119547407393449, 52.958855541907035 ], [ 13.142791738513951, 52.961590832097443 ], [ 13.166243308492092, 52.963583415173034 ], [ 13.189836658496221, 52.964827733071701 ], [ 13.213505912587953, 52.965320316489347 ], [ 13.237184971832933, 52.965059795050927 ], [ 13.260807709195545, 52.964046901295326 ], [ 13.284308164524818, 52.962284468460155 ], [ 13.307620738938539, 52.959777422074993 ], [ 13.330680387915923, 52.956532765393717 ], [ 13.353422812416408, 52.952559558717958 ], [ 13.375784647353132, 52.947868892685996 ], [ 13.397703646764377, 52.942473855621607 ], [ 13.419118865044133, 52.936389495058926 ], [ 13.439970833614456, 52.929632773578639 ], [ 13.460201732447096, 52.922222519110385 ], [ 13.47975555586882, 52.914179369874425 ], [ 13.49857827211528, 52.905525714153505 ], [ 13.516617976130558, 52.896285625101584 ], [ 13.533825035144273, 52.886484790812098 ], [ 13.550152226593793, 52.876150439882394 ], [ 13.565554867997635, 52.865311262724092 ], [ 13.579990938424336, 52.853997328880787 ], [ 13.593421191241216, 52.84224000062536 ], [ 13.605809257867378, 52.830071843118205 ], [ 13.617121742295961, 52.817526531415922 ], [ 13.627328306190774, 52.804638754626467 ], [ 13.636401744402733, 52.791444117512626 ], [ 13.64431805079035, 52.777979039849313 ], [ 13.651056474267612, 52.764280653843954 ], [ 13.656599565039393, 52.750386699930019 ], [ 13.660933211020865, 52.736335421245471 ], [ 13.66404666447187, 52.722165457106428 ], [ 13.665932558910013, 52.707915735785569 ], [ 13.666586916397252, 52.693625366901756 ], [ 13.666009145324415, 52.67933353372441 ] ] ] } }
]
}
