{
"type": "FeatureCollection",
"name": "Germany-RN",
"crs": { "type": "name", "properties": { "name": "urn:ogc:def:crs:OGC:1.3:CRS84" } },
"features": [
{ "type": "Feature", "properties": { "source": "https://simplemaps.com", "name": "Sachsen", "id": "DESN", "join_name": "sachsen", "Population": 4048556, "pop": 4048556 }, "geometry": { "type": "Polygon", "coordinates": [ [ [ 12.530105997274074, 50.570894832701498 ], [ 12.402229559861276, 50.637410459502782 ], [ 12.458228507531741, 50.72258820071194 ], [ 12.56044167916399, 50.732914159481965 ], [ 12.648405581628632, 50.809028781504857 ], [ 12.635416005772834, 50.882654002107174 ], [ 12.890139495102458, 50.952048882915811 ], [ 12.783998780616637, 51.055613427676271 ], [ 12.641213423907525, 51.072614637244648 ], [ 12.556212014537548, 51.208584809236363 ], [ 12.573217219259789, 51.311101319970142 ], [ 12.624787521689044, 51.384730417695081 ], [ 12.760183290228325, 51.409958857459429 ], [ 12.902210255497954, 51.409622239044452 ], [ 13.066390392109986, 51.440952670733161 ], [ 13.161774633313133, 51.418147974028315 ], [ 13.233092953550544, 51.38621015523141 ], [ 13.285433244628434, 51.268137798394669 ], [ 13.388608856385252, 51.29173066242506 ], [ 13.460827563241645, 51.256227030262473 ], [ 13.752770454342258, 51.251523593768717 ], [ 13.874692297969844, 51.361180461759595 ], [ 13.991655350873442, 51.350441850465415 ], [ 14.102325167551097, 51.381412480844652 ], [ 14.230760419947501, 51.371447322989333 ], [ 14.386349678052586, 51.312355170311193 ], [ 14.436224981674581, 51.196795565542516 ], [ 14.396078718686809, 51.061139101893531 ], [ 14.280466177866213, 50.896824103221562 ], [ 14.174307062350044, 50.917668314580169 ], [ 14.187885794390411, 50.959353010387112 ], [ 14.092712416741145, 51.033457983163409 ], [ 13.960686895277428, 51.041725863820858 ], [ 14.022826871294486, 50.966263158614133 ], [ 13.665907873130205, 50.836817092709474 ], [ 13.51383195201595, 50.829132910498608 ], [ 13.413176721182051, 50.754147742518867 ], [ 13.27206138003541, 50.744209647502849 ], [ 13.224689767121387, 50.688783328008554 ], [ 13.126119636662667, 50.686031039466329 ], [ 13.066156139790719, 50.62917064151857 ], [ 13.005554664996607, 50.652751171022594 ], [ 12.909097303937774, 50.621813872158754 ], [ 12.798582778902798, 50.618829029248531 ], [ 12.68405759484367, 50.534242125713426 ], [ 12.530105997274074, 50.570894832701498 ] ] ] } },
{ "type": "Feature", "properties": { "source": "https://simplemaps.com", "name": "Bayern", "id": "DEBY", "join_name": "bayern", "Population": 13212677, "pop": 13212677 }, "geometry": { "type": "Polygon", "coordinates": [ [ [ 11.706995899147319, 49.82304503535785 ], [ 11.823411434200221, 49.762635214270944 ], [ 11.810748445990933, 49.719887072870904 ], [ 11.872185345894584, 49.676893510435129 ], [ 11.910799381191453, 49.601604268422292 ], [ 12.042607802727211, 49.557258214300887 ], [ 12.076202467850024, 49.518263221464409 ], [ 11.993490666137246, 49.420776293220584 ], [ 12.137412180791042, 49.281663332813011 ], [ 12.150171737697715, 49.233550023407417 ], [ 12.242914765314591, 49.173053642771059 ], [ 12.363884751379201, 49.153965111586665 ], [ 12.472197837086007, 49.048766993783303 ], [ 12.544852720172541, 49.034434343514405 ], [ 12.655793926664897, 48.941699515761428 ], [ 12.731457800423859, 48.9473879609344 ], [ 12.857629357760192, 48.840684989888246 ], [ 12.851394093128432, 48.747886661217841 ], [ 12.799449503401226, 48.694405398676409 ], [ 12.682402271918269, 48.730268856135517 ], [ 12.615161775278439, 48.605105038956225 ], [ 12.536686338508559, 48.562923427405295 ], [ 12.391589842111893, 48.535931891048534 ], [ 12.219096697857395, 48.449362816702099 ], [ 12.228608131754909, 48.415991120829304 ], [ 12.36958777655251, 48.286215097079896 ], [ 12.310440881173832, 48.211849618957231 ], [ 12.4216458810868, 48.166386615966289 ], [ 12.400055356215725, 48.074210032027025 ], [ 12.342763780967458, 48.060374802949589 ], [ 12.243063568151475, 48.110403272059095 ], [ 12.221738793104926, 48.176539647404162 ], [ 12.071636276341188, 48.154054146711637 ], [ 12.027482990188515, 48.191438094370589 ], [ 11.893294461548519, 48.182761114243959 ], [ 11.871332373036179, 48.138467346583589 ], [ 11.732169814134513, 48.142214515975404 ], [ 11.662254940670948, 48.120859263685489 ], [ 11.54115860501949, 48.129340661607245 ], [ 11.499254132105559, 48.083799000337869 ], [ 11.4152562885872, 48.079230947981948 ], [ 11.321957785583331, 48.01612544291492 ], [ 11.215740575884622, 48.009503479966675 ], [ 11.038121114688316, 48.085642892917861 ], [ 10.927742465941984, 48.11361096678899 ], [ 10.820451856377479, 48.101912059024052 ], [ 10.832697594871172, 48.039909270393615 ], [ 10.743433066891129, 47.958405283306199 ], [ 10.528120255046501, 48.092453401977799 ], [ 10.289068633614344, 48.098978119956577 ], [ 10.324716134207925, 48.131701357700337 ], [ 10.478255948970858, 48.182956593523024 ], [ 10.639808745796223, 48.189985177738848 ], [ 10.614642505527231, 48.353314696384388 ], [ 10.645247779508518, 48.441275899552188 ], [ 10.596985738967236, 48.559900616486061 ], [ 10.553212047864529, 48.605956951325908 ], [ 10.606406964356783, 48.660168147850641 ], [ 10.755320890908333, 48.694789136900226 ], [ 10.754611666903164, 48.740985182999651 ], [ 10.821828812085828, 48.796961115113213 ], [ 10.848720376757143, 48.924534773134319 ], [ 10.781520248692996, 48.995737365043588 ], [ 10.733828956382661, 49.005992827665423 ], [ 10.658420827374769, 49.099350153324274 ], [ 10.673978768910752, 49.20652986918379 ], [ 10.648772509663468, 49.28284447478287 ], [ 10.534493165659574, 49.265602340022902 ], [ 10.531112867358573, 49.306757074607241 ], [ 10.450615567693726, 49.410080831532149 ], [ 10.368062993340619, 49.440802752496026 ], [ 10.188868613275599, 49.450044646791895 ], [ 10.232941741814601, 49.403225170322401 ], [ 10.12803297406151, 49.325711649801164 ], [ 10.04290591603932, 49.324924716650287 ], [ 10.066284614946026, 49.427301815997374 ], [ 9.996803733229527, 49.524508992361746 ], [ 9.989330624279539, 49.63814663301126 ], [ 10.119547122245571, 49.665229981346855 ], [ 10.224628513889902, 49.633579637687312 ], [ 10.284109281260342, 49.642608802930653 ], [ 10.287921843329228, 49.719379672365939 ], [ 10.376941810383929, 49.717677543933021 ], [ 10.440913216320448, 49.817843839377161 ], [ 10.579871886113576, 49.844864872880706 ], [ 10.612394389060325, 49.885501113752454 ], [ 10.720583457547447, 49.881180368799079 ], [ 10.929425544993883, 49.768178076189542 ], [ 11.046024619844756, 49.805868499555309 ], [ 11.336968928550435, 49.788913635869228 ], [ 11.31832594464656, 49.857261212847824 ], [ 11.376369989222649, 49.884869713179491 ], [ 11.485852039637431, 49.800774705309102 ], [ 11.706995899147319, 49.82304503535785 ] ] ] } },
{ "type": "Feature", "properties": { "source": "https://simplemaps.com", "name": "Rheinland-Pfalz", "id": "DERP", "join_name": "rheinlandpfalz", "Population": 4127366, "pop": 4127366 }, "geometry": { "type": "Polygon", "coordinates": [ [ [ 6.774165845426245, 50.168877209546899 ], [ 6.907491696254172, 50.202635936056829 ], [ 7.038743120214628, 50.188599671371776 ], [ 7.017269571113571, 50.26106383520046 ], [ 7.129775557493391, 50.313776492054544 ], [ 7.400414259289932, 50.368787362049524 ], [ 7.410042638057478, 50.40721333996035 ], [ 7.542980351220923, 50.425979945378508 ], [ 7.649713036831404, 50.502493816993926 ], [ 7.757256963582527, 50.488258655111487 ], [ 7.828733038004374, 50.399560341782802 ], [ 7.877658996789262, 50.395337102030311 ], [ 7.896361530768457, 50.333550603730409 ], [ 7.794182157627139, 50.284895890941556 ], [ 7.808304139725262, 50.209580309270272 ], [ 7.871621495240686, 50.139717793045932 ], [ 7.745977693214599, 50.090503834129201 ], [ 7.729893622079003, 50.040524404301003 ], [ 7.651522906359408, 49.998114119802587 ], [ 7.744221438420571, 49.948132526785564 ], [ 7.904511904371454, 49.99369979955484 ], [ 8.006503927953036, 49.939752641315373 ], [ 8.07283738852518, 49.793249865298208 ], [ 8.023608799404423, 49.754039194240896 ], [ 8.059489099647923, 49.700652160990295 ], [ 8.10879171693861, 49.614699410453781 ], [ 8.100669423552969, 49.523030896002098 ], [ 8.03830427123251, 49.471141700924612 ], [ 8.023888271535595, 49.404840946540673 ], [ 7.924872177003249, 49.309356939007614 ], [ 7.754821241560729, 49.357205685323947 ], [ 7.575488715143824, 49.357554756017677 ], [ 7.399933431646891, 49.439609756861628 ], [ 7.351254405691485, 49.464161702522304 ], [ 7.408539230699275, 49.567669422637735 ], [ 7.334385396046328, 49.699114556648198 ], [ 7.125582671024176, 49.729967333836228 ], [ 6.916255863932449, 49.669416283179913 ], [ 6.754474098136638, 49.6668319436668 ], [ 6.844439958305914, 49.778136029782438 ], [ 6.851178969169126, 49.835927841259931 ], [ 6.677006817289071, 49.894860796550589 ], [ 6.598579653183845, 49.996831614769533 ], [ 6.631345473762031, 50.100803872590674 ], [ 6.774165845426245, 50.168877209546899 ] ] ] } },
{ "type": "Feature", "properties": { "source": "https://simplemaps.com", "name": "Saarland", "id": "DESL", "join_name": "saarland", "Population": 1013094, "pop": 1013094 }, "geometry": { "type": "Polygon", "coordinates": [ [ [ 6.438066778445921, 49.504882801597233 ], [ 6.656867786874482, 49.508944962832302 ], [ 6.939695188536154, 49.591672054936332 ], [ 7.222338604937543, 49.550171265134317 ], [ 7.322957222753899, 49.37187209500356 ], [ 7.245816322289603, 49.231333800667045 ], [ 7.311618045475102, 49.198068676309887 ], [ 7.223153012540579, 49.1463237800344 ], [ 6.860275305394826, 49.236309842772116 ], [ 6.759477255112603, 49.188932952720343 ], [ 6.630407984241757, 49.365123271538991 ], [ 6.438066778445921, 49.504882801597233 ] ] ] } },
{ "type": "Feature", "properties": { "source": "https://simplemaps.com", "name": "Schleswig-Holstein", "id": "DESH", "join_name": "schleswigholstein", "Population": 2956360, "pop": 2956360 }, "geometry": { "type": "Polygon", "coordinates": [ [ [ 10.492867859300231, 54.043890223320759 ], [ 10.406065700442781, 53.984936171045177 ], [ 10.405251685022607, 53.912693696813548 ], [ 10.514199210205444, 53.875208556107175 ], [ 10.524910959261714, 53.802878994636551 ], [ 10.329671745438146, 53.728508025877893 ], [ 10.308992874420817, 53.683657225881369 ], [ 10.140834554383071, 53.72044830835344 ], [ 10.051715663376749, 53.779103914445805 ], [ 10.075764067712106, 53.843028318515671 ], [ 10.026250792699416, 53.891591549795628 ], [ 9.780133391257127, 53.805622843563235 ], [ 9.663626270816149, 53.84354239597068 ], [ 9.568683921454529, 53.963524035605026 ], [ 9.461922944059054, 54.000184855741608 ], [ 9.331814855452507, 54.001526990419741 ], [ 9.225874072538266, 54.08969756717466 ], [ 9.339194124734007, 54.126869181352916 ], [ 9.214184197321019, 54.177647851500645 ], [ 9.260695512046178, 54.252848431199141 ], [ 9.116593825664669, 54.235581338853798 ], [ 9.103535600843939, 54.304496035223778 ], [ 9.244697656610944, 54.319949566235117 ], [ 9.337013528877012, 54.376156509199177 ], [ 9.142142799634865, 54.516509444602548 ], [ 9.126289131367738, 54.614837989367722 ], [ 9.225426570288242, 54.62034398916569 ], [ 9.449767988235433, 54.585878542787448 ], [ 9.468784145939347, 54.558686161631734 ], [ 9.66781924321535, 54.583548399556996 ], [ 9.920201249071729, 54.531930897065152 ], [ 9.957610584267632, 54.464899711795908 ], [ 9.950501609390507, 54.399634185221615 ], [ 10.062479903031122, 54.347952092818304 ], [ 10.412162710177631, 54.259640771870338 ], [ 10.508180702336348, 54.299261171031176 ], [ 10.594993871722242, 54.276807892103704 ], [ 10.589506746048693, 54.180156101387027 ], [ 10.398639057799429, 54.09405893234414 ], [ 10.492867859300231, 54.043890223320759 ] ] ] } },
{ "type": "Feature", "properties": { "source": "https://simplemaps.com", "name": "Niedersachsen", "id": "DENI", "join_name": "niedersachsen", "Population": 8006312, "pop": 8006312 }, "geometry": { "type": "Polygon", "coordinates": [ [ [ 9.972239110807344, 53.109150748048236 ], [ 10.250000424437774, 52.981698714671012 ], [ 10.354676118428541, 52.967341976433154 ], [ 10.529384120424488, 52.92640201388182 ], [ 10.485818502797706, 52.870025734217229 ], [ 10.352001735015492, 52.83115783264806 ], [ 10.210182564632536, 52.849610694570814 ], [ 10.067735260880335, 52.807030870863926 ], [ 10.065300626815072, 52.777582108183218 ], [ 10.178286744893258, 52.668655400922084 ], [ 10.171831876237615, 52.594205711240683 ], [ 10.256201392908972, 52.460319422678715 ], [ 10.179510430295323, 52.364819648404428 ], [ 10.016981448419259, 52.356499340546414 ], [ 9.977192368194169, 52.317386917747392 ], [ 10.006325336893957, 52.265006213403019 ], [ 9.975891369084529, 52.204926258954124 ], [ 10.041396161093674, 52.125538642657204 ], [ 10.01694934073962, 52.091869036107049 ], [ 9.851053099387466, 52.07074889242967 ], [ 9.728287195911843, 52.007502718853303 ], [ 9.613331572453349, 51.97877364171395 ], [ 9.532062620147798, 51.992999746707852 ], [ 9.46027905691097, 51.940495296468384 ], [ 9.410443083472543, 52.051944474662562 ], [ 9.425394394498465, 52.118832741060942 ], [ 9.320245918713548, 52.1298005359426 ], [ 9.291342266999624, 52.175356546156657 ], [ 9.331882469578922, 52.233408222354662 ], [ 9.188200056423939, 52.312698453086469 ], [ 9.145647434204735, 52.40363047046089 ], [ 9.070376812318505, 52.404504027439003 ], [ 9.058879269683402, 52.479146781861985 ], [ 9.141617533523583, 52.560510403706381 ], [ 8.901603043577586, 52.560058748789579 ], [ 8.85946328441138, 52.626298924656666 ], [ 8.782384981224979, 52.616584532605472 ], [ 8.689319339089415, 52.555475095578934 ], [ 8.742618032003156, 52.53741388339013 ], [ 8.775209194394485, 52.425726866725888 ], [ 8.72212950892111, 52.392517554584337 ], [ 8.64987172084504, 52.405411587431473 ], [ 8.510213127625594, 52.367648268463789 ], [ 8.507783428628848, 52.42891437510378 ], [ 8.442982675372983, 52.44408658316479 ], [ 8.48361652413263, 52.507290448176995 ], [ 8.277345436004154, 52.601037202309207 ], [ 8.249415653056673, 52.542354460097783 ], [ 8.099762176492913, 52.486526088904888 ], [ 7.943217708228465, 52.468829100502496 ], [ 7.957015480982855, 52.54046748152583 ], [ 7.757407731203197, 52.604828385670096 ], [ 7.763186486907958, 52.686202263638748 ], [ 7.953742148137631, 52.700665918787628 ], [ 7.98068814747162, 52.817932425348282 ], [ 8.040742096620502, 52.880867016592497 ], [ 8.050071226757865, 53.03904149235845 ], [ 7.983782869423124, 53.092050350614883 ], [ 7.955891080386039, 53.156330458513239 ], [ 7.993290457892162, 53.233409938966012 ], [ 8.072565817605813, 53.278013757014804 ], [ 8.480675055966326, 53.307126470811518 ], [ 8.601351491621752, 53.210934694923175 ], [ 8.539562667010285, 53.18212904174289 ], [ 8.621583062013656, 53.130020937840442 ], [ 8.68696248722115, 53.185695681640212 ], [ 8.820277845052898, 53.191427001960207 ], [ 8.858876600007454, 53.239600639623056 ], [ 8.795782265008977, 53.246600726691824 ], [ 8.784446863671119, 53.302257699560549 ], [ 8.830481609846757, 53.382993105202083 ], [ 8.893023947121328, 53.400369503898979 ], [ 8.991684011203374, 53.367612476664846 ], [ 9.223970994539313, 53.386899882933683 ], [ 9.388614382966962, 53.236410448257239 ], [ 9.499554780866383, 53.207161528135408 ], [ 9.581931609008413, 53.133841727072095 ], [ 9.679697876017674, 53.15275392470695 ], [ 9.738226560911633, 53.126575216878152 ], [ 9.817757700657808, 53.142927485404385 ], [ 9.972239110807344, 53.109150748048236 ] ], [ [ 8.821120285253059, 53.017046965620132 ], [ 8.901026891360614, 52.941609164258054 ], [ 9.020732481388112, 52.910117939115402 ], [ 9.063459035768433, 52.949223005168939 ], [ 8.925517551006138, 53.004967266785634 ], [ 8.821120285253059, 53.017046965620132 ] ] ] } },
{ "type": "Feature", "properties": { "source": "https://simplemaps.com", "name": "Nordrhein-Westfalen", "id": "DENW", "join_name": "nordrheinwestfalen", "Population": 18025987, "pop": 18025987 }, "geometry": { "type": "Polygon", "coordinates": [ [ [ 8.13447, 50.684037997069595 ], [ 8.056284, 50.690910997071313 ], [ 7.942544, 50.83203999710495 ], [ 7.770461, 50.854880997110328 ], [ 7.599464, 50.733440997081466 ], [ 7.386867, 50.703649997074358 ], [ 7.371519, 50.642593997059613 ], [ 6.939349, 50.554769997038335 ], [ 6.760136, 50.470665997017868 ], [ 6.795017, 50.355608996989488 ], [ 6.585573, 50.377389996994857 ], [ 6.3734, 50.323079996981427 ], [ 6.318715, 50.481673997020515 ], [ 6.232932, 50.587145997046193 ], [ 5.972999, 50.781810997093032 ], [ 6.063743, 50.907539997122804 ], [ 5.982921, 51.074686997161798 ], [ 6.132369, 51.139824997176781 ], [ 6.06519, 51.231628997197852 ], [ 6.183632, 51.335704997221455 ], [ 6.193348, 51.509337997260324 ], [ 6.099193, 51.644471997290118 ], [ 5.939306, 51.731881997309152 ], [ 5.928041, 51.806734997325329 ], [ 6.22518, 51.862545997337335 ], [ 6.382483, 51.827586997329796 ], [ 6.716675, 51.899261997345157 ], [ 6.804008, 51.984372997363224 ], [ 6.675024, 52.034808997373908 ], [ 7.0266, 52.238622997416371 ], [ 7.300568, 52.271796997423223 ], [ 7.561585, 52.371841997443667 ], [ 7.609076, 52.475556997464707 ], [ 7.97355, 52.312103997431493 ], [ 7.90358, 52.200379997408525 ], [ 8.017475, 52.174127997403076 ], [ 8.022901, 52.066149997380485 ], [ 8.266865, 52.133613997394583 ], [ 8.393628, 52.111263997389926 ], [ 8.486232, 52.170045997402219 ], [ 8.427734, 52.366777997442661 ], [ 8.33389, 52.398351997449041 ], [ 8.49667, 52.506510997470834 ], [ 8.632114, 52.523925997474372 ], [ 8.706735, 52.407291997450884 ], [ 9.128363, 52.408454997451081 ], [ 8.983256, 52.26497499742181 ], [ 9.003616, 52.133406997394552 ], [ 9.135494, 52.131908997394277 ], [ 9.20996, 51.971607997360564 ], [ 9.460901, 51.831668997330702 ], [ 9.389846, 51.729400997308609 ], [ 9.440075, 51.649043997291095 ], [ 9.335999, 51.553958997270179 ], [ 9.108674, 51.442906997245501 ], [ 9.015398, 51.509155997260258 ], [ 8.906154, 51.480914997253947 ], [ 8.935145, 51.391281997233953 ], [ 8.685496, 51.363428997227658 ], [ 8.750195, 51.172793997184371 ], [ 8.36412, 50.861598997111926 ], [ 8.139276, 50.784961997093724 ], [ 8.13447, 50.684037997069595 ] ] ] } },
{ "type": "Feature", "properties": { "source": "https://simplemaps.com", "name": "Baden-Württemberg", "id": "DEBW", "join_name": "badenwürttemberg", "Population": 11238319, "pop": 11238319 }, "geometry": { "type": "Polygon", "coordinates": [ [ [ 9.096535059607294, 49.340326131215136 ], [ 9.206165845880138, 49.342249596992744 ], [ 9.339475174072124, 49.443147150601646 ], [ 9.281555614293083, 49.502979365383851 ], [ 9.512761133589311, 49.492883278280722 ], [ 9.619850298989142, 49.454119781268552 ], [ 9.725794682975254, 49.321827755598257 ], [ 9.73101849929164, 49.268865264559629 ], [ 9.877834156941155, 49.292098123004635 ], [ 9.91182587690666, 49.194050463843723 ], [ 9.893943891142595, 49.055899042529653 ], [ 9.992764961043338, 48.936334185646814 ], [ 10.054283484807415, 48.923530954658439 ], [ 10.141997945108953, 48.832395646212817 ], [ 10.109789865570619, 48.667891814660038 ], [ 10.024515457734097, 48.595247667194876 ], [ 10.026293587712569, 48.535763578665943 ], [ 9.835838450945342, 48.48988720608979 ], [ 9.768665430821692, 48.419596299440535 ], [ 9.825732703976971, 48.360680355188208 ], [ 9.889923616662038, 48.208342623616716 ], [ 9.85240251466694, 48.094794029552986 ], [ 9.887759206744361, 47.884672309580608 ], [ 9.68112009362944, 47.87416037086161 ], [ 9.485692409137382, 47.806685151878028 ], [ 9.440779495891917, 47.764191181113119 ], [ 9.222882208382584, 47.854588795832001 ], [ 9.024026170505866, 47.876782844870661 ], [ 8.938490662080831, 47.855879562849701 ], [ 8.854374660569878, 47.908576502481381 ], [ 8.669080260801648, 47.971330730196122 ], [ 8.539344117788703, 47.887332309844808 ], [ 8.583971345659235, 47.80404264909874 ], [ 8.374893860053726, 47.828683565368856 ], [ 8.30361043910429, 47.791447719145026 ], [ 8.096303545635738, 47.813486804403524 ], [ 7.990491086229937, 47.774343965057916 ], [ 7.865818005629797, 47.872084053576366 ], [ 7.869597008780483, 47.959076420404557 ], [ 7.942696510677863, 48.128260955564492 ], [ 7.907338032999069, 48.19961929643955 ], [ 8.047184369589091, 48.400180670595752 ], [ 8.09334058692499, 48.600486072218679 ], [ 8.217248828274286, 48.709997336441468 ], [ 8.319710767942595, 48.759203589463212 ], [ 8.39501741909493, 48.864761265934902 ], [ 8.516537178660188, 48.981359032387751 ], [ 8.534895251730353, 49.062604033552638 ], [ 8.611409714621697, 49.1259067652216 ], [ 8.622481222062026, 49.238297924038676 ], [ 8.563584842310853, 49.343995642729304 ], [ 8.759290099563497, 49.377056577984646 ], [ 8.879668908787584, 49.284559456412779 ], [ 8.870605608205976, 49.206901905963896 ], [ 9.03845696496853, 49.283363476032882 ], [ 9.096535059607294, 49.340326131215136 ] ] ] } },
{ "type": "Feature", "properties": { "source": "https://simplemaps.com", "name": "Brandenburg", "id": "DEBB", "join_name": "brandenburg", "Population": 2555606, "pop": 2555606 }, "geometry": { "type": "Polygon", "coordinates": [ [ [ 13.264044402400859, 52.121294301139116 ], [ 13.312945870042824, 52.158802609231451 ], [ 13.266329780924529, 52.216813036267794 ], [ 13.104971481608032, 52.274271078412262 ], [ 13.005542889100917, 52.281600667880156 ], [ 12.917020562537253, 52.35540011141493 ], [ 12.937935897232784, 52.455180126831351 ], [ 12.899259556758713, 52.48661667128124 ], [ 12.9230926629166, 52.625601607534776 ], [ 12.828152576996333, 52.633990695940064 ], [ 12.748121352100199, 52.678800992779642 ], [ 12.676122451019339, 52.698628710342852 ], [ 12.554415017190141, 52.72987008574691 ], [ 12.66675624602907, 52.740218161630871 ], [ 12.725459491965593, 52.780845532424635 ], [ 12.78057285828597, 52.771582810500554 ], [ 12.91989499514278, 52.827920542164179 ], [ 13.015947314591754, 52.786985532699553 ], [ 13.048604827156714, 52.788527617746539 ], [ 13.242775270029307, 52.745665518815123 ], [ 13.303829062861224, 52.782414134695195 ], [ 13.403987354448709, 52.78854953552753 ], [ 13.456810108697091, 52.837626612572926 ], [ 13.587627888832715, 52.882621620699091 ], [ 13.608224824388198, 52.850141478775953 ], [ 13.735994706901423, 52.850586183885383 ], [ 13.681307698191601, 52.78818156444558 ], [ 13.739287294873911, 52.783030639928064 ], [ 13.79550372247285, 52.813410327222563 ], [ 13.816004906839694, 52.780465032571563 ], [ 13.777999061073016, 52.69854105541544 ], [ 13.699052235486484, 52.662529276229392 ], [ 13.728263874736026, 52.605562950941923 ], [ 13.901506228464157, 52.509504554038784 ], [ 13.860309967071055, 52.446896018141217 ], [ 13.888120311754742, 52.388293386806225 ], [ 13.92468741837323, 52.379564100882781 ], [ 13.921345589203094, 52.326273941717091 ], [ 13.951975040137897, 52.308632999422741 ], [ 13.926359117145829, 52.250062023769047 ], [ 13.882701292528198, 52.198489945621724 ], [ 13.937829409702818, 52.147249891115372 ], [ 13.933545996119689, 52.093008393898735 ], [ 13.853069123988535, 52.09897223504818 ], [ 13.783831116791189, 52.079753125393673 ], [ 13.710537051347067, 52.086263391410142 ], [ 13.634298053794256, 52.018584403357231 ], [ 13.451257864563786, 52.021399047396073 ], [ 13.406001203485182, 52.043288464383131 ], [ 13.34130632053197, 52.028770604132305 ], [ 13.308656540359451, 52.101571149090312 ], [ 13.264044402400859, 52.121294301139116 ] ], [ [ 13.491516748600567, 52.473299966742282 ], [ 13.443173429894067, 52.521328500760667 ], [ 13.361482533545576, 52.537870055275889 ], [ 13.304351553779759, 52.517408771471061 ], [ 13.277819125599903, 52.44240560613234 ], [ 13.425107535348975, 52.443536870363531 ], [ 13.497270496634702, 52.427192546428216 ], [ 13.491516748600567, 52.473299966742282 ] ] ] } },
{ "type": "Feature", "properties": { "source": "https://simplemaps.com", "name": "Mecklenburg-Vorpommern", "id": "DEMV", "join_name": "mecklenburgvorpommern", "Population": 1575819, "pop": 1575819 }, "geometry": { "type": "Polygon", "coordinates": [ [ [ 11.764810846943297, 53.592679723060023 ], [ 11.778210679960701, 53.619650023067152 ], [ 11.897418938021296, 53.663257143171322 ], [ 11.892380487650774, 53.707064562287435 ], [ 11.827519009530373, 53.730482241337675 ], [ 11.829475020207703, 53.774158069751053 ], [ 11.882872584055558, 53.809204433653164 ], [ 11.982216292329534, 53.829448201558314 ], [ 12.006671905276802, 53.802421296198794 ], [ 12.08599691023579, 53.791442091067687 ], [ 12.098488157714858, 53.822994815400008 ], [ 12.160174530965106, 53.874352038425805 ], [ 12.325663813147274, 53.888917673311255 ], [ 12.41121780555256, 53.933456084196479 ], [ 12.469629209065884, 53.996063252967851 ], [ 12.606379171404093, 53.956315084382439 ], [ 12.654688723503289, 53.983249496616224 ], [ 12.694033375146978, 53.925038210067669 ], [ 12.757897005201526, 53.908405842083639 ], [ 12.828268235629787, 53.868477265338562 ], [ 12.902870841939409, 53.884732368428267 ], [ 12.949055254179635, 53.861654914872211 ], [ 12.931259025072464, 53.834328131735454 ], [ 12.980690855727616, 53.79108740303878 ], [ 12.954602192194463, 53.778009363472968 ], [ 13.016485358195995, 53.74007827093034 ], [ 13.120056403195084, 53.732712360404612 ], [ 13.137153603764627, 53.643122862461759 ], [ 13.171227553492601, 53.579029522663625 ], [ 13.119096974664714, 53.550881390117922 ], [ 13.06486544561181, 53.555338173994578 ], [ 13.115160352386829, 53.612871518562621 ], [ 12.995810429441409, 53.611868495925521 ], [ 12.976161113651234, 53.641585127054661 ], [ 12.854524011610652, 53.599687148214215 ], [ 12.805784700333286, 53.554402479909037 ], [ 12.712291690301482, 53.548320440969015 ], [ 12.655699335752397, 53.514318865536332 ], [ 12.473790453236369, 53.552805109199653 ], [ 12.443300837024564, 53.551247868964587 ], [ 12.353091978603615, 53.588405217431571 ], [ 12.22359901642535, 53.536103656137747 ], [ 12.172007343690012, 53.544373354941222 ], [ 12.117630728222291, 53.506838951643203 ], [ 12.012796815244627, 53.496876297829274 ], [ 11.944233049771295, 53.507164738938798 ], [ 11.764810846943297, 53.592679723060023 ] ] ] } },
{ "type": "Feature", "properties": { "source": "https://simplemaps.com", "name": "Bremen", "id": "DEHB", "join_name": "bremen", "Population": 703768, "pop": 703768 }, "geometry": { "type": "Polygon", "coordinates": [ [ [ 8.254592776183657, 53.796320721277581 ], [ 8.922748859353435, 53.724446744166997 ], [ 8.518185216674199, 53.220363758433649 ], [ 8.254592776183657, 53.796320721277581 ] ] ] } },
{ "type": "Feature", "properties": { "source": "https://simplemaps.com", "name": "Hamburg", "id": "DEHH", "join_name": "hamburg", "Population": 1857081, "pop": 1857081 }, "geometry": { "type": "Polygon", "coordinates": [ [ [ 9.377724195561749, 53.606141951812816 ], [ 10.273581544518015, 53.920467383661297 ], [ 10.452822735971068, 53.742771976606846 ], [ 10.36355009667999, 53.509722130378471 ], [ 10.684021168066424, 53.294517990723563 ], [ 10.369725974944609, 53.232255658175383 ], [ 10.140463273843547, 53.33607721315105 ], [ 9.754669645141318, 53.262830119414609 ], [ 9.429790134019868, 53.5508400250758 ], [ 9.377724195561749, 53.606141951812816 ] ] ] } },
{ "type": "Feature", "properties": { "source": "https://simplemaps.com", "name": "Hessen", "id": "DEHE", "join_name": "hessen", "Population": 6274170, "pop": 6274170 }, "geometry": { "type": "Polygon", "coordinates": [ [ [ 9.808239339758462, 50.537270836864465 ], [ 9.767468439222622, 50.485652144502012 ], [ 9.59016270586489, 50.450236009965714 ], [ 9.510583503592974, 50.32310831519095 ], [ 9.396655248663471, 50.324384740581849 ], [ 9.39359442434462, 50.227381884764526 ], [ 9.31774986183123, 50.215379925346419 ], [ 9.182598715653453, 50.254272078093976 ], [ 9.016768417372374, 50.218674696273759 ], [ 9.029241151878661, 50.075229503323158 ], [ 9.120451932725986, 49.953199821237313 ], [ 9.093152932460651, 49.823644878659984 ], [ 9.035612795003932, 49.767767160718321 ], [ 8.869300467164978, 49.69275969585064 ], [ 8.87827009069734, 49.768934949134533 ], [ 8.758974697054313, 49.85966357798835 ], [ 8.565056491669855, 49.827230818997293 ], [ 8.522436709846934, 49.891653292461385 ], [ 8.582331013737223, 49.938565560500031 ], [ 8.5040993261573, 50.115178951165845 ], [ 8.381583380104209, 50.180608144447561 ], [ 8.18747221236741, 50.126563557367319 ], [ 8.076057048250151, 50.187121573178906 ], [ 8.171188098704585, 50.237788657934523 ], [ 8.191176606189767, 50.297844543983338 ], [ 8.343583061832017, 50.356448261676327 ], [ 8.267863206331814, 50.440810138921641 ], [ 8.251657171399657, 50.531490503109225 ], [ 8.375822368618772, 50.589525390090408 ], [ 8.353942895467437, 50.66395406474485 ], [ 8.357937924668578, 50.740369282804508 ], [ 8.528232477788148, 50.798118441869455 ], [ 8.820535179593749, 51.033468697038998 ], [ 8.771968233751297, 51.17785865043696 ], [ 8.960256347255887, 51.198858603481057 ], [ 8.938446680685264, 51.266738284586687 ], [ 9.020785553576088, 51.288109816787014 ], [ 9.091092379638884, 51.237946334601673 ], [ 9.262327136686523, 51.322106114059245 ], [ 9.340582703457819, 51.394166740704073 ], [ 9.478651152152997, 51.379479951597119 ], [ 9.458914416631934, 51.290196272066453 ], [ 9.524106733536124, 51.141383070602394 ], [ 9.618393508857167, 51.211413061802581 ], [ 9.724974209190069, 51.192329915918606 ], [ 9.723584048648721, 51.133375760660385 ], [ 9.937837388729349, 51.043262131130135 ], [ 9.872089907331237, 50.9453518389858 ], [ 9.803344521638801, 50.908688605049015 ], [ 9.807478752849875, 50.814509179040321 ], [ 9.727153740199741, 50.763279552099291 ], [ 9.700216035091966, 50.670450022589286 ], [ 9.805400102214119, 50.65316885718304 ], [ 9.808239339758462, 50.537270836864465 ] ] ] } },
{ "type": "Feature", "properties": { "source": "https://simplemaps.com", "name": "Thüringen", "id": "DETH", "join_name": "thüringen", "Population": 2107574, "pop": 2107574 }, "geometry": { "type": "Polygon", "coordinates": [ [ [ 11.654817270053409, 50.99505894571876 ], [ 11.765634953561886, 50.982831746590122 ], [ 11.849606850488195, 50.903250412151777 ], [ 11.653449509135331, 50.84770926572341 ], [ 11.664718978090169, 50.790700091393632 ], [ 11.597757278213516, 50.731099728722207 ], [ 11.518667061929834, 50.722438460827611 ], [ 11.476551742331056, 50.6560339109202 ], [ 11.286683723988117, 50.636895342773393 ], [ 11.19238273228426, 50.707702314516823 ], [ 11.14261864064159, 50.6843298781614 ], [ 11.158834541093555, 50.626681902122762 ], [ 10.908878460615512, 50.640653733803639 ], [ 10.80880263986125, 50.6087408746885 ], [ 10.629227793430095, 50.703931229358197 ], [ 10.536313635121404, 50.707511166989676 ], [ 10.535617161400463, 50.78494261026357 ], [ 10.465342223557428, 50.796942570243836 ], [ 10.484391325472336, 50.858834027932808 ], [ 10.538697059745202, 50.89270983997033 ], [ 10.536922117583103, 50.955640270029598 ], [ 10.583267086786297, 50.97984526721315 ], [ 10.628193798164554, 51.044985754983259 ], [ 10.486051186324827, 51.106079219200637 ], [ 10.487629115066598, 51.145455963762508 ], [ 10.588748975269754, 51.170324205506944 ], [ 10.69725373190802, 51.22593684034976 ], [ 10.842786840398807, 51.243728321551302 ], [ 10.864718500295458, 51.273602521780411 ], [ 10.971991502893674, 51.23998353982762 ], [ 11.015983109631376, 51.157829271778468 ], [ 11.174901274448224, 51.145052564881624 ], [ 11.244101039709108, 51.088584206479588 ], [ 11.19011064207349, 51.054553695214665 ], [ 11.232132143270807, 51.001195786031026 ], [ 11.364280920496721, 50.997990163738201 ], [ 11.524294519613768, 50.926289273303418 ], [ 11.602579115832077, 50.928143683326006 ], [ 11.660793073059969, 50.957653038767866 ], [ 11.654817270053409, 50.99505894571876 ] ] ] } },
{ "type": "Feature", "properties": { "source": "https://simplemaps.com", "name": "Sachsen-Anhalt", "id": "DEST", "join_name": "sachsenanhalt", "Population": 2140084, "pop": 2140084 }, "geometry": { "type": "Polygon", "coordinates": [ [ [ 12.303105472070575, 51.828540609329821 ], [ 12.237170317842597, 51.84362889634901 ], [ 12.124543451393551, 51.821488752705761 ], [ 12.026775957601421, 51.821093923967325 ], [ 11.933835989745821, 51.803322674403439 ], [ 11.899068077673427, 51.752890428650772 ], [ 11.888367356954879, 51.68289117606551 ], [ 11.948344408732938, 51.59047661706321 ], [ 11.953451113952958, 51.557561302861238 ], [ 11.901390714594591, 51.531737811483858 ], [ 11.8316016640049, 51.530289299335934 ], [ 11.689436298974371, 51.593745227856893 ], [ 11.571686053527294, 51.596901525535486 ], [ 11.534599242555798, 51.643944704487318 ], [ 11.582938109429074, 51.673736641111113 ], [ 11.521666345581213, 51.723587279465058 ], [ 11.380174661452031, 51.735256637380317 ], [ 11.341581454023297, 51.807642540798206 ], [ 11.24628232994821, 51.837520280630017 ], [ 11.196915535698752, 51.900314389703254 ], [ 11.221896612157412, 51.947193827253002 ], [ 11.20032485819322, 51.988513596719535 ], [ 11.232134672577388, 52.018872076343882 ], [ 11.358825689050231, 52.024116190006261 ], [ 11.420464630118214, 52.098431513039273 ], [ 11.357604724249617, 52.204098121672338 ], [ 11.36417516817337, 52.262443600460436 ], [ 11.278690915364779, 52.348768044852079 ], [ 11.281213273658281, 52.371847180562177 ], [ 11.392733881745086, 52.404131397205298 ], [ 11.502475973386487, 52.388578432558162 ], [ 11.607157771751696, 52.41807392228003 ], [ 11.642088978524985, 52.461976702155738 ], [ 11.721837546284412, 52.440722043970339 ], [ 11.811057897801257, 52.39189209610587 ], [ 11.915742392577048, 52.383499785790967 ], [ 11.89302908405025, 52.229472664705064 ], [ 11.936362659315121, 52.195045312933367 ], [ 11.915851653646834, 52.084430342590338 ], [ 12.015024560707754, 52.003583797059783 ], [ 12.124533980073725, 51.996387921714046 ], [ 12.303339940187922, 51.934267871464442 ], [ 12.355972138517179, 51.87048906700052 ], [ 12.303105472070575, 51.828540609329821 ] ] ] } },
{ "type": "Feature", "properties": { "source": "https://simplemaps.com", "name": "Berlin", "id": "DEBE", "join_name": "berlin", "Population": 3673823, "pop": 3673823 }, "geometry": { "type": "Polygon", "coordinates": [ [ [ 14.154529561034751, 52.449744791968385 ], [ 14.192739263211191, 52.099562208044759 ], [ 13.649584857740544, 52.225716847517297 ], [ 12.537291393104686, 52.214684517331719 ], [ 12.730292108311771, 52.785097456170355 ], [ 13.165913207159273, 52.941789633426922 ], [ 13.790676316302042, 52.815822654794466 ], [ 14.154529561034751, 52.449744791968385 ] ] ] } }
]
}
