{"type": "FeatureCollection", "features": [{"type": "Feature", "properties": {"ADM1_EN": "R0C0", "ADM1_ZH": "R0C0", "ADM1_PCODE": "TOYR0C0", "ADM0_EN": "ToyGrid", "ADM0_ZH": "ToyGrid", "ADM0_PCODE": "TOY"}, "geometry": {"type": "MultiPolygon", "coordinates": [[[[0.0, 0.0], [1.0, 0.0], [1.0, 1.0], [0.0, 1.0], [0.0, 0.0]]]]}}, {"type": "Feature", "properties": {"ADM1_EN": "R0C1", "ADM1_ZH": "R0C1", "ADM1_PCODE": "TOYR0C1", "ADM0_EN": "ToyGrid", "ADM0_ZH": "ToyGrid", "ADM0_PCODE": "TOY"}, "geometry": {"type": "MultiPolygon", "coordinates": [[[[1.0, 0.0], [2.0, 0.0], [2.0, 1.0], [1.0, 1.0], [1.0, 0.0]]]]}}, {"type": "Feature", "properties": {"ADM1_EN": "R0C2", "ADM1_ZH": "R0C2", "ADM1_PCODE": "TOYR0C2", "ADM0_EN": "ToyGrid", "ADM0_ZH": "ToyGrid", "ADM0_PCODE": "TOY"}, "geometry": {"type": "MultiPolygon", "coordinates": [[[[2.0, 0.0], [3.0, 0.0], [3.0, 1.0], [2.0, 1.0], [2.0, 0.0]]]]}}, {"type": "Feature", "properties": {"ADM1_EN": "R0C3", "ADM1_ZH": "R0C3", "ADM1_PCODE": "TOYR0C3", "ADM0_EN": "ToyGrid", "ADM0_ZH": "ToyGrid", "ADM0_PCODE": "TOY"}, "geometry": {"type": "MultiPolygon", "coordinates": [[[[3.0, 0.0], [4.0, 0.0], [4.0, 1.0], [3.0, 1.0], [3.0, 0.0]]]]}}, {"type": "Feature", "properties": {"ADM1_EN": "R1C0", "ADM1_ZH": "R1C0", "ADM1_PCODE": "TOYR1C0", "ADM0_EN": "ToyGrid", "ADM0_ZH": "ToyGrid", "ADM0_PCODE": "TOY"}, "geometry": {"type": "MultiPolygon", "coordinates": [[[[0.0, 1.0], [1.0, 1.0], [1.0, 2.0], [0.0, 2.0], [0.0, 1.0]]]]}}, {"type": "Feature", "properties": {"ADM1_EN": "R1C1", "ADM1_ZH": "R1C1", "ADM1_PCODE": "TOYR1C1", "ADM0_EN": "ToyGrid", "ADM0_ZH": "ToyGrid", "ADM0_PCODE": "TOY"}, "geometry": {"type": "MultiPolygon", "coordinates": [[[[1.0, 1.0], [2.0, 1.0], [2.0, 2.0], [1.0, 2.0], [1.0, 1.0]]]]}}, {"type": "Feature", "properties": {"ADM1_EN": "R1C2", "ADM1_ZH": "R1C2", "ADM1_PCODE": "TOYR1C2", "ADM0_EN": "ToyGrid", "ADM0_ZH": "ToyGrid", "ADM0_PCODE": "TOY"}, "geometry": {"type": "MultiPolygon", "coordinates": [[[[2.0, 1.0], [3.0, 1.0], [3.0, 2.0], [2.0, 2.0], [2.0, 1.0]]]]}}, {"type": "Feature", "properties": {"ADM1_EN": "R1C3", "ADM1_ZH": "R1C3", "ADM1_PCODE": "TOYR1C3", "ADM0_EN": "ToyGrid", "ADM0_ZH": "ToyGrid", "ADM0_PCODE": "TOY"}, "geometry": {"type": "MultiPolygon", "coordinates": [[[[3.0, 1.0], [4.0, 1.0], [4.0, 2.0], [3.0, 2.0], [3.0, 1.0]]]]}}, {"type": "Feature", "properties": {"ADM1_EN": "R2C0", "ADM1_ZH": "R2C0", "ADM1_PCODE": "TOYR2C0", "ADM0_EN": "ToyGrid", "ADM0_ZH": "ToyGrid", "ADM0_PCODE": "TOY"}, "geometry": {"type": "MultiPolygon", "coordinates": [[[[0.0, 2.0], [1.0, 2.0], [1.0, 3.0], [0.0, 3.0], [0.0, 2.0]]]]}}, {"type": "Feature", "properties": {"ADM1_EN": "R2C1", "ADM1_ZH": "R2C1", "ADM1_PCODE": "TOYR2C1", "ADM0_EN": "ToyGrid", "ADM0_ZH": "ToyGrid", "ADM0_PCODE": "TOY"}, "geometry": {"type": "MultiPolygon", "coordinates": [[[[1.0, 2.0], [2.0, 2.0], [2.0, 3.0], [1.0, 3.0], [1.0, 2.0]]]]}}, {"type": "Feature", "properties": {"ADM1_EN": "R2C2", "ADM1_ZH": "R2C2", "ADM1_PCODE": "TOYR2C2", "ADM0_EN": "ToyGrid", "ADM0_ZH": "ToyGrid", "ADM0_PCODE": "TOY"}, "geometry": {"type": "MultiPolygon", "coordinates": [[[[2.0, 2.0], [3.0, 2.0], [3.0, 3.0], [2.0, 3.0], [2.0, 2.0]]]]}}, {"type": "Feature", "properties": {"ADM1_EN": "R2C3", "ADM1_ZH": "R2C3", "ADM1_PCODE": "TOYR2C3", "ADM0_EN": "ToyGrid", "ADM0_ZH": "ToyGrid", "ADM0_PCODE": "TOY"}, "geometry": {"type": "MultiPolygon", "coordinates": [[[[3.0, 2.0], [4.0, 2.0], [4.0, 3.0], [3.0, 3.0], [3.0, 2.0]]]]}}, {"type": "Feature", "properties": {"ADM1_EN": "R3C0", "ADM1_ZH": "R3C0", "ADM1_PCODE": "TOYR3C0", "ADM0_EN": "ToyGrid", "ADM0_ZH": "ToyGrid", "ADM0_PCODE": "TOY"}, "geometry": {"type": "MultiPolygon", "coordinates": [[[[0.0, 3.0], [1.0, 3.0], [1.0, 4.0], [0.0, 4.0], [0.0, 3.0]]]]}}, {"type": "Feature", "properties": {"ADM1_EN": "R3C1", "ADM1_ZH": "R3C1", "ADM1_PCODE": "TOYR3C1", "ADM0_EN": "ToyGrid", "ADM0_ZH": "ToyGrid", "ADM0_PCODE": "TOY"}, "geometry": {"type": "MultiPolygon", "coordinates": [[[[1.0, 3.0], [2.0, 3.0], [2.0, 4.0], [1.0, 4.0], [1.0, 3.0]]]]}}, {"type": "Feature", "properties": {"ADM1_EN": "R3C2", "ADM1_ZH": "R3C2", "ADM1_PCODE": "TOYR3C2", "ADM0_EN": "ToyGrid", "ADM0_ZH": "ToyGrid", "ADM0_PCODE": "TOY"}, "geometry": {"type": "MultiPolygon", "coordinates": [[[[2.0, 3.0], [3.0, 3.0], [3.0, 4.0], [2.0, 4.0], [2.0, 3.0]]]]}}, {"type": "Feature", "properties": {"ADM1_EN": "R3C3", "ADM1_ZH": "R3C3", "ADM1_PCODE": "TOYR3C3", "ADM0_EN": "ToyGrid", "ADM0_ZH": "ToyGrid", "ADM0_PCODE": "TOY"}, "geometry": {"type": "MultiPolygon", "coordinates": [[[[3.0, 3.0], [4.0, 3.0], [4.0, 4.0], [3.0, 4.0], [3.0, 3.0]]]]}}]}