{
"type": "FeatureCollection",
"name": "Netherlands-R",
"crs": { "type": "name", "properties": { "name": "urn:ogc:def:crs:OGC:1.3:CRS84" } },
"features": [
{ "type": "Feature", "properties": { "name": "Drenthe", "regioFacetId": "tcm:106-353397-1024", "level": 3, "join_name": "drenthe", "all years": 493682, "pop": 493682 }, "geometry": { "type": "Polygon", "coordinates": [ [ [ 6.413208365978334, 53.100985152785867 ], [ 6.414026816245859, 53.123610065472263 ], [ 6.313059294230022, 53.138033297094175 ], [ 6.329581691183194, 53.144031820100444 ], [ 6.380515415236036, 53.138190501207077 ], [ 6.459012183603096, 53.183693995946953 ], [ 6.48113610989467, 53.183202073313922 ], [ 6.563790951095019, 53.128420487876653 ], [ 6.609590919438763, 53.129743834745533 ], [ 6.684647108181244, 53.068162707643609 ], [ 6.842106790567614, 52.936371943091039 ], [ 6.890117802036611, 52.769670175640705 ], [ 6.62724274512201, 52.822603788868662 ], [ 6.613308034767187, 52.807977400012817 ], [ 6.609656613582048, 52.810107468993976 ], [ 6.563251814334672, 52.848441710590492 ], [ 6.446779004928763, 52.797113845006884 ], [ 6.420106512107171, 52.839674909639804 ], [ 6.306277416160609, 52.845181697385421 ], [ 6.294562152473952, 52.856436563698693 ], [ 6.245652628342127, 52.921762600361411 ], [ 6.327871880524992, 52.955907355704262 ], [ 6.201944990398642, 53.0251906470303 ], [ 6.245307657377851, 53.030301375225179 ], [ 6.377424194382171, 53.036449695704022 ], [ 6.437126191772494, 53.037042283977968 ], [ 6.46154473882504, 53.061662579882686 ], [ 6.413208365978334, 53.100985152785867 ] ] ] } },
{ "type": "Feature", "properties": { "name": "Flevoland", "regioFacetId": "tcm:106-353410-1024", "level": 3, "join_name": "flevoland", "all years": 423021, "pop": 423021 }, "geometry": { "type": "Polygon", "coordinates": [ [ [ 5.866304114303027, 52.942634010137091 ], [ 5.944879128310402, 53.032831215055182 ], [ 5.982164487558411, 53.062738034522688 ], [ 5.995406377790844, 53.045773314853122 ], [ 5.998153403053475, 53.031979039196045 ], [ 6.000051337925631, 53.034875288176835 ], [ 6.005263528371459, 53.020186508791888 ], [ 6.012084438927913, 53.003109215003263 ], [ 6.026857801211436, 52.999890905758122 ], [ 6.073621810512534, 52.935097294935133 ], [ 6.092072823289872, 52.858286049858762 ], [ 6.058502286453548, 52.838712952515408 ], [ 6.103057773287999, 52.800048983466169 ], [ 5.970229310881919, 52.78380013562149 ], [ 5.996004836466827, 52.747160649607771 ], [ 5.998927456180486, 52.717790254944006 ], [ 5.984823324442757, 52.682878363372602 ], [ 5.90073212353923, 52.637449504822484 ], [ 5.896981705426898, 52.521235024750474 ], [ 5.859442716284311, 52.510331839530124 ], [ 5.764973921604514, 52.574458845079157 ], [ 5.688910750548375, 52.570071443794326 ], [ 5.492905083617933, 52.556820813251591 ], [ 5.718212171564803, 52.68406770350574 ], [ 5.553447519060004, 52.755146051991403 ], [ 5.858811030653841, 52.833888818941318 ], [ 5.866304114303027, 52.942634010137091 ] ] ] } },
{ "type": "Feature", "properties": { "name": "Friesland (Fryslân)", "regioFacetId": "tcm:106-353417-1024", "level": 3, "join_name": "frieslandfryslân", "all years": 649957, "pop": 649957 }, "geometry": { "type": "Polygon", "coordinates": [ [ [ 6.360004735294781, 53.385311235999751 ], [ 6.382784243066261, 53.30094150567826 ], [ 6.167634816641023, 53.27160017826597 ], [ 6.141374520418997, 53.25162651233552 ], [ 6.302087802791077, 53.242756531562407 ], [ 6.227543001516109, 53.21275202898812 ], [ 6.199779191016194, 53.207265282421737 ], [ 6.196181123734604, 53.205227012210756 ], [ 6.182258069543509, 53.203565823443917 ], [ 6.188919189376262, 53.202423953743363 ], [ 6.181214916808951, 53.20109638498883 ], [ 6.189254033199869, 53.198120480725457 ], [ 6.194037884678952, 53.197097413890354 ], [ 6.188678290950425, 53.194564776719027 ], [ 6.163502105358496, 53.186636724491983 ], [ 6.174823971575853, 53.161357186499018 ], [ 6.249060129589884, 53.155998631845875 ], [ 6.280431168050439, 53.149189071703312 ], [ 6.329581691183194, 53.144031820100444 ], [ 6.313059294230022, 53.138033297094175 ], [ 6.414026816245859, 53.123610065472263 ], [ 6.413208365978334, 53.100985152785867 ], [ 6.46154473882504, 53.061662579882686 ], [ 6.437126191772494, 53.037042283977968 ], [ 6.377424194382171, 53.036449695704022 ], [ 6.245307657377851, 53.030301375225179 ], [ 6.173111165596845, 53.023774911150916 ], [ 6.148227533231114, 53.028127534806856 ], [ 6.076899141514118, 53.052896290661906 ], [ 6.063167797147288, 53.052009051408689 ], [ 6.056469211634462, 53.04901405509127 ], [ 6.03855461890353, 53.025458453433238 ], [ 6.030165259421801, 53.028194124957999 ], [ 6.008916353811785, 53.044293809735599 ], [ 5.998153403053475, 53.031979039196045 ], [ 5.995406377790844, 53.045773314853122 ], [ 5.982164487558411, 53.062738034522688 ], [ 5.944879128310402, 53.032831215055182 ], [ 5.866304114303027, 52.942634010137091 ], [ 5.799243927307081, 53.103191926229258 ], [ 5.737418332290624, 53.164030479894997 ], [ 5.554551743324078, 53.227940874926531 ], [ 5.125245033908961, 53.293163239404457 ], [ 5.413338570851569, 53.327344647271914 ], [ 5.55941752648044, 53.355061763788335 ], [ 5.748092194799947, 53.312156962128256 ], [ 5.861210386551294, 53.320873492468777 ], [ 5.904352012228028, 53.305181740622295 ], [ 6.115025374997091, 53.322965158138906 ], [ 6.360004735294781, 53.385311235999751 ] ] ] } },
{ "type": "Feature", "properties": { "name": "Gelderland", "regioFacetId": "tcm:106-353445-1024", "level": 3, "join_name": "gelderland", "all years": 2085952, "pop": 2085952 }, "geometry": { "type": "Polygon", "coordinates": [ [ [ 5.91963909415015, 52.10633604932633 ], [ 5.890552450595053, 52.204882499362725 ], [ 5.903121988172374, 52.336514337903388 ], [ 5.825357801577841, 52.503360346760488 ], [ 5.859442716284311, 52.510331839530124 ], [ 5.896981705426898, 52.521235024750474 ], [ 5.90073212353923, 52.637449504822484 ], [ 5.984823324442757, 52.682878363372602 ], [ 5.998927456180486, 52.717790254944006 ], [ 6.001172390285022, 52.728010413608409 ], [ 6.013099909929843, 52.726072543705641 ], [ 6.060747640399106, 52.691443239766301 ], [ 6.193210051882722, 52.690382738046694 ], [ 6.227617049142936, 52.667743038293608 ], [ 6.242744200939178, 52.648163334567968 ], [ 6.259511134051249, 52.624772892581106 ], [ 6.274442116398606, 52.591581604481078 ], [ 6.274776252878048, 52.576407319389929 ], [ 6.248297009516524, 52.567796679832611 ], [ 6.247295279650691, 52.558460617309642 ], [ 6.296281562241318, 52.444044670963997 ], [ 6.303840517979856, 52.435727347851589 ], [ 6.324736100601602, 52.403684655380452 ], [ 6.328012442393639, 52.402156405735369 ], [ 6.41441634547738, 52.403311607251979 ], [ 6.4326633257754, 52.403806846330639 ], [ 6.474620191276149, 52.417408169582345 ], [ 6.493006638017368, 52.415880356449883 ], [ 6.498501613881063, 52.405132079134759 ], [ 6.516712681307252, 52.383473264974434 ], [ 6.535052833835462, 52.367436132476534 ], [ 6.552320215403319, 52.34313409815006 ], [ 6.697022617314284, 52.311938101221926 ], [ 6.70113448406301, 52.303095766001434 ], [ 6.702981677222826, 52.290869091299804 ], [ 6.697245287505432, 52.270135332538501 ], [ 6.745146582681213, 52.252016070657241 ], [ 6.73390600822463, 52.162587039469457 ], [ 6.862062045062939, 52.102113250519515 ], [ 6.836375131119492, 52.032005492428979 ], [ 6.744894949232168, 52.022640933203071 ], [ 6.49409487690298, 51.934834577322441 ], [ 6.420256337405318, 51.974756618580948 ], [ 6.312474912501749, 51.942312033245479 ], [ 6.225149288692462, 51.952553492931571 ], [ 6.133229964418693, 51.915032412002446 ], [ 6.126211809788678, 51.82481457062692 ], [ 6.107357771506169, 51.823549545269806 ], [ 6.077443494053179, 51.860523725843052 ], [ 6.060136806194661, 51.841421052881351 ], [ 6.055098073867302, 51.835152447218526 ], [ 6.006795209813771, 51.829787404806176 ], [ 5.983778361326873, 51.823272419806102 ], [ 5.95584821742789, 51.827688314564455 ], [ 5.841851600661101, 51.894540397307978 ], [ 5.659818911362435, 51.859240649946628 ], [ 5.568063298885086, 51.774580443895964 ], [ 5.495229282468832, 51.744132340258233 ], [ 5.440947877957226, 51.732435918922583 ], [ 5.308483201711693, 51.72572342456187 ], [ 5.333693016590378, 51.760817464462818 ], [ 5.259590138193054, 51.75854404692204 ], [ 5.247498276175121, 51.776148718577453 ], [ 5.215044005202323, 51.78515717313001 ], [ 5.211835066951318, 51.795729697745216 ], [ 5.203935168809376, 51.798702300426307 ], [ 5.23016086863605, 51.799776860604567 ], [ 5.212723309057735, 51.848743510771243 ], [ 5.271845949099496, 51.858594754194669 ], [ 5.305165464935271, 51.870047374309493 ], [ 5.352881061706995, 51.889254480723025 ], [ 5.356386127065555, 51.894983377363729 ], [ 5.403051096597144, 51.924812157173925 ], [ 5.465305615155365, 51.979479079425381 ], [ 5.527510242198275, 51.980010722135567 ], [ 5.604139416435241, 51.989797280265442 ], [ 5.830305635702418, 52.062324832454621 ], [ 5.852435899168866, 52.056074376532607 ], [ 5.895908189438931, 52.036824349159915 ], [ 5.914081729778377, 52.039355667048845 ], [ 5.917650188169276, 52.042516736715548 ], [ 5.92454740922065, 52.054073383574647 ], [ 5.928607615830659, 52.067629486460646 ], [ 5.927959752049907, 52.097437756617467 ], [ 5.91963909415015, 52.10633604932633 ] ] ] } },
{ "type": "Feature", "properties": { "name": "Groningen", "regioFacetId": "tcm:106-353502-1024", "level": 3, "join_name": "groningen", "all years": 585866, "pop": 585866 }, "geometry": { "type": "Polygon", "coordinates": [ [ [ 6.141374520418997, 53.25162651233552 ], [ 6.167634816641023, 53.27160017826597 ], [ 6.382784243066261, 53.30094150567826 ], [ 6.360004735294781, 53.385311235999751 ], [ 6.423948782820508, 53.411784532401356 ], [ 6.58281863519969, 53.420608579582257 ], [ 6.733439850037256, 53.321830892011732 ], [ 6.763863542462817, 53.259156175070373 ], [ 6.916041338747414, 53.274482842952132 ], [ 6.928891646248387, 53.194622083780786 ], [ 6.955475463209966, 53.060685524548305 ], [ 6.842106790567614, 52.936371943091039 ], [ 6.684647108181244, 53.068162707643609 ], [ 6.609590919438763, 53.129743834745533 ], [ 6.563790951095019, 53.128420487876653 ], [ 6.48113610989467, 53.183202073313922 ], [ 6.459012183603096, 53.183693995946953 ], [ 6.380515415236036, 53.138190501207077 ], [ 6.280431168050439, 53.149189071703312 ], [ 6.249060129589884, 53.155998631845875 ], [ 6.174823971575853, 53.161357186499018 ], [ 6.163502105358496, 53.186636724491983 ], [ 6.188678290950425, 53.194564776719027 ], [ 6.194037884678952, 53.197097413890354 ], [ 6.189254033199869, 53.198120480725457 ], [ 6.181214916808951, 53.20109638498883 ], [ 6.188919189376262, 53.202423953743363 ], [ 6.182258069543509, 53.203565823443917 ], [ 6.196181123734604, 53.205227012210756 ], [ 6.199779191016194, 53.207265282421737 ], [ 6.227543001516109, 53.21275202898812 ], [ 6.302087802791077, 53.242756531562407 ], [ 6.141374520418997, 53.25162651233552 ] ] ] } },
{ "type": "Feature", "properties": { "name": "Limburg", "regioFacetId": "tcm:106-353526-1024", "level": 3, "join_name": "limburg", "all years": 1117201, "pop": 1117201 }, "geometry": { "type": "Polygon", "coordinates": [ [ [ 6.066157981047478, 51.827082364997544 ], [ 6.055098073867302, 51.835152447218526 ], [ 6.060136806194661, 51.841421052881351 ], [ 6.077443494053179, 51.860523725843052 ], [ 6.107357771506169, 51.823549545269806 ], [ 6.126211809788678, 51.82481457062692 ], [ 6.33297839627935, 51.572759310511728 ], [ 6.346909847965935, 51.408258408848695 ], [ 6.175997714094224, 51.264396072457885 ], [ 6.086911742120161, 51.080797200598553 ], [ 5.957718715350246, 50.97581303867625 ], [ 6.091533425845529, 50.962920716171283 ], [ 6.148852033629375, 50.905326578367415 ], [ 6.066653713290066, 50.833011302547192 ], [ 6.061654383026186, 50.744268933380496 ], [ 5.768980892721602, 50.741478311282322 ], [ 5.669991428333716, 50.843140015768725 ], [ 5.794814769074609, 50.926952615105904 ], [ 5.793197575839123, 51.006688234986932 ], [ 5.921270153518718, 51.137685303800616 ], [ 5.605183125518995, 51.202426743170967 ], [ 5.744284143018662, 51.323098102801204 ], [ 5.979471433227311, 51.389270982330864 ], [ 5.992538973149606, 51.615942172342933 ], [ 6.179195537861427, 51.646081347435263 ], [ 6.122957604526843, 51.783893364774109 ], [ 6.066157981047478, 51.827082364997544 ] ] ] } },
{ "type": "Feature", "properties": { "name": "Noord-Brabant", "regioFacetId": "tcm:106-353560-1024", "level": 3, "join_name": "noordbrabant", "all years": 2562955, "pop": 2562955 }, "geometry": { "type": "Polygon", "coordinates": [ [ [ 5.440947877957226, 51.732435918922583 ], [ 5.495229282468832, 51.744132340258233 ], [ 5.568063298885086, 51.774580443895964 ], [ 5.659818911362435, 51.859240649946628 ], [ 5.841851600661101, 51.894540397307978 ], [ 5.95584821742789, 51.827688314564455 ], [ 5.983778361326873, 51.823272419806102 ], [ 6.006795209813771, 51.829787404806176 ], [ 6.066157981047478, 51.827082364997544 ], [ 6.122957604526843, 51.783893364774109 ], [ 6.179195537861427, 51.646081347435263 ], [ 5.992538973149606, 51.615942172342933 ], [ 5.979471433227311, 51.389270982330864 ], [ 5.744284143018662, 51.323098102801204 ], [ 5.605183125518995, 51.202426743170967 ], [ 5.551007351010936, 51.279358201239454 ], [ 5.469011164074503, 51.231416817845258 ], [ 5.286637100060402, 51.261904884148379 ], [ 5.106703676666588, 51.340386286491409 ], [ 4.806160420745724, 51.345249345561676 ], [ 4.721179006643923, 51.406719707283422 ], [ 4.602335032933238, 51.341520473701621 ], [ 4.427945836039331, 51.381954784516232 ], [ 4.209571081826855, 51.365464796290532 ], [ 4.295798896492037, 51.309980642699891 ], [ 4.074333863374457, 51.332247188013909 ], [ 3.911737374521112, 51.411835726437474 ], [ 3.918221695787487, 51.435342350096491 ], [ 3.875717109074727, 51.454166429490208 ], [ 3.951974793460836, 51.479414323978432 ], [ 4.003343028922188, 51.479949910785102 ], [ 4.17179092801284, 51.50564794085188 ], [ 4.714856060428772, 51.588514301514607 ], [ 4.885017022110234, 51.689517109949612 ], [ 4.921651950104748, 51.71150674363659 ], [ 5.017548694936972, 51.732644521386938 ], [ 5.093416716183391, 51.775422947030641 ], [ 5.191125586887976, 51.796999567811511 ], [ 5.203935168809376, 51.798702300426307 ], [ 5.211835066951318, 51.795729697745216 ], [ 5.215044005202323, 51.78515717313001 ], [ 5.247498276175121, 51.776148718577453 ], [ 5.259590138193054, 51.75854404692204 ], [ 5.333693016590378, 51.760817464462818 ], [ 5.308483201711693, 51.72572342456187 ], [ 5.440947877957226, 51.732435918922583 ] ] ] } },
{ "type": "Feature", "properties": { "name": "Noord-Holland", "regioFacetId": "tcm:106-353628-1024", "level": 3, "join_name": "noordholland", "all years": 2879527, "pop": 2879527 }, "geometry": { "type": "Polygon", "coordinates": [ [ [ 5.125245033908961, 53.293163239404457 ], [ 5.554551743324078, 53.227940874926531 ], [ 5.737418332290624, 53.164030479894997 ], [ 5.799243927307081, 53.103191926229258 ], [ 5.866304114303027, 52.942634010137091 ], [ 5.858811030653841, 52.833888818941318 ], [ 5.553447519060004, 52.755146051991403 ], [ 5.718212171564803, 52.68406770350574 ], [ 5.492905083617933, 52.556820813251591 ], [ 5.688910750548375, 52.570071443794326 ], [ 5.764973921604514, 52.574458845079157 ], [ 5.780614690030271, 52.558265832593982 ], [ 5.719985197535485, 52.542160477892708 ], [ 5.559381198956444, 52.375901020929852 ], [ 5.438143997728431, 52.369769014610881 ], [ 5.285676193766577, 52.369874942941223 ], [ 5.323802597344313, 52.484406012467133 ], [ 5.100101028820622, 52.420004824025419 ], [ 5.07578159439917, 52.414093483755011 ], [ 5.058428132718022, 52.412002695496845 ], [ 5.025095120953686, 52.407294886959257 ], [ 5.003277504762822, 52.3984736968563 ], [ 4.998245729116245, 52.397867909239622 ], [ 4.992382112137084, 52.3958334969047 ], [ 4.968067419972069, 52.387393779112152 ], [ 4.936251911113878, 52.383844833374866 ], [ 4.905241318701001, 52.384120767094082 ], [ 4.881625884549903, 52.375914555238957 ], [ 4.848048265422872, 52.367882896699463 ], [ 4.61894859161824, 52.390813957938313 ], [ 4.586123555746402, 52.398754360761551 ], [ 4.597499800239253, 52.454445451755085 ], [ 4.478862564956379, 52.473871855745017 ], [ 4.587609625663588, 52.617830685314161 ], [ 4.717891731182489, 52.880147843251137 ], [ 4.882084624226235, 53.068974273863596 ], [ 4.786159962993461, 53.132261233077379 ], [ 4.908011370290492, 53.159475528709621 ], [ 4.970225825641348, 53.215321241123533 ], [ 5.125245033908961, 53.293163239404457 ] ] ] } },
{ "type": "Feature", "properties": { "name": "Overijssel", "regioFacetId": "tcm:106-353682-1024", "level": 3, "join_name": "overijssel", "all years": 1162406, "pop": 1162406 }, "geometry": { "type": "Polygon", "coordinates": [ [ [ 6.242744200939178, 52.648163334567968 ], [ 6.227617049142936, 52.667743038293608 ], [ 6.193210051882722, 52.690382738046694 ], [ 6.060747640399106, 52.691443239766301 ], [ 6.013099909929843, 52.726072543705641 ], [ 6.001172390285022, 52.728010413608409 ], [ 5.996004836466827, 52.747160649607771 ], [ 5.970229310881919, 52.78380013562149 ], [ 6.103057773287999, 52.800048983466169 ], [ 6.058502286453548, 52.838712952515408 ], [ 6.092072823289872, 52.858286049858762 ], [ 6.073621810512534, 52.935097294935133 ], [ 6.026857801211436, 52.999890905758122 ], [ 6.012084438927913, 53.003109215003263 ], [ 6.005263528371459, 53.020186508791888 ], [ 6.000051337925631, 53.034875288176835 ], [ 6.008916353811785, 53.044293809735599 ], [ 6.030165259421801, 53.028194124957999 ], [ 6.03855461890353, 53.025458453433238 ], [ 6.056469211634462, 53.04901405509127 ], [ 6.063167797147288, 53.052009051408689 ], [ 6.076899141514118, 53.052896290661906 ], [ 6.148227533231114, 53.028127534806856 ], [ 6.173111165596845, 53.023774911150916 ], [ 6.201944990398642, 53.0251906470303 ], [ 6.327871880524992, 52.955907355704262 ], [ 6.245652628342127, 52.921762600361411 ], [ 6.294562152473952, 52.856436563698693 ], [ 6.306277416160609, 52.845181697385421 ], [ 6.420106512107171, 52.839674909639804 ], [ 6.446779004928763, 52.797113845006884 ], [ 6.563251814334672, 52.848441710590492 ], [ 6.609656613582048, 52.810107468993976 ], [ 6.613308034767187, 52.807977400012817 ], [ 6.651778367218894, 52.649141909282754 ], [ 6.919629398697885, 52.559856058617839 ], [ 7.005683964987617, 52.473914602167085 ], [ 6.958888518016439, 52.348547581283704 ], [ 6.866157696185494, 52.243638130072235 ], [ 6.745146582681213, 52.252016070657241 ], [ 6.697245287505432, 52.270135332538501 ], [ 6.702981677222826, 52.290869091299804 ], [ 6.70113448406301, 52.303095766001434 ], [ 6.697022617314284, 52.311938101221926 ], [ 6.552320215403319, 52.34313409815006 ], [ 6.535052833835462, 52.367436132476534 ], [ 6.516712681307252, 52.383473264974434 ], [ 6.498501613881063, 52.405132079134759 ], [ 6.493006638017368, 52.415880356449883 ], [ 6.474620191276149, 52.417408169582345 ], [ 6.4326633257754, 52.403806846330639 ], [ 6.41441634547738, 52.403311607251979 ], [ 6.328012442393639, 52.402156405735369 ], [ 6.324736100601602, 52.403684655380452 ], [ 6.303840517979856, 52.435727347851589 ], [ 6.296281562241318, 52.444044670963997 ], [ 6.247295279650691, 52.558460617309642 ], [ 6.248297009516524, 52.567796679832611 ], [ 6.274776252878048, 52.576407319389929 ], [ 6.274442116398606, 52.591581604481078 ], [ 6.259511134051249, 52.624772892581106 ], [ 6.242744200939178, 52.648163334567968 ] ] ] } },
{ "type": "Feature", "properties": { "name": "Utrecht", "regioFacetId": "tcm:106-353708-1024", "level": 3, "join_name": "utrecht", "all years": 1354834, "pop": 1354834 }, "geometry": { "type": "Polygon", "coordinates": [ [ [ 4.931796224985784, 52.361112356211656 ], [ 4.922150853837231, 52.379913234004093 ], [ 4.922467422134521, 52.382593097818123 ], [ 4.936251911113878, 52.383844833374866 ], [ 4.968067419972069, 52.387393779112152 ], [ 4.992382112137084, 52.3958334969047 ], [ 4.998245729116245, 52.397867909239622 ], [ 5.003277504762822, 52.3984736968563 ], [ 5.025095120953686, 52.407294886959257 ], [ 5.058428132718022, 52.412002695496845 ], [ 5.07578159439917, 52.414093483755011 ], [ 5.100101028820622, 52.420004824025419 ], [ 5.323802597344313, 52.484406012467133 ], [ 5.285676193766577, 52.369874942941223 ], [ 5.438143997728431, 52.369769014610881 ], [ 5.559381198956444, 52.375901020929852 ], [ 5.719985197535485, 52.542160477892708 ], [ 5.780614690030271, 52.558265832593982 ], [ 5.825357801577841, 52.503360346760488 ], [ 5.903121988172374, 52.336514337903388 ], [ 5.890552450595053, 52.204882499362725 ], [ 5.91963909415015, 52.10633604932633 ], [ 5.927959752049907, 52.097437756617467 ], [ 5.928607615830659, 52.067629486460646 ], [ 5.92454740922065, 52.054073383574647 ], [ 5.917650188169276, 52.042516736715548 ], [ 5.914081729778377, 52.039355667048845 ], [ 5.895908189438931, 52.036824349159915 ], [ 5.852435899168866, 52.056074376532607 ], [ 5.830305635702418, 52.062324832454621 ], [ 5.604139416435241, 51.989797280265442 ], [ 5.527510242198275, 51.980010722135567 ], [ 5.465305615155365, 51.979479079425381 ], [ 5.383707384946395, 51.932551757717668 ], [ 5.266586275061599, 51.985749700629121 ], [ 5.256391168658618, 51.987348883705621 ], [ 5.240023146504702, 51.974382954760372 ], [ 5.184803718758958, 51.971210116132191 ], [ 5.104967261300002, 51.948204998185453 ], [ 4.981879013739812, 52.093309032476249 ], [ 5.001335841016337, 52.319481347328342 ], [ 4.931796224985784, 52.361112356211656 ] ] ] } },
{ "type": "Feature", "properties": { "name": "Zeeland", "regioFacetId": "tcm:106-353735-1024", "level": 3, "join_name": "zeeland", "all years": 383488, "pop": 383488 }, "geometry": { "type": "Polygon", "coordinates": [ [ [ 3.633298686177367, 51.642742105741483 ], [ 3.704980408614888, 51.564181110243041 ], [ 3.765078280130808, 51.574597733883749 ], [ 3.781118572200722, 51.498707055930375 ], [ 3.951974793460836, 51.479414323978432 ], [ 3.875717109074727, 51.454166429490208 ], [ 3.918221695787487, 51.435342350096491 ], [ 3.911737374521112, 51.411835726437474 ], [ 4.074333863374457, 51.332247188013909 ], [ 3.975919754001922, 51.297188793610324 ], [ 3.789418105991783, 51.27340910752212 ], [ 3.730093370319756, 51.332317059413093 ], [ 3.63974730798889, 51.356940467404705 ], [ 3.509009265141676, 51.286070658402181 ], [ 3.405957285928547, 51.416553046246278 ], [ 3.459455850930122, 51.514004025404915 ], [ 3.575453816416324, 51.474489933444168 ], [ 3.609204736877727, 51.483239426558569 ], [ 3.61212625470265, 51.57817466602156 ], [ 3.633298686177367, 51.642742105741483 ] ] ] } },
{ "type": "Feature", "properties": { "name": "Zuid-Holland", "regioFacetId": "tcm:106-353749-1024", "level": 3, "join_name": "zuidholland", "all years": 3708696, "pop": 3708696 }, "geometry": { "type": "Polygon", "coordinates": [ [ [ 4.586123555746402, 52.398754360761551 ], [ 4.61894859161824, 52.390813957938313 ], [ 4.848048265422872, 52.367882896699463 ], [ 4.881625884549903, 52.375914555238957 ], [ 4.922467422134521, 52.382593097818123 ], [ 4.922150853837231, 52.379913234004093 ], [ 4.931796224985784, 52.361112356211656 ], [ 5.001335841016337, 52.319481347328342 ], [ 4.981879013739812, 52.093309032476249 ], [ 5.104967261300002, 51.948204998185453 ], [ 5.184803718758958, 51.971210116132191 ], [ 5.240023146504702, 51.974382954760372 ], [ 5.256391168658618, 51.987348883705621 ], [ 5.266586275061599, 51.985749700629121 ], [ 5.383707384946395, 51.932551757717668 ], [ 5.403051096597144, 51.924812157173925 ], [ 5.356386127065555, 51.894983377363729 ], [ 5.352881061706995, 51.889254480723025 ], [ 5.305165464935271, 51.870047374309493 ], [ 5.271845949099496, 51.858594754194669 ], [ 5.212723309057735, 51.848743510771243 ], [ 5.23016086863605, 51.799776860604567 ], [ 5.212124387286383, 51.799938851426866 ], [ 5.191125586887976, 51.796999567811511 ], [ 5.093416716183391, 51.775422947030641 ], [ 5.017548694936972, 51.732644521386938 ], [ 4.921651950104748, 51.71150674363659 ], [ 4.885017022110234, 51.689517109949612 ], [ 4.714856060428772, 51.588514301514607 ], [ 4.17179092801284, 51.50564794085188 ], [ 4.003343028922188, 51.479949910785102 ], [ 3.951974793460836, 51.479414323978432 ], [ 3.781118572200722, 51.498707055930375 ], [ 3.765078280130808, 51.574597733883749 ], [ 3.704980408614888, 51.564181110243041 ], [ 3.633298686177367, 51.642742105741483 ], [ 3.709967976579156, 51.736850527740948 ], [ 3.698529924097244, 51.97882246404896 ], [ 3.831602926728424, 52.026657888583664 ], [ 4.283561989735222, 52.366161696095439 ], [ 4.478862564956379, 52.473871855745017 ], [ 4.597499800239253, 52.454445451755085 ], [ 4.586123555746402, 52.398754360761551 ] ] ] } }
]
}
