{
"type": "FeatureCollection",
"name": "Netherlands-RD",
"crs": { "type": "name", "properties": { "name": "urn:ogc:def:crs:OGC:1.3:CRS84" } },
"features": [
{ "type": "Feature", "properties": { "name": "Drenthe", "regioFacetId": "tcm:106-353397-1024", "level": 3, "join_name": "drenthe", "all years": 493682, "pop": 493682 }, "geometry": { "type": "Polygon", "coordinates": [ [ [ 6.770651555368068, 52.863075886231748 ], [ 6.770796771708264, 52.858348628351365 ], [ 6.770532944618623, 52.853623328363867 ], [ 6.76986092968053, 52.848912935829638 ], [ 6.768782699646655, 52.844230355315112 ], [ 6.767301337603513, 52.839588411093757 ], [ 6.765421027126007, 52.834999812111612 ], [ 6.763147039466224, 52.830477117311823 ], [ 6.760485717826018, 52.826032701411719 ], [ 6.757444458770451, 52.821678721223734 ], [ 6.754031690845864, 52.81742708260991 ], [ 6.750256850473166, 52.813289408157623 ], [ 6.746130355193126, 52.8092770056615 ], [ 6.741663574346478, 52.805400837494503 ], [ 6.736868797277327, 52.801671490947619 ], [ 6.731759199153648, 52.798099149615901 ], [ 6.726348804503794, 52.794693565904268 ], [ 6.720652448572468, 52.791464034724207 ], [ 6.714685736604072, 52.788419368448643 ], [ 6.708465001165552, 52.785567873189144 ], [ 6.70200725762431, 52.782917326455603 ], [ 6.695330157900517, 52.780474956255041 ], [ 6.688451942616171, 52.778247421682579 ], [ 6.681391391766209, 52.776240795052985 ], [ 6.674167774039453, 52.774460545618084 ], [ 6.666800794919726, 52.772911524910398 ], [ 6.659310543699363, 52.771597953749861 ], [ 6.651717439539259, 52.770523410945856 ], [ 6.644042176711084, 52.769690823722492 ], [ 6.63630566915877, 52.76910245989108 ], [ 6.62852899451731, 52.768759921788963 ], [ 6.620733337727851, 52.7686641419998 ], [ 6.612939934388722, 52.768815380865639 ], [ 6.605170013982359, 52.769213225797152 ], [ 6.59744474311834, 52.769856592383434 ], [ 6.589785168932706, 52.770743727298445 ], [ 6.582212162783448, 52.771872212997387 ], [ 6.574746364381558, 52.773238974190527 ], [ 6.567408126496399, 52.774840286078998 ], [ 6.560217460373148, 52.776671784331896 ], [ 6.553193981998898, 52.778728476779499 ], [ 6.546356859352626, 52.781004756794061 ], [ 6.539724760772621, 52.783494418324253 ], [ 6.533315804573017, 52.786190672545715 ], [ 6.527147510038929, 52.789086166086264 ], [ 6.521236749927279, 52.792173000779478 ], [ 6.515599704597888, 52.795442754897302 ], [ 6.510251817896081, 52.798886505807452 ], [ 6.505207754905214, 52.802494853998795 ], [ 6.500481361683815, 52.806257948412814 ], [ 6.496085627098117, 52.810165513016905 ], [ 6.49203264685683, 52.814206874551189 ], [ 6.488333589850437, 52.818370991377328 ], [ 6.48499866689252, 52.822646483354511 ], [ 6.482037101955664, 52.827021662665572 ], [ 6.479457105988896, 52.831484565511964 ], [ 6.477265853398163, 52.836022984595012 ], [ 6.475469461265019, 52.840624502297786 ], [ 6.474072971372618, 52.845276524479459 ], [ 6.473080335101123, 52.849966314792454 ], [ 6.472494401248022, 52.854681029430502 ], [ 6.472316906821199, 52.859407752214238 ], [ 6.472548470845317, 52.864133529919336 ], [ 6.473188591214075, 52.868845407751607 ], [ 6.474235644612838, 52.873530464871727 ], [ 6.475686889527799, 52.878175849872584 ], [ 6.477538472349306, 52.882768816111039 ], [ 6.479785436568096, 52.887296756796303 ], [ 6.482421735054471, 52.891747239737057 ], [ 6.485440245401118, 52.896108041650265 ], [ 6.488832788301377, 52.90036718193474 ], [ 6.49259014892521, 52.904512955814411 ], [ 6.496702101246071, 52.908533966756615 ], [ 6.501157435262416, 52.912419158073426 ], [ 6.505943987048394, 52.916157843615061 ], [ 6.511048671559048, 52.919739737467069 ], [ 6.516457518106177, 52.923154982565478 ], [ 6.522155708412239, 52.92639417814673 ], [ 6.528127617140845, 52.92944840595257 ], [ 6.534356854793804, 52.932309255112926 ], [ 6.540826312856697, 52.934968845634053 ], [ 6.547518211066918, 52.937419850422494 ], [ 6.554414146670533, 52.939655515779869 ], [ 6.561495145527407, 52.941669680307754 ], [ 6.56874171491723, 52.94345679216643 ], [ 6.576133897892889, 52.945011924636063 ], [ 6.583651329022061, 52.94633078993386 ], [ 6.591273291352644, 52.947409751245686 ], [ 6.598978774433326, 52.94824583293645 ], [ 6.606746533216379, 52.948836728907949 ], [ 6.614555147666694, 52.949180809079614 ], [ 6.622383082898311, 52.949277123972223 ], [ 6.630208749657713, 52.949125407380897 ], [ 6.638010564971875, 52.94872607712913 ], [ 6.645767012778386, 52.94808023390172 ], [ 6.653456704355071, 52.947189658159836 ], [ 6.661058438367192, 52.946056805147499 ], [ 6.668551260351896, 52.944684798004587 ], [ 6.675914521461466, 52.943077419006705 ], [ 6.683127936289889, 52.941239098958455 ], [ 6.690171639610559, 52.93917490477169 ], [ 6.697026241857028, 52.936890525265881 ], [ 6.703672883183284, 52.93439225523317 ], [ 6.710093285945306, 52.931686977815367 ], [ 6.716269805451441, 52.928782145245485 ], [ 6.722185478835335, 52.925685758010808 ], [ 6.727824071911919, 52.922406342499436 ], [ 6.733170123884239, 52.918952927195967 ], [ 6.738208989776431, 52.915335017496552 ], [ 6.742926880476011, 52.911562569217246 ], [ 6.747310900277189, 52.907645960872934 ], [ 6.751349081825182, 52.903595964807828 ], [ 6.755030418370485, 52.899423717261115 ], [ 6.758344893250911, 52.895140687454365 ], [ 6.76128350652845, 52.890758645789674 ], [ 6.763838298717194, 52.886289631249866 ], [ 6.766002371547787, 52.881745918093422 ], [ 6.767769905723379, 52.877139981939237 ], [ 6.769136175631156, 52.872484465336711 ], [ 6.77009756098304, 52.867792142918219 ], [ 6.770651555368068, 52.863075886231748 ] ] ] } },
{ "type": "Feature", "properties": { "name": "Flevoland", "regioFacetId": "tcm:106-353410-1024", "level": 3, "join_name": "flevoland", "all years": 423021, "pop": 423021 }, "geometry": { "type": "Polygon", "coordinates": [ [ [ 5.651811505787111, 52.556086994239237 ], [ 5.652055005826355, 52.551713258423149 ], [ 5.651922428925845, 52.547337818464129 ], [ 5.651414250229656, 52.542972666500809 ], [ 5.65053197338511, 52.538629762949277 ], [ 5.649278125209602, 52.534321003768142 ], [ 5.647656247578511, 52.530058187938096 ], [ 5.645670886569359, 52.525852985244491 ], [ 5.643327578904418, 52.521716904449399 ], [ 5.640632835740766, 52.517661261939224 ], [ 5.637594123863455, 52.513697150930952 ], [ 5.634219844343694, 52.509835411319436 ], [ 5.63051930872983, 52.506086600245652 ], [ 5.62650271284487, 52.502460963463008 ], [ 5.622181108269531, 52.498968407577308 ], [ 5.617566371595014, 52.495618473232923 ], [ 5.612671171534636, 52.492420309314603 ], [ 5.607508933987839, 52.489382648232144 ], [ 5.602093805154539, 52.486513782351629 ], [ 5.596440612801619, 52.483821541633716 ], [ 5.590564825787282, 52.481313272536568 ], [ 5.584482511952078, 52.47899581823696 ], [ 5.578210294488941, 52.476875500220224 ], [ 5.571765306907113, 52.474958101285495 ], [ 5.565165146707705, 52.473248850009455 ], [ 5.558427827890857, 52.471752406707623 ], [ 5.551571732416551, 52.470472850928537 ], [ 5.544615560743138, 52.469413670512353 ], [ 5.537578281569076, 52.468577752241039 ], [ 5.53047908090484, 52.467967374103786 ], [ 5.523337310603094, 52.467584199196622 ], [ 5.516172436476187, 52.467429271271683 ], [ 5.509003986130593, 52.46750301194708 ], [ 5.501851496648494, 52.467805219584186 ], [ 5.494734462246929, 52.468335069835099 ], [ 5.487672282044915, 52.469091117858895 ], [ 5.480684208068775, 52.470071302201077 ], [ 5.473789293625517, 52.471272950326238 ], [ 5.467006342173438, 52.4726927857904 ], [ 5.460353856818248, 52.47432693703454 ], [ 5.453849990561971, 52.476170947777817 ], [ 5.447512497430565, 52.478219788983765 ], [ 5.441358684604554, 52.480467872369694 ], [ 5.435405365675327, 52.482909065425126 ], [ 5.429668815147584, 52.485536707901339 ], [ 5.424164724306249, 52.488343629730203 ], [ 5.418908158563531, 52.491322170326953 ], [ 5.413913516399107, 52.4944641992276 ], [ 5.409194490003268, 52.497761138008627 ], [ 5.40476402772967, 52.501203983432376 ], [ 5.400634298460528, 52.504783331759114 ], [ 5.3968166579834, 52.508489404162958 ], [ 5.393321617474482, 52.512312073185754 ], [ 5.39015881417882, 52.516240890160475 ], [ 5.387336984373245, 52.520265113532453 ], [ 5.384863938692692, 52.524373738004364 ], [ 5.382746539895255, 52.528555524428441 ], [ 5.380990683135871, 52.532799030366697 ], [ 5.379601278812492, 52.537092641238473 ], [ 5.378582238042494, 52.541424601972032 ], [ 5.377936460820616, 52.545783049075744 ], [ 5.377665826903147, 52.550156043042321 ], [ 5.377771189455974, 52.554531600998907 ], [ 5.378252371496959, 52.558897729514129 ], [ 5.379108165155772, 52.563242457472775 ], [ 5.380336333766637, 52.567553868928037 ], [ 5.381933616801632, 52.571820135840866 ], [ 5.383895737644152, 52.576029550615779 ], [ 5.386217414194163, 52.580170558342928 ], [ 5.38889237228853, 52.58423178865624 ], [ 5.391913361911328, 52.588202087118468 ], [ 5.395272176160725, 52.592070546044418 ], [ 5.398959672930593, 52.595826534675759 ], [ 5.402965799256476, 52.599459728620943 ], [ 5.407279618267272, 52.602960138476831 ], [ 5.411889338675534, 52.606318137549842 ], [ 5.41678234673108, 52.609524488596627 ], [ 5.421945240554627, 52.612570369507623 ], [ 5.427363866760109, 52.615447397858574 ], [ 5.433023359266707, 52.618147654258877 ], [ 5.438908180194124, 52.620663704428473 ], [ 5.445002162727597, 52.622988619939051 ], [ 5.451288555832112, 52.625115997558048 ], [ 5.457750070689027, 52.627039977139098 ], [ 5.464368928722029, 52.628755258005832 ], [ 5.471126911073826, 52.630257113780388 ], [ 5.478005409389783, 52.631541405613277 ], [ 5.484985477759843, 52.63260459377436 ], [ 5.492047885666084, 52.633443747571292 ], [ 5.499173171779459, 52.634056553565181 ], [ 5.506341698446183, 52.634441322059509 ], [ 5.513533706701698, 52.634596991842074 ], [ 5.520729371648237, 52.634523133166745 ], [ 5.527908858030614, 52.634219948965004 ], [ 5.535052375844084, 52.633688274284403 ], [ 5.542140235808124, 52.63292957395506 ], [ 5.549152904540332, 52.631945938491242 ], [ 5.556071059265792, 52.630740078240144 ], [ 5.56287564189891, 52.629315315795488 ], [ 5.569547912337155, 52.627675576698039 ], [ 5.576069500808766, 52.625825378451189 ], [ 5.582422459120121, 52.623769817883776 ], [ 5.588589310652437, 52.621514556898013 ], [ 5.594553098961779, 52.619065806644358 ], [ 5.60029743484166, 52.616430310170351 ], [ 5.605806541712686, 52.613615323594608 ], [ 5.611065299209851, 52.610628595861293 ], [ 5.616059284844261, 52.60747834713446 ], [ 5.620774813622846, 52.604173245895737 ], [ 5.625198975516595, 52.60072238481218 ], [ 5.629319670675272, 52.597135255444378 ], [ 5.63312564229416, 52.593421721868438 ], [ 5.63660650704613, 52.58959199328801 ], [ 5.639752783000594, 52.585656595715427 ], [ 5.642555914958808, 52.581626342802934 ], [ 5.64500829714359, 52.577512305907931 ], [ 5.64710329318979, 52.573325783477053 ], [ 5.648835253390223, 52.569078269836169 ], [ 5.650199529160379, 52.564781423474486 ], [ 5.651192484693643, 52.560447034911846 ], [ 5.651811505787111, 52.556086994239237 ] ] ] } },
{ "type": "Feature", "properties": { "name": "Friesland (Fryslân)", "regioFacetId": "tcm:106-353417-1024", "level": 3, "join_name": "frieslandfryslân", "all years": 649957, "pop": 649957 }, "geometry": { "type": "Polygon", "coordinates": [ [ [ 5.862866930852221, 53.159021788425051 ], [ 5.863149808724047, 53.153600024204081 ], [ 5.862960055055416, 53.148176940102111 ], [ 5.862298367499855, 53.14276739908199 ], [ 5.86116673553523, 53.137386221477925 ], [ 5.859568433087961, 53.132048144452938 ], [ 5.857508007679186, 53.126767781743631 ], [ 5.854991266142994, 53.121559583800966 ], [ 5.852025256975598, 53.116437798433971 ], [ 5.848618249382543, 53.111416432061581 ], [ 5.844779709099014, 53.106509211675203 ], [ 5.840520271065583, 53.101729547612671 ], [ 5.83585170904919, 53.097090497240842 ], [ 5.830786902305557, 53.0926047296417 ], [ 5.825339799385715, 53.088284491393708 ], [ 5.819525379195132, 53.084141573536357 ], [ 5.813359609419659, 53.080187279802814 ], [ 5.806859402437309, 53.076432396201781 ], [ 5.800042568840106, 53.072887162025744 ], [ 5.79292776869418, 53.069561242358787 ], [ 5.785534460670744, 53.066463702153335 ], [ 5.777882849184037, 53.063602981940491 ], [ 5.769993829675738, 53.060986875234761 ], [ 5.761888932188509, 53.058622507689201 ], [ 5.753590263374031, 53.056516318052324 ], [ 5.74512044708321, 53.054674040974284 ], [ 5.73650256368865, 53.05310069170396 ], [ 5.727760088291181, 53.051800552714759 ], [ 5.718916827963995, 53.050777162291908 ], [ 5.709996858189203, 53.050033305108578 ], [ 5.701024458642873, 53.049571004814403 ], [ 5.69202404848553, 53.049391518653508 ], [ 5.683020121315617, 53.049495334125979 ], [ 5.674037179944013, 53.049882167699884 ], [ 5.665099671147963, 53.050550965577465 ], [ 5.656231920562547, 53.051499906513307 ], [ 5.64745806786791, 53.052726406677365 ], [ 5.63880200242983, 53.054227126551297 ], [ 5.630287299550642, 53.055997979840711 ], [ 5.621937157486584, 53.05803414438175 ], [ 5.613774335386672, 53.060330075015344 ], [ 5.605821092306599, 53.06287951839721 ], [ 5.598099127449879, 53.065675529707562 ], [ 5.590629521786258, 53.068710491218908 ], [ 5.58343268119568, 53.071976132676461 ], [ 5.576528281283289, 53.075463553440571 ], [ 5.569935214008593, 53.079163246335789 ], [ 5.563671536268788, 53.083065123147819 ], [ 5.557754420572926, 53.087158541703687 ], [ 5.552200107940103, 53.091432334467868 ], [ 5.547023863150744, 53.095874838581501 ], [ 5.542239932475906, 53.100473927269192 ], [ 5.537861504004731, 53.105217042532921 ], [ 5.533900670685289, 53.11009122904958 ], [ 5.530368396188475, 53.115083169184999 ], [ 5.527274483699074, 53.120179219033865 ], [ 5.524627547731678, 53.125365445391694 ], [ 5.522434989062765, 53.130627663562606 ], [ 5.520702972863186, 53.135951475902949 ], [ 5.519436410108068, 53.141322310999428 ], [ 5.518638942333178, 53.146725463377187 ], [ 5.518312929798959, 53.152146133631646 ], [ 5.518459443114771, 53.157569468876289 ], [ 5.519078258366998, 53.162980603396825 ], [ 5.520167855785601, 53.168364699400861 ], [ 5.521725421974151, 53.173706987751714 ], [ 5.523746855718397, 53.178992808573874 ], [ 5.526226777378564, 53.184207651617768 ], [ 5.52915854186002, 53.18933719627109 ], [ 5.532534255146532, 53.194367351104496 ], [ 5.536344794369422, 53.199284292840396 ], [ 5.540579831375312, 53.204074504633816 ], [ 5.545227859743856, 53.208724813556707 ], [ 5.550276225196042, 53.213222427177698 ], [ 5.555711159322533, 53.21755496913228 ], [ 5.561517816550527, 53.221710513580113 ], [ 5.567680314256627, 53.225677618449168 ], [ 5.574181775922646, 53.229445357369535 ], [ 5.581004377220437, 53.233003350203084 ], [ 5.588129394901829, 53.236341792078647 ], [ 5.595537258359445, 53.239451480846974 ], [ 5.60320760371475, 53.242323842873432 ], [ 5.611119330280409, 53.244950957091774 ], [ 5.619250659235166, 53.247325577246528 ], [ 5.62757919434129, 53.249441152257489 ], [ 5.636081984526994, 53.2512918446443 ], [ 5.64473558814907, 53.252872546956219 ], [ 5.653516138744568, 53.254178896156446 ], [ 5.662399412074692, 53.255207285917713 ], [ 5.671360894259035, 53.255954876791549 ], [ 5.680375850794057, 53.256419604220213 ], [ 5.689419396246158, 53.25660018436659 ], [ 5.698466564407221, 53.256496117744355 ], [ 5.707492378698567, 53.256107690637251 ], [ 5.716471922608179, 53.255435974302593 ], [ 5.725380409946179, 53.254482821962036 ], [ 5.734193254703955, 53.253250863587873 ], [ 5.742886140303995, 53.251743498501369 ], [ 5.751435088029884, 53.249964885805085 ], [ 5.759816524429043, 53.247919932678521 ], [ 5.768007347484708, 53.245614280572369 ], [ 5.775984991358567, 53.243054289343398 ], [ 5.78372748951074, 53.240247019377748 ], [ 5.791213536010158, 53.237200211756807 ], [ 5.79842254485511, 53.233922266525184 ], [ 5.80533470713133, 53.23042221912646 ], [ 5.811931045843039, 53.226709715076787 ], [ 5.818193468260841, 53.222794982952479 ], [ 5.824104815639708, 53.21868880577189 ], [ 5.829648910169527, 53.214402490856173 ], [ 5.834810599030837, 53.209947838258557 ], [ 5.839575795438468, 53.205337107854483 ], [ 5.84393151656635, 53.200582985189442 ], [ 5.847865918257502, 53.195698546184161 ], [ 5.851368326434112, 53.19069722079918 ], [ 5.854429265133517, 53.185592755764603 ], [ 5.857040481107149, 53.180399176481345 ], [ 5.859194964930435, 53.175130748203671 ], [ 5.860886968582721, 53.1698019366127 ], [ 5.862112019467268, 53.164427367893111 ], [ 5.862866930852221, 53.159021788425051 ] ] ] } },
{ "type": "Feature", "properties": { "name": "Gelderland", "regioFacetId": "tcm:106-353445-1024", "level": 3, "join_name": "gelderland", "all years": 2085952, "pop": 2085952 }, "geometry": { "type": "Polygon", "coordinates": [ [ [ 6.233430902238768, 52.070541986784619 ], [ 6.233834844544037, 52.060826019099814 ], [ 6.233412861159798, 52.051110374480452 ], [ 6.232166644531655, 52.041421676612806 ], [ 6.230100140214776, 52.031786458240546 ], [ 6.22721953027683, 52.022231088717405 ], [ 6.223533210714459, 52.012781702190857 ], [ 6.21905176300592, 52.003464126607795 ], [ 6.213787919936188, 51.994303813729715 ], [ 6.207756525843473, 51.985325770339635 ], [ 6.200974491447396, 51.976554490818586 ], [ 6.193460743429916, 51.968013891263951 ], [ 6.185236168949643, 51.959727245315882 ], [ 6.176323555278942, 51.951717121853129 ], [ 6.166747524761147, 51.944005324711945 ], [ 6.156534465292243, 51.936612834576742 ], [ 6.145712456537568, 51.929559753183284 ], [ 6.134311192099767, 51.922865249969121 ], [ 6.122361897858794, 51.916547511298454 ], [ 6.109897246709171, 51.910623692381606 ], [ 6.096951269923162, 51.905109872002186 ], [ 6.083559265371588, 51.900021010156813 ], [ 6.069757702836598, 51.895370908705871 ], [ 6.055584126652815, 51.891172175125128 ], [ 6.041077055914998, 51.887436189440841 ], [ 6.026275882491813, 51.88417307442333 ], [ 6.01122076708641, 51.881391669105909 ], [ 5.995952533585334, 51.879099505688401 ], [ 5.980512561938034, 51.877302789876815 ], [ 5.96494267980966, 51.876006384702336 ], [ 5.949285053250205, 51.87521379785565 ], [ 5.933582076623326, 51.874927172563964 ], [ 5.917876262038236, 51.875147282030952 ], [ 5.902210128528202, 51.875873527451162 ], [ 5.8866260912191, 51.877103939603167 ], [ 5.871166350731486, 51.878835184017603 ], [ 5.855872783059484, 51.881062569708213 ], [ 5.840786830169595, 51.883780061446103 ], [ 5.825949391562282, 51.886980295550288 ], [ 5.811400717038855, 51.890654599158353 ], [ 5.797180300915735, 51.894793012934663 ], [ 5.783326777927483, 51.899384317164653 ], [ 5.769877821059463, 51.904416061176782 ], [ 5.756870041549798, 51.909874596025041 ], [ 5.744338891299316, 51.915745110358223 ], [ 5.732318567926638, 51.922011669393811 ], [ 5.720841922703832, 51.928657256906753 ], [ 5.7099403716059, 51.935663820136277 ], [ 5.699643809704959, 51.943012317505968 ], [ 5.689980529136699, 51.950682769045365 ], [ 5.680977140863535, 51.958654309393765 ], [ 5.67265850045449, 51.966905243259966 ], [ 5.665047638097296, 51.975413103204779 ], [ 5.658165693052784, 51.984154709605853 ], [ 5.652031852755495, 51.993106232658782 ], [ 5.646663296757563, 52.002243256260499 ], [ 5.642075145705371, 52.011540843616437 ], [ 5.638280415529629, 52.020973604405683 ], [ 5.635289977020412, 52.030515763333511 ], [ 5.633112520948178, 52.040141229895163 ], [ 5.631754528880351, 52.049823669169548 ], [ 5.631220249831063, 52.059536573457336 ], [ 5.631511682868169, 52.069253334573595 ], [ 5.63262856578752, 52.078947316600832 ], [ 5.634568369949255, 52.088591928906418 ], [ 5.637326301354837, 52.098160699223747 ], [ 5.64089530802631, 52.10762734659582 ], [ 5.645266093731482, 52.116965853977504 ], [ 5.650427138079963, 52.126150540291412 ], [ 5.656364722995212, 52.135156131732714 ], [ 5.663062965547785, 52.143957832117351 ], [ 5.670503857113847, 52.152531392069534 ], [ 5.678667308801699, 52.160853176845819 ], [ 5.687531203067048, 52.168900232595078 ], [ 5.697071451415813, 52.176650350856455 ], [ 5.70726205807042, 52.184082131101491 ], [ 5.718075189453411, 52.191175041130244 ], [ 5.729481249319374, 52.197909475136953 ], [ 5.741448959344111, 52.204266809265881 ], [ 5.753945444957805, 52.210229454485273 ], [ 5.766936326187426, 52.21578090661334 ], [ 5.780385813252667, 52.220905793339753 ], [ 5.794256806639456, 52.22558991809283 ], [ 5.808511001355709, 52.22982030061312 ], [ 5.823108995055798, 52.233585214103279 ], [ 5.838010399702854, 52.236874218834728 ], [ 5.853173956422303, 52.23967819210209 ], [ 5.868557653185502, 52.241989354428576 ], [ 5.884118844949347, 52.243801291936251 ], [ 5.899814375866476, 52.245108974808538 ], [ 5.915600703170977, 52.245908771783846 ], [ 5.931434022336744, 52.246198460632698 ], [ 5.947270393099538, 52.245977234583847 ], [ 5.963065865929813, 52.245245704677664 ], [ 5.978776608541144, 52.244005898038829 ], [ 5.994359032018887, 52.242261252073725 ], [ 6.009769916155406, 52.240016604611235 ], [ 6.024966533581949, 52.237278180018954 ], [ 6.039906772292755, 52.234053571339942 ], [ 6.054549256164433, 52.23035171850816 ], [ 6.068853463082922, 52.226182882713523 ], [ 6.082779840301334, 52.221558616999488 ], [ 6.096289916664499, 52.216491733188342 ], [ 6.109346411350304, 52.210996265240958 ], [ 6.121913338793518, 52.205087429168586 ], [ 6.133956109474594, 52.198781579624921 ], [ 6.145441626274216, 52.192096163316528 ], [ 6.156338376113413, 52.185049669379431 ], [ 6.16661651661914, 52.177661576877846 ], [ 6.176247957576245, 52.169952299589433 ], [ 6.185206436948033, 52.161943128248843 ], [ 6.193467591269791, 52.153656170427958 ], [ 6.201009020241899, 52.145114288236769 ], [ 6.207810345371696, 52.136341034035162 ], [ 6.213853262535932, 52.127360584348843 ], [ 6.21912158835813, 52.118197672187939 ], [ 6.223601300317523, 52.108877517968565 ], [ 6.227280570528427, 52.099425759241129 ], [ 6.230149793150307, 52.089868379429831 ], [ 6.232201605410089, 52.080231635789332 ], [ 6.233430902238768, 52.070541986784619 ] ] ] } },
{ "type": "Feature", "properties": { "name": "Groningen", "regioFacetId": "tcm:106-353502-1024", "level": 3, "join_name": "groningen", "all years": 585866, "pop": 585866 }, "geometry": { "type": "Polygon", "coordinates": [ [ [ 6.897519260932304, 53.266458001550056 ], [ 6.897665343545656, 53.261308204675871 ], [ 6.897361681858626, 53.256160996391422 ], [ 6.896609268929474, 53.251030482060685 ], [ 6.895410325748821, 53.245930716328417 ], [ 6.893768293417487, 53.240875664685674 ], [ 6.891687822023968, 53.235879165332712 ], [ 6.889174756270387, 53.230954891442536 ], [ 6.886236117903937, 53.226116313926049 ], [ 6.882880085018807, 53.221376664798385 ], [ 6.879115968300728, 53.216748901243413 ], [ 6.874954184293847, 53.212245670471276 ], [ 6.870406225775918, 53.207879275461316 ], [ 6.865484629334585, 53.203661641679588 ], [ 6.860202940243254, 53.199604284857465 ], [ 6.854575674740881, 53.195718279914658 ], [ 6.848618279825137, 53.192014231106306 ], [ 6.842347090673464, 53.188502243470609 ], [ 6.835779285811018, 53.185191895649822 ], [ 6.828932840148721, 53.182092214153165 ], [ 6.821826476018663, 53.17921164912687 ], [ 6.814479612337357, 53.176558051692226 ], [ 6.806912312031016, 53.174138652908042 ], [ 6.799145227859571, 53.171960044410568 ], [ 6.791199546779099, 53.170028160778308 ], [ 6.78309693298448, 53.168348263665962 ], [ 6.774859469776276, 53.166924927746571 ], [ 6.766509600397794, 53.165762028496005 ], [ 6.758070067989508, 53.164862731850725 ], [ 6.749563854809759, 53.164229485763073 ], [ 6.741014120871454, 53.163864013675898 ], [ 6.732444142145409, 53.163767309931245 ], [ 6.723877248481651, 53.163939637125289 ], [ 6.715336761400344, 53.16438052541524 ], [ 6.706845931904193, 53.165088773780198 ], [ 6.698427878464135, 53.166062453232513 ], [ 6.690105525329902, 53.167298911972011 ], [ 6.681901541316387, 53.168794782470044 ], [ 6.673838279216357, 53.17054599046633 ], [ 6.665937715988706, 53.172547765855889 ], [ 6.658221393870645, 53.174794655439918 ], [ 6.650710362560521, 53.177280537508359 ], [ 6.64342512261651, 53.179998638218812 ], [ 6.636385570214371, 53.182941549730735 ], [ 6.629610943405257, 53.186101250050015 ], [ 6.623119770012344, 53.189469124534632 ], [ 6.616929817301964, 53.193035989007257 ], [ 6.611058043562163, 53.196792114417391 ], [ 6.605520551718141, 53.200727252990461 ], [ 6.600332545110406, 53.204830665798077 ], [ 6.595508285557531, 53.209091151679424 ], [ 6.591061053820998, 53.213497077440216 ], [ 6.587003112585095, 53.218036409251653 ], [ 6.583345672059639, 53.222696745168861 ], [ 6.580098858308224, 53.227465348684746 ], [ 6.577271684398556, 53.232329183231982 ], [ 6.574872024465816, 53.237274947543185 ], [ 6.572906590773109, 53.242289111776458 ], [ 6.571380913846542, 53.247357954310807 ], [ 6.570299325755109, 53.252467599114077 ], [ 6.569664946598131, 53.257604053583464 ], [ 6.569479674254914, 53.262753246757114 ], [ 6.569744177443368, 53.267901067793922 ], [ 6.57045789212539, 53.273033404616626 ], [ 6.571619021288313, 53.278136182613423 ], [ 6.573224538122226, 53.283195403291117 ], [ 6.575270192603761, 53.288197182773771 ], [ 6.577750521487226, 53.293127790039534 ], [ 6.580658861694059, 53.297973684789248 ], [ 6.583987367081396, 53.302721554840282 ], [ 6.587727028560677, 53.307358352940319 ], [ 6.591867697526404, 53.311871332896445 ], [ 6.596398112545264, 53.316248084916737 ], [ 6.601305929245031, 53.320476570062915 ], [ 6.606577753332526, 53.32454515371488 ], [ 6.612199176659369, 53.328442637950239 ], [ 6.618154816244223, 53.332158292744865 ], [ 6.624428356149987, 53.335681885903035 ], [ 6.631002592104699, 53.339003711629786 ], [ 6.637859478745188, 53.342114617661018 ], [ 6.644980179353207, 53.345006030871282 ], [ 6.652345117945089, 53.34766998128319 ], [ 6.659934033567064, 53.350099124407159 ], [ 6.667726036640647, 53.352286761844418 ], [ 6.675699667194706, 53.354226860091835 ], [ 6.683832954813933, 53.35591406749198 ], [ 6.692103480126996, 53.35734372927719 ], [ 6.700488437651615, 53.358511900662513 ], [ 6.708964699809068, 53.35941535794759 ], [ 6.717508881915702, 53.360051607594052 ], [ 6.726097407955573, 53.36041889325071 ], [ 6.734706576935254, 53.360516200705113 ], [ 6.74331262961952, 53.36034326074661 ], [ 6.751891815445233, 53.35990054993173 ], [ 6.76042045941001, 53.35918928924989 ], [ 6.768875028732296, 53.358211440693175 ], [ 6.777232199080411, 53.356969701740475 ], [ 6.785468920169837, 53.355467497772921 ], [ 6.793562480530187, 53.353708972443165 ], [ 6.801490571246828, 53.35169897602804 ], [ 6.809231348485777, 53.349443051799312 ], [ 6.816763494615184, 53.346947420454157 ], [ 6.824066277742128, 53.344218962651546 ], [ 6.831119609489259, 53.341265199707898 ], [ 6.837904100842512, 53.338094272508911 ], [ 6.844401115908237, 53.334714918701543 ], [ 6.850592823425742, 53.33113644823343 ], [ 6.856462245889522, 53.327368717312936 ], [ 6.861993306143998, 53.323422100866871 ], [ 6.867170871322643, 53.31930746357704 ], [ 6.87198079401275, 53.315036129581159 ], [ 6.87640995053681, 53.310619850926628 ], [ 6.880446276251283, 53.306070774869326 ], [ 6.884078797773904, 53.301401410112604 ], [ 6.887297662060528, 53.296624592083724 ], [ 6.890094162263501, 53.291753447348341 ], [ 6.892460760313251, 53.286801357264061 ], [ 6.894391106175955, 53.281781920977856 ], [ 6.895880053749935, 53.276708917871026 ], [ 6.896923673374176, 53.271596269558728 ], [ 6.897519260932304, 53.266458001550056 ] ] ] } },
{ "type": "Feature", "properties": { "name": "Limburg", "regioFacetId": "tcm:106-353526-1024", "level": 3, "join_name": "limburg", "all years": 1117201, "pop": 1117201 }, "geometry": { "type": "Polygon", "coordinates": [ [ [ 6.14353255397037, 51.211377840982621 ], [ 6.143831362030883, 51.20426649489017 ], [ 6.143537019135281, 51.197154982408598 ], [ 6.142650606053491, 51.190062792657983 ], [ 6.141174823428089, 51.18300935286566 ], [ 6.139113981410233, 51.176013975257021 ], [ 6.136473984953756, 51.169095804357255 ], [ 6.133262314839368, 51.162273764845885 ], [ 6.129488004510878, 51.155566510103355 ], [ 6.12516161281573, 51.148992371585855 ], [ 6.12029519275114, 51.142569309161431 ], [ 6.114902256326223, 51.136314862537297 ], [ 6.108997735658694, 51.130246103903872 ], [ 6.102597940432282, 51.124379591917794 ], [ 6.095720511848571, 51.118731327141077 ], [ 6.088384373213118, 51.11331670905011 ], [ 6.080609677302313, 51.108150494722246 ], [ 6.072417750662763, 51.103246759303936 ], [ 6.063831035000249, 51.098618858358726 ], [ 6.054873025820029, 51.094279392188149 ], [ 6.045568208484439, 51.090240172213434 ], [ 6.035941991857642, 51.086512189500397 ], [ 6.026020639710747, 51.083105585503745 ], [ 6.015831200063645, 51.080029625102057 ], [ 6.005401432642577, 51.077292671988182 ], [ 5.994759734634926, 51.074902166474217 ], [ 5.983935064924626, 51.072864605764096 ], [ 5.972956866993558, 51.071185526740635 ], [ 5.961854990675723, 51.069869491308182 ], [ 5.950659612952283, 51.068920074325014 ], [ 5.939401157976462, 51.068339854154431 ], [ 5.928110216518431, 51.068130405856415 ], [ 5.916817465020415, 51.068292297035747 ], [ 5.905553584452996, 51.068825086356419 ], [ 5.894349179163713, 51.069727324725619 ], [ 5.883234695908809, 51.070996559143857 ], [ 5.87224034325899, 51.072629339212817 ], [ 5.861396011569586, 51.074621226284641 ], [ 5.850731193704745, 51.076966805231152 ], [ 5.840274906704556, 51.079659698805031 ], [ 5.830055614583, 51.082692584558558 ], [ 5.820101152443112, 51.086057214279592 ], [ 5.810438652094389, 51.089744435898268 ], [ 5.801094469355563, 51.093744217811981 ], [ 5.792094113223871, 51.098045675569779 ], [ 5.783462177089373, 51.102637100852057 ], [ 5.775222272170415, 51.10750599267525 ], [ 5.767396963343015, 51.112639090745169 ], [ 5.760007707533798, 51.118022410877821 ], [ 5.753074794842122, 51.123641282400314 ], [ 5.746617292552834, 51.129480387439493 ], [ 5.740652992196701, 51.135523802000499 ], [ 5.735198359810033, 51.141755038732704 ], [ 5.730268489539969, 51.148157091275088 ], [ 5.725877060735438, 51.154712480069229 ], [ 5.722036298657455, 51.161403299522384 ], [ 5.718756938935383, 51.16821126640054 ], [ 5.716048195887919, 51.175117769325482 ], [ 5.713917734819813, 51.182103919247602 ], [ 5.712371648396196, 51.189150600762041 ], [ 5.711414437187564, 51.196238524132497 ], [ 5.71104899446823, 51.203348277884572 ], [ 5.711276595341226, 51.210460381827559 ], [ 5.712096890251192, 51.217555340361614 ], [ 5.713507902936011, 51.224613695925449 ], [ 5.715506032855489, 51.231616082437881 ], [ 5.718086062123552, 51.238543278586022 ], [ 5.721241166957246, 51.245376260811902 ], [ 5.724962933642964, 51.252096255849033 ], [ 5.729241379006493, 51.258684792660922 ], [ 5.734064975359947, 51.265123753633873 ], [ 5.739420679884255, 51.271395424877973 ], [ 5.745293968391743, 51.277482545490955 ], [ 5.751668873398914, 51.283368355642835 ], [ 5.758528026424784, 51.289036643340317 ], [ 5.765852704415981, 51.294471789734466 ], [ 5.773622880184953, 51.299658812837308 ], [ 5.781817276733562, 51.30458340951774 ], [ 5.790413425320197, 51.309231995651523 ], [ 5.799387727114567, 51.313591744304453 ], [ 5.808715518271114, 51.317650621833693 ], [ 5.818371138238795, 51.321397421797869 ], [ 5.828328001112659, 51.324821796572444 ], [ 5.838558669820709, 51.327914286573886 ], [ 5.849034932928399, 51.330666347002555 ], [ 5.859727883832589, 51.333070372022355 ], [ 5.870608002107374, 51.335119716301726 ], [ 5.88164523675526, 51.336808713849827 ], [ 5.89280909110946, 51.338132694088664 ], [ 5.904068709126337, 51.33908799511142 ], [ 5.915392962801208, 51.339671974085277 ], [ 5.926750540435964, 51.33988301476635 ], [ 5.93811003548365, 51.339720532102618 ], [ 5.949440035692362, 51.339184973910903 ], [ 5.960709212269872, 51.338277819621815 ], [ 5.971886408790088, 51.337001576097087 ], [ 5.982940729563539, 51.33535977053161 ], [ 5.993841627196261, 51.333356940462529 ], [ 6.004558989064955, 51.33099862091639 ], [ 6.015063222440509, 51.328291328734217 ], [ 6.025325337997709, 51.325242544123043 ], [ 6.035317031455507, 51.321860689491253 ], [ 6.045010763099842, 51.318155105633217 ], [ 6.054379834949522, 51.314136025336296 ], [ 6.063398465335156, 51.30981454449222 ], [ 6.072041860671482, 51.305202590800313 ], [ 6.080286284214362, 51.300312890159518 ], [ 6.088109121605642, 51.295158930850427 ], [ 6.095488943021274, 51.289754925616798 ], [ 6.102405561751152, 51.284115771760376 ], [ 6.108840089052549, 51.278257009369355 ], [ 6.114774985132583, 51.272194777805353 ], [ 6.120194106129654, 51.265945770577979 ], [ 6.125082746977692, 51.25952718874084 ], [ 6.129427680051855, 51.252956692945808 ], [ 6.133217189508792, 51.24625235429594 ], [ 6.136441101249075, 51.239432604139346 ], [ 6.139090808444155, 51.232516182949524 ], [ 6.141159292584279, 51.225522088438453 ], [ 6.142641140018362, 51.218469523049961 ], [ 6.14353255397037, 51.211377840982621 ] ] ] } },
{ "type": "Feature", "properties": { "name": "Noord-Brabant", "regioFacetId": "tcm:106-353560-1024", "level": 3, "join_name": "noordbrabant", "all years": 2562955, "pop": 2562955 }, "geometry": { "type": "Polygon", "coordinates": [ [ [ 5.505940293953521, 51.57721338171396 ], [ 5.506550697045648, 51.566446937427095 ], [ 5.506255412190469, 51.555675267549923 ], [ 5.505055890168506, 51.544927893447436 ], [ 5.502956054322013, 51.53423424915313 ], [ 5.499962282863081, 51.523623600981857 ], [ 5.496083384611848, 51.513124967825078 ], [ 5.491330568304694, 51.502767042340949 ], [ 5.485717405626595, 51.492578113246275 ], [ 5.479259788135622, 51.482585988912675 ], [ 5.471975878259692, 51.472817922463555 ], [ 5.463886054557095, 51.463300538562152 ], [ 5.455012851442456, 51.454059762074962 ], [ 5.445380893588804, 51.445120748787616 ], [ 5.435016825224699, 51.436507818344104 ], [ 5.423949234552329, 51.428244389571866 ], [ 5.4122085735189, 51.420352918348897 ], [ 5.399827073178921, 51.412854838160698 ], [ 5.386838654889747, 51.405770503487375 ], [ 5.373278837586454, 51.39911913615294 ], [ 5.359184641385602, 51.392918774761156 ], [ 5.34459448776999, 51.387186227333686 ], [ 5.329548096608578, 51.381937027258417 ], [ 5.314086380267708, 51.377185392647085 ], [ 5.298251335070677, 51.372944189193127 ], [ 5.282085930364076, 51.369224896612515 ], [ 5.265633995449627, 51.366037578741114 ], [ 5.248940104640949, 51.363390857354503 ], [ 5.232049460704785, 51.361291889767045 ], [ 5.215007776946539, 51.359746350258504 ], [ 5.197861158199704, 51.358758415368804 ], [ 5.18065598097904, 51.358330753091408 ], [ 5.163438773057091, 51.358464515989041 ], [ 5.146256092723525, 51.359159338245682 ], [ 5.12915440798681, 51.360413336660969 ], [ 5.112179975977428, 51.362223115583944 ], [ 5.095378722812009, 51.3645837757756 ], [ 5.07879612417738, 51.367488927179977 ], [ 5.062477086893618, 51.370930705576043 ], [ 5.046465831715039, 51.374899793073673 ], [ 5.030805777627879, 51.379385442408569 ], [ 5.015539427903073, 51.384375504982678 ], [ 5.000708258162463, 51.389856462588192 ], [ 4.986352606715903, 51.395813462744385 ], [ 4.972511567426443, 51.402230357569209 ], [ 4.95922288535949, 51.409089746097827 ], [ 4.946522855470883, 51.41637301995312 ], [ 4.93444622458719, 51.424060412264339 ], [ 4.923026096929472, 51.432131049721917 ], [ 4.912293843429507, 51.440563007648763 ], [ 4.902279015084303, 51.449333367959817 ], [ 4.89300926059135, 51.458418279873854 ], [ 4.884510248502684, 51.467793023234265 ], [ 4.876805594130994, 51.477432074287101 ], [ 4.86991679143519, 51.487309173757986 ], [ 4.863863150106288, 51.497397397061555 ], [ 4.858661738066999, 51.507669226470789 ], [ 4.854327329589863, 51.518096625066292 ], [ 4.850872359229402, 51.528651112279235 ], [ 4.848306881753106, 51.539303840835885 ], [ 4.846638538244702, 51.550025674905385 ], [ 4.845872528540001, 51.560787269247157 ], [ 4.846011590142268, 51.571559149149742 ], [ 4.8470559837486, 51.582311790947827 ], [ 4.849003485503002, 51.593015702900516 ], [ 4.851849386074153, 51.603641506210401 ], [ 4.855586496638009, 51.614160015960152 ], [ 4.860205161825303, 51.624542321740698 ], [ 4.865693279674052, 51.634759867744158 ], [ 4.872036328605295, 51.644784532092793 ], [ 4.879217401418225, 51.654588705175726 ], [ 4.887217246277589, 51.66414536676556 ], [ 4.896014314642274, 51.673428161687447 ], [ 4.905584816059785, 51.6824114738167 ], [ 4.91590277972606, 51.691070498182157 ], [ 4.926940122685052, 51.699381310957442 ], [ 4.938666724516787, 51.707320937126106 ], [ 4.951050508337258, 51.714867415612034 ], [ 4.964057527907867, 51.721999861672437 ], [ 4.97765206062714, 51.728698526358329 ], [ 4.991796706152587, 51.73494485285422 ], [ 5.006452490376367, 51.740721529518126 ], [ 5.021578974455311, 51.74601253945179 ], [ 5.037134368573072, 51.750803206441425 ], [ 5.053075650091243, 51.755080237119927 ], [ 5.069358685725863, 51.758831759212995 ], [ 5.085938357367503, 51.762047355743846 ], [ 5.102768691145738, 51.764718095083708 ], [ 5.11980298932381, 51.766836556748849 ], [ 5.136993964595441, 51.768396852858054 ], [ 5.154293876344648, 51.769394645179304 ], [ 5.171654668419477, 51.769827157708434 ], [ 5.189028107963528, 51.769693184737342 ], [ 5.206365924843733, 51.768993094384406 ], [ 5.223619951210005, 51.767728827574942 ], [ 5.240742260721668, 51.765903892474618 ], [ 5.257685306976909, 51.763523354393683 ], [ 5.27440206068568, 51.760593821195691 ], [ 5.290846145132086, 51.757123424258197 ], [ 5.306971969480727, 51.753121795048784 ], [ 5.322734859491583, 51.748600037393359 ], [ 5.338091185220475, 51.743570695527858 ], [ 5.352998485296132, 51.738047718038551 ], [ 5.36741558738112, 51.732046417808469 ], [ 5.381302724441277, 51.725583428100755 ], [ 5.394621646467808, 51.718676654921111 ], [ 5.407335727316514, 51.711345225813474 ], [ 5.419410066350523, 51.703609435252595 ], [ 5.430811584595802, 51.695490686808625 ], [ 5.441509115142319, 51.687011432266125 ], [ 5.451473487548429, 51.678195107889714 ], [ 5.460677606030767, 51.669066068035526 ], [ 5.469096521247621, 51.65964951631392 ], [ 5.476707495509123, 51.649971434515436 ], [ 5.483490061273455, 51.640058509516756 ], [ 5.489426072813641, 51.629938058387452 ], [ 5.494499750964886, 51.619637951921696 ], [ 5.498697720887374, 51.609186536822051 ], [ 5.50200904280364, 51.598612556763413 ], [ 5.50442523569368, 51.587945072567031 ], [ 5.505940293953521, 51.57721338171396 ] ] ] } },
{ "type": "Feature", "properties": { "name": "Noord-Holland", "regioFacetId": "tcm:106-353628-1024", "level": 3, "join_name": "noordholland", "all years": 2879527, "pop": 2879527 }, "geometry": { "type": "Polygon", "coordinates": [ [ [ 5.270212230580991, 52.674316639455625 ], [ 5.270949598125817, 52.662908329979246 ], [ 5.270703099354364, 52.65149241388238 ], [ 5.269474175486365, 52.640100179783488 ], [ 5.267266953998211, 52.628762827312976 ], [ 5.264088229023669, 52.617511381915541 ], [ 5.259947434631354, 52.606376610388622 ], [ 5.254856611139584, 52.595388937381351 ], [ 5.248830364644741, 52.584578363072964 ], [ 5.241885819953413, 52.573974382243918 ], [ 5.234042567121621, 52.563605904946641 ], [ 5.225322601815789, 52.553501178976191 ], [ 5.215750259720542, 52.543687714334446 ], [ 5.205352145227628, 52.534192209873552 ], [ 5.194157054647968, 52.525040482297548 ], [ 5.182195894195879, 52.516257397692534 ], [ 5.169501593000466, 52.507866805748449 ], [ 5.156109011403888, 52.499891476826797 ], [ 5.142054844810371, 52.492353042020653 ], [ 5.127377523353231, 52.48527193634461 ], [ 5.112117107649517, 52.478667345183986 ], [ 5.096315180914126, 52.472557154123749 ], [ 5.080014737706334, 52.466957902269108 ], [ 5.063260069582973, 52.461884739160944 ], [ 5.046096647932812, 52.457351385380235 ], [ 5.028571004266973, 52.453370096927209 ], [ 5.010730608240394, 52.449951633451981 ], [ 4.992623743678781, 52.447105230404496 ], [ 4.974299382885684, 52.444838575163033 ], [ 4.955807059503355, 52.443157787191382 ], [ 4.937196740201083, 52.442067402266808 ], [ 4.918518695463966, 52.441570360810694 ], [ 4.899823369754875, 52.441668000346816 ], [ 4.881161251321917, 52.442360052101847 ], [ 4.862582741923498, 52.443644641754901 ], [ 4.844138026742986, 52.445518294333908 ], [ 4.82587694476485, 52.447975943247812 ], [ 4.807848859884273, 52.45101094343503 ], [ 4.790102533022224, 52.454615088599745 ], [ 4.77268599551843, 52.458778632499062 ], [ 4.75564642407455, 52.46349031423523 ], [ 4.739030017520453, 52.468737387498322 ], [ 4.722881875676488, 52.474505653696568 ], [ 4.707245880584727, 52.480779498901981 ], [ 4.692164580382438, 52.487541934531194 ], [ 4.677679076090386, 52.494774641671988 ], [ 4.663828911588626, 52.502458018957761 ], [ 4.650651967051193, 52.510571233883539 ], [ 4.638184356110323, 52.519092277448223 ], [ 4.626460327019002, 52.527998021999842 ], [ 4.615512168078423, 52.537264282151448 ], [ 4.605370117594343, 52.546865878627514 ], [ 4.596062278622663, 52.556776704892059 ], [ 4.587614538760284, 52.566969796401743 ], [ 4.58005049523221, 52.577417402319263 ], [ 4.573391385519786, 52.588091059514305 ], [ 4.567656023767776, 52.598961668672217 ], [ 4.562860743199924, 52.609999572322785 ], [ 4.559019344763226, 52.621174634594524 ], [ 4.556143052210697, 52.632456322493269 ], [ 4.554240473820596, 52.64381378849766 ], [ 4.553317570936945, 52.655215954257251 ], [ 4.553377633502071, 52.666631595174678 ], [ 4.554421262735645, 52.678029425646827 ], [ 4.556446361098232, 52.689378184736675 ], [ 4.559448129658469, 52.700646722042251 ], [ 4.56341907296343, 52.711804083526502 ], [ 4.568349011490717, 52.72281959706892 ], [ 4.574225101738435, 52.733662957496989 ], [ 4.581031863985833, 52.744304310855426 ], [ 4.588751217732679, 52.754714337668851 ], [ 4.597362524800057, 52.764864334955163 ], [ 4.606842640048626, 52.774726296746969 ], [ 4.6171659696431, 52.784272992880261 ], [ 4.628304536763965, 52.793478045812662 ], [ 4.640228054638929, 52.802316005236591 ], [ 4.652904006737878, 52.810762420257319 ], [ 4.666297733946224, 52.818793908911644 ], [ 4.680372528502883, 52.826388224808269 ], [ 4.695089734460107, 52.833524320679302 ], [ 4.710408854394624, 52.840182408639308 ], [ 4.726287662071529, 52.846344016958227 ], [ 4.742682320736019, 52.85199204316374 ], [ 4.759547506681874, 52.857110803299442 ], [ 4.77683653772137, 52.861686077177119 ], [ 4.794501506158132, 52.865705149472838 ], [ 4.812493415842678, 52.869156846530608 ], [ 4.830762322871041, 52.872031568749939 ], [ 4.849257479468665, 52.874321318448672 ], [ 4.867927480586294, 52.876019723107021 ], [ 4.886720412720972, 52.877122053913354 ], [ 4.905584004464144, 52.877625239549417 ], [ 4.924465778270054, 52.877527875166955 ], [ 4.943313202931515, 52.876830226525058 ], [ 4.962073846246443, 52.87553422927369 ], [ 4.980695527357457, 52.87364348338501 ], [ 4.999126468248498, 52.871163242750868 ], [ 5.017315443886441, 52.868100399981351 ], [ 5.035211930502654, 52.864463466454971 ], [ 5.052766251518304, 52.860262547687462 ], [ 5.069929720629267, 52.855509314101759 ], [ 5.086654781580135, 52.850216967296745 ], [ 5.102895144173172, 52.84440020192708 ], [ 5.118605916076336, 52.838075163320859 ], [ 5.133743730014408, 52.831259400975426 ], [ 5.148266865949519, 52.823971818083876 ], [ 5.162135367880512, 52.816232617258287 ], [ 5.175311154915687, 52.80806324262565 ], [ 5.187758126299337, 52.799486318484057 ], [ 5.199442260099629, 52.79052558471642 ], [ 5.210331705293209, 52.781205829166993 ], [ 5.220396867010225, 52.771552817195129 ], [ 5.229610484732327, 52.761593218626864 ], [ 5.237947703265171, 52.751354532331582 ], [ 5.245386136335981, 52.740865008655931 ], [ 5.251905922695344, 52.730153569951611 ], [ 5.257489774631077, 52.719249729437188 ], [ 5.262123018829782, 52.708183508636139 ], [ 5.265793629548985, 52.696985353635526 ], [ 5.268492254089233, 52.685686050409899 ], [ 5.270212230580991, 52.674316639455625 ] ] ] } },
{ "type": "Feature", "properties": { "name": "Overijssel", "regioFacetId": "tcm:106-353682-1024", "level": 3, "join_name": "overijssel", "all years": 1162406, "pop": 1162406 }, "geometry": { "type": "Polygon", "coordinates": [ [ [ 6.660889933125961, 52.452933869147301 ], [ 6.661126443781275, 52.445680051146248 ], [ 6.660741136496812, 52.438428685007963 ], [ 6.65973537216952, 52.431199641494864 ], [ 6.658112208561017, 52.424012720569202 ], [ 6.655876388628257, 52.416887597289076 ], [ 6.653034324318385, 52.409843768149955 ], [ 6.64959407590694, 52.402900498015356 ], [ 6.645565326969243, 52.396076767778148 ], [ 6.640959355085184, 52.38939122289046 ], [ 6.635788998387068, 52.382862122897322 ], [ 6.630068618069143, 52.376507292104925 ], [ 6.623814056986011, 52.370344071510907 ], [ 6.617042594474665, 52.364389272119929 ], [ 6.60977289754227, 52.358659129762884 ], [ 6.602024968568448, 52.353169261534099 ], [ 6.593820089676796, 52.347934623955467 ], [ 6.585180763936126, 52.342969472971831 ], [ 6.576130653556777, 52.338287325876315 ], [ 6.566694515252137, 52.333900925259435 ], [ 6.556898132939508, 52.329822205069924 ], [ 6.546768247958097, 52.32606225886947 ], [ 6.536332486985485, 52.322631310358375 ], [ 6.525619287836451, 52.319538686242694 ], [ 6.514657823330928, 52.31679279150778 ], [ 6.503477923419961, 52.31440108715698 ], [ 6.492109995760423, 52.312370070468475 ], [ 6.480584944931041, 52.310705257816402 ], [ 6.468934090483556, 52.309411170097142 ], [ 6.457189084024059, 52.308491320794474 ], [ 6.445381825520451, 52.307948206711757 ], [ 6.433544379032711, 52.30778330139249 ], [ 6.421708888063037, 52.307997051244669 ], [ 6.409907490723603, 52.308588874377612 ], [ 6.398172234919246, 52.309557162153943 ], [ 6.386534993743007, 52.31089928345294 ], [ 6.375027381281638, 52.312611591635012 ], [ 6.363680669028164, 52.31468943419091 ], [ 6.352525703097832, 52.317127165052881 ], [ 6.341592822442918, 52.319918159538709 ], [ 6.330911778261076, 52.323054831893302 ], [ 6.320511654790385, 52.326528655386362 ], [ 6.310420791682959, 52.330330184918338 ], [ 6.300666708147306, 52.334449082081079 ], [ 6.291276029047325, 52.338874142613044 ], [ 6.282274413143881, 52.343593326183452 ], [ 6.273686483662003, 52.348593788433675 ], [ 6.265535761363822, 52.353861915198195 ], [ 6.257844600304085, 52.359383358822008 ], [ 6.25063412644123, 52.365143076485822 ], [ 6.243924179272878, 52.371125370444389 ], [ 6.237733256659896, 52.377313930079175 ], [ 6.232078462998165, 52.383691875659785 ], [ 6.226975460891509, 52.39024180370518 ], [ 6.222438426473053, 52.396945833829946 ], [ 6.218480008515749, 52.403785656956728 ], [ 6.21511129146543, 52.410742584771207 ], [ 6.212341762521933, 52.417797600292459 ], [ 6.21017928288557, 52.424931409427238 ], [ 6.208630063277057, 52.43212449337306 ], [ 6.207698643829485, 52.439357161732325 ], [ 6.207387878440707, 52.446609606195757 ], [ 6.207698923663804, 52.453861954652062 ], [ 6.208631232201682, 52.461094325576973 ], [ 6.210182551060256, 52.468286882554274 ], [ 6.212348924401838, 52.475419888779157 ], [ 6.215124701127637, 52.482473761393102 ], [ 6.218502547204537, 52.489429125499143 ], [ 6.222473462737643, 52.496266867705941 ], [ 6.227026803775496, 52.502968189049298 ], [ 6.232150308820354, 52.509514657140208 ], [ 6.237830130000921, 52.515888257390003 ], [ 6.244050868849601, 52.522071443164535 ], [ 6.250795616611084, 52.528047184721459 ], [ 6.258045998993626, 52.533799016787263 ], [ 6.265782225258691, 52.539311084633717 ], [ 6.273983141529484, 52.544568188517161 ], [ 6.282626288183319, 52.549555826347941 ], [ 6.291687961177953, 52.55426023446168 ], [ 6.301143277147046, 52.558668426369564 ], [ 6.310966242085636, 52.562768229369887 ], [ 6.321129823432733, 52.566548318909192 ], [ 6.331606025344549, 52.569998250587524 ], [ 6.34236596693952, 52.573108489709668 ], [ 6.353379963284147, 52.575870438290586 ], [ 6.364617608877563, 52.578276459431443 ], [ 6.376047863382678, 52.580319898990318 ], [ 6.387639139342199, 52.581995104479837 ], [ 6.399359391609789, 52.583297441132586 ], [ 6.411176208219286, 52.584223305083562 ], [ 6.423056902408917, 52.584770133628581 ], [ 6.434968605512492, 52.584936412525785 ], [ 6.446878360425958, 52.584721680317351 ], [ 6.458753215355015, 52.58412652965746 ], [ 6.470560317548617, 52.583152605642454 ], [ 6.48226700672281, 52.581802601147935 ], [ 6.493840907881004, 52.580080249187525 ], [ 6.505250023239125, 52.577990312317219 ], [ 6.516462822967836, 52.575538569118173 ], [ 6.527448334469222, 52.572731797800756 ], [ 6.538176229911053, 52.569577756980465 ], [ 6.548616911749484, 52.566085163686196 ], [ 6.558741595979038, 52.562263668668948 ], [ 6.568522392858132, 52.558123829087954 ], [ 6.577932384868917, 52.553677078658374 ], [ 6.586945701681072, 52.548935695353116 ], [ 6.59553759190144, 52.543912766757707 ], [ 6.603684491404034, 52.538622153184299 ], [ 6.611364088048273, 52.533078448657434 ], [ 6.618555382607359, 52.527296939889659 ], [ 6.625238745742974, 52.521293563371003 ], [ 6.631395970877516, 52.515084860700881 ], [ 6.637010322829944, 52.508687932296006 ], [ 6.642066582096874, 52.502120389611633 ], [ 6.646551084675961, 52.495400306016769 ], [ 6.650451757344084, 52.488546166467842 ], [ 6.65375814831844, 52.481576816126854 ], [ 6.656461453244125, 52.474511408072885 ], [ 6.658554536466804, 52.467369350256945 ], [ 6.660031947564367, 52.460170251851686 ], [ 6.660889933125961, 52.452933869147301 ] ] ] } },
{ "type": "Feature", "properties": { "name": "Utrecht", "regioFacetId": "tcm:106-353708-1024", "level": 3, "join_name": "utrecht", "all years": 1354834, "pop": 1354834 }, "geometry": { "type": "Polygon", "coordinates": [ [ [ 5.412081012006446, 52.108061679751827 ], [ 5.412550808230731, 52.100234993967014 ], [ 5.412354311733789, 52.09240394059826 ], [ 5.41149241026145, 52.084589982762722 ], [ 5.409967812400235, 52.076814525578946 ], [ 5.40778503637017, 52.06909885764415 ], [ 5.40495039393902, 52.061464092951041 ], [ 5.401471969542217, 52.05393111339977 ], [ 5.397359594704382, 52.046520512058535 ], [ 5.392624817869139, 52.039252537322298 ], [ 5.387280869754461, 52.032147038116193 ], [ 5.381342624360174, 52.025223410285761 ], [ 5.374826555763399, 52.018500544312275 ], [ 5.367750690845773, 52.011996774486427 ], [ 5.360134558104154, 52.005729829669917 ], [ 5.35199913270337, 51.999716785767937 ], [ 5.343366777936015, 51.993974020031985 ], [ 5.33426118326016, 51.988517167305616 ], [ 5.32470729909106, 51.983361078321181 ], [ 5.31473126852775, 51.978519780149277 ], [ 5.304360356199498, 51.974006438896716 ], [ 5.293622874421157, 51.969833324743377 ], [ 5.282548106849467, 51.966011779401157 ], [ 5.271166229835523, 51.962552186072976 ], [ 5.259508231671139, 51.959463941982861 ], [ 5.247605829929006, 51.956755433541645 ], [ 5.235491387098514, 51.954434014206939 ], [ 5.223197824720676, 51.952505985088635 ], [ 5.210758536227018, 51.950976578345127 ], [ 5.198207298688317, 51.94984994340895 ], [ 5.18557818368006, 51.949129136073196 ], [ 5.172905467472148, 51.948816110463902 ], [ 5.16022354075082, 51.948911713916814 ], [ 5.147566818081208, 51.949415684769882 ], [ 5.134969647318993, 51.950326653076601 ], [ 5.122466219179675, 51.951642144237994 ], [ 5.110090477173737, 51.953358585544706 ], [ 5.097876028115755, 51.955471315613934 ], [ 5.085856053414852, 51.957974596698882 ], [ 5.074063221353335, 51.960861629842057 ], [ 5.062529600559379, 51.964124572836994 ], [ 5.051286574878607, 51.967754560956216 ], [ 5.04036475984805, 51.97174173039685 ], [ 5.029793920974424, 51.976075244388767 ], [ 5.019602894016955, 51.98074332190329 ], [ 5.009819507472628, 51.985733268894791 ], [ 5.00047050745957, 51.991031512000447 ], [ 4.99158148519136, 51.996623634617585 ], [ 4.983176807231888, 52.002494415271975 ], [ 4.975279548716913, 52.008627868183922 ], [ 4.967911429724396, 52.015007285933855 ], [ 4.961092754971271, 52.021615284122333 ], [ 4.954842357009293, 52.028433847915018 ], [ 4.949177543087158, 52.035444380356473 ], [ 4.944114045840009, 52.042627752332301 ], [ 4.939665977960805, 52.049964354053664 ], [ 4.935845791000807, 52.057434147933442 ], [ 4.932664238438557, 52.065016722718831 ], [ 4.930130343148189, 52.072691348740761 ], [ 4.928251369388785, 52.080437034136366 ], [ 4.927032799426639, 52.088232581897437 ], [ 4.926478314891722, 52.096056647593755 ], [ 4.92658978295866, 52.103887797617595 ], [ 4.92736724743035, 52.111704567793019 ], [ 4.928808924790324, 52.119485522190843 ], [ 4.930911205276391, 52.127209311988707 ], [ 4.933668659014745, 52.134854734214045 ], [ 4.937074047239217, 52.142400790206715 ], [ 4.941118338605579, 52.149826743637433 ], [ 4.945790730595628, 52.157112177918371 ], [ 4.951078675989808, 52.16423705284204 ], [ 4.956967914371286, 52.17118176028653 ], [ 4.963442508607743, 52.17792717882562 ], [ 4.970484886240663, 52.184454727084898 ], [ 4.978075885694929, 52.190746415687045 ], [ 4.986194807204807, 52.196784897633378 ], [ 4.994819468335325, 52.20255351697098 ], [ 5.003926263961424, 52.208036355600299 ], [ 5.013490230550525, 52.213218278081754 ], [ 5.023485114577895, 52.218084974305668 ], [ 5.033883444888291, 52.222622999895336 ], [ 5.04465660880179, 52.226819814219162 ], [ 5.055774931746911, 52.230663815895049 ], [ 5.067207760189973, 52.234144375676621 ], [ 5.078923547615986, 52.237251866619211 ], [ 5.090889943304017, 52.239977691431314 ], [ 5.103073883628142, 52.242314306925486 ], [ 5.115441685604547, 52.244255245491914 ], [ 5.127959142395786, 52.245795133526599 ], [ 5.140591620474798, 52.246929706755921 ], [ 5.153304158144206, 52.247655822408568 ], [ 5.166061565100433, 52.24797146819639 ], [ 5.178828522727757, 52.247875768074941 ], [ 5.191569684804107, 52.247368984765593 ], [ 5.204249778298589, 52.246452519030647 ], [ 5.216833703940363, 52.245128905703538 ], [ 5.229286636239395, 52.243401806486744 ], [ 5.241574122641906, 52.241275999539518 ], [ 5.253662181507138, 52.238757365888837 ], [ 5.265517398597093, 52.235852872705912 ], [ 5.277107021777176, 52.232570553501169 ], [ 5.288399053633366, 52.228919485299954 ], [ 5.299362341720443, 52.22490976287056 ], [ 5.309966666165551, 52.220552470085359 ], [ 5.320182824362588, 52.215859648504335 ], [ 5.329982712504987, 52.210844263278865 ], [ 5.339339403717198, 52.20552016648152 ], [ 5.348227222559173, 52.199902057974882 ], [ 5.356621815692553, 52.194005443939844 ], [ 5.364500218512442, 52.187846593190059 ], [ 5.371840917564353, 52.181442491405676 ], [ 5.378623908582023, 52.174810793424584 ], [ 5.384830749998376, 52.167969773734853 ], [ 5.390444611798531, 52.160938275316241 ], [ 5.395450319600807, 52.153735656983002 ], [ 5.399834393868489, 52.146381739382988 ], [ 5.403585084172244, 52.138896749811664 ], [ 5.406692398439726, 52.131301266001309 ], [ 5.409148127145738, 52.123616159048069 ], [ 5.410945862412612, 52.115862535640204 ], [ 5.412081012006446, 52.108061679751827 ] ] ] } },
{ "type": "Feature", "properties": { "name": "Zeeland", "regioFacetId": "tcm:106-353735-1024", "level": 3, "join_name": "zeeland", "all years": 383488, "pop": 383488 }, "geometry": { "type": "Polygon", "coordinates": [ [ [ 3.944772426783907, 51.485896739248247 ], [ 3.945150116022996, 51.481737125135993 ], [ 3.945178197563774, 51.477570826736809 ], [ 3.944856690035603, 51.473409264604612 ], [ 3.94418656991705, 51.469263843203471 ], [ 3.943169767816853, 51.465145919673475 ], [ 3.941809162155877, 51.46106677275975 ], [ 3.940108570278807, 51.457037571989666 ], [ 3.938072737030656, 51.453069347181213 ], [ 3.935707320839957, 51.449172958365125 ], [ 3.933018877356465, 51.445359066201149 ], [ 3.930014840697639, 51.441638102967616 ], [ 3.926703502363567, 51.438020244201738 ], [ 3.923093987885903, 51.434515381065417 ], [ 3.919196231281281, 51.4311330935097 ], [ 3.915020947385181, 51.427882624308502 ], [ 3.910579602146407, 51.424772854029278 ], [ 3.90588438096737, 51.42181227700619 ], [ 3.900948155179204, 51.419008978378244 ], [ 3.895784446744898, 51.416370612251413 ], [ 3.890407391287203, 51.413904381041732 ], [ 3.884831699541659, 51.41161701605192 ], [ 3.879072617338006, 51.4095147593316 ], [ 3.873145884216431, 51.40760334686756 ], [ 3.86706769078752, 51.405887993146536 ], [ 3.86085463494737, 51.404373377130099 ], [ 3.854523677061355, 51.403063629677156 ], [ 3.848092094232025, 51.401962322445556 ], [ 3.841577433768299, 51.401072458301272 ], [ 3.834997465974541, 51.400396463258907 ], [ 3.82837013637931, 51.399936179974006 ], [ 3.8217135175247, 51.399692862803406 ], [ 3.815045760437717, 51.399667174445945 ], [ 3.808385045905947, 51.399859184171902 ], [ 3.801749535679968, 51.400268367645523 ], [ 3.795157323725025, 51.400893608341086 ], [ 3.788626387644531, 51.401733200548705 ], [ 3.782174540397498, 51.402784853962196 ], [ 3.775819382431548, 51.404045699837638 ], [ 3.769578254352318, 51.405512298706647 ], [ 3.763468190249201, 51.407180649625182 ], [ 3.757505871795979, 51.40904620093422 ], [ 3.751707583243731, 51.411103862505165 ], [ 3.746089167421464, 51.413348019438772 ], [ 3.740665982858189, 51.415772547182925 ], [ 3.735452862138027, 51.418370828030653 ], [ 3.730464071597487, 51.421135768956454 ], [ 3.725713272471423, 51.424059820744887 ], [ 3.721213483591546, 51.42713499836313 ], [ 3.716977045737788, 51.430352902524319 ], [ 3.713015587740064, 51.433704742386631 ], [ 3.70933999442369, 51.437181359329159 ], [ 3.7059603764884, 51.440773251743067 ], [ 3.702886042406339, 51.444470600773109 ], [ 3.700125472420252, 51.448263296942812 ], [ 3.697686294718224, 51.452140967592968 ], [ 3.695575263856562, 51.456093005061526 ], [ 3.693798241497095, 51.460108595530187 ], [ 3.692360179519706, 51.464176748461441 ], [ 3.691265105565206, 51.468286326547272 ], [ 3.690516111057907, 51.472426076089626 ], [ 3.690115341750672, 51.476584657730896 ], [ 3.690063990829162, 51.48075067745156 ], [ 3.690362294605193, 51.484912717750944 ], [ 3.691009530822353, 51.489059368926142 ], [ 3.692004019589878, 51.49317926036364 ], [ 3.693343126953899, 51.497261091757842 ], [ 3.695023271107439, 51.50129366417012 ], [ 3.697039931233367, 51.505265910842546 ], [ 3.699387658966817, 51.509166927680567 ], [ 3.70206009245601, 51.512986003319547 ], [ 3.705049972992511, 51.516712648690486 ], [ 3.708349164174469, 51.520336626002056 ], [ 3.71194867355837, 51.523847977056903 ], [ 3.715838676747397, 51.527237050821405 ], [ 3.720008543856493, 51.530494530170969 ], [ 3.724446868287028, 51.533611457733748 ], [ 3.729141497736141, 51.536579260759034 ], [ 3.734079567358846, 51.539389774938279 ], [ 3.73924753499373, 51.5420352671103 ], [ 3.744631218356183, 51.544508456784421 ], [ 3.750215834096498, 51.546802536419179 ], [ 3.755986038613921, 51.548911190397462 ], [ 3.761925970511514, 51.55082861264227 ], [ 3.768019294571215, 51.552549522821856 ], [ 3.774249247123032, 51.55406918109631 ], [ 3.780598682677514, 51.555383401362114 ], [ 3.787050121686099, 51.556488562955707 ], [ 3.793585799290027, 51.557381620781385 ], [ 3.800187714914812, 51.558060113833413 ], [ 3.8068376825645, 51.558522172087144 ], [ 3.813517381667014, 51.558766521738498 ], [ 3.820208408320374, 51.558792488776454 ], [ 3.826892326787718, 51.558600000877419 ], [ 3.833550721088294, 51.558189587616148 ], [ 3.840165246531309, 51.557562378992436 ], [ 3.84671768103956, 51.556720102277552 ], [ 3.853189976110619, 51.55566507719012 ], [ 3.859564307264582, 51.554400209415356 ], [ 3.865823123829272, 51.552928982486989 ], [ 3.871949197916087, 51.551255448055649 ], [ 3.877925672442689, 51.549384214572648 ], [ 3.883736108061891, 51.547320434422247 ], [ 3.889364528860283, 51.545069789540719 ], [ 3.894795466694165, 51.542638475563955 ], [ 3.900014004035325, 51.540033184550666 ], [ 3.905005815204353, 51.537261086331554 ], [ 3.90975720587469, 51.534329808538928 ], [ 3.91425515073659, 51.531247415375326 ], [ 3.918487329216569, 51.528022385182503 ], [ 3.922442159154136, 51.5246635868764 ], [ 3.926108828344934, 51.521180255315699 ], [ 3.929477323865961, 51.517581965675596 ], [ 3.932538459106216, 51.513878606900136 ], [ 3.935283898433298, 51.51008035430926 ], [ 3.937706179434261, 51.506197641438874 ], [ 3.939798732676401, 51.502241131194069 ], [ 3.941555898941767, 51.498221686397137 ], [ 3.942972943896605, 51.49415033981392 ], [ 3.944046070165067, 51.490038263742235 ], [ 3.944772426783907, 51.485896739248247 ] ] ] } },
{ "type": "Feature", "properties": { "name": "Zuid-Holland", "regioFacetId": "tcm:106-353749-1024", "level": 3, "join_name": "zuidholland", "all years": 3708696, "pop": 3708696 }, "geometry": { "type": "Polygon", "coordinates": [ [ [ 4.85935653470335, 51.954482458112906 ], [ 4.860288098498777, 51.941537854351751 ], [ 4.86012097177105, 51.928580885977659 ], [ 4.858856560365225, 51.91564706871025 ], [ 4.856499270682129, 51.902771824424129 ], [ 4.853056487332367, 51.889990384427698 ], [ 4.848538542849732, 51.87733769359113 ], [ 4.842958679655395, 51.864848315577348 ], [ 4.83633300448071, 51.85255633942387 ], [ 4.82868043547219, 51.840495287715676 ], [ 4.820022642215377, 51.828698026582671 ], [ 4.810383978926602, 51.817196677746807 ], [ 4.799791411072299, 51.80602253283638 ], [ 4.788274435684309, 51.795205970175715 ], [ 4.775864995647871, 51.784776374250498 ], [ 4.762597388245025, 51.774762058039535 ], [ 4.748508168241857, 51.765190188394328 ], [ 4.73363604581208, 51.756086714639167 ], [ 4.718021779592791, 51.747476300554055 ], [ 4.701708065170612, 51.739382259893752 ], [ 4.684739419298115, 51.731826495586731 ], [ 4.667162060141285, 51.724829442747023 ], [ 4.649023783859145, 51.718410015623618 ], [ 4.63037383781681, 51.712585558601297 ], [ 4.611262790732268, 51.70737180135712 ], [ 4.591742400056943, 51.702782818267544 ], [ 4.571865476888653, 51.698830992150832 ], [ 4.551685748714761, 51.695526982419828 ], [ 4.53125772028194, 51.692879697710929 ], [ 4.510636532887813, 51.690896273044558 ], [ 4.489877822388742, 51.689582051563789 ], [ 4.469037576216811, 51.688940570887375 ], [ 4.448171989698301, 51.688973554104543 ], [ 4.427337321965304, 51.689680905428794 ], [ 4.406589751751466, 51.691060710518641 ], [ 4.385985233362876, 51.693109241464285 ], [ 4.3655793531147, 51.69582096642867 ], [ 4.345427186524699, 51.699188563922547 ], [ 4.325583156554986, 51.703202941683998 ], [ 4.306100893193888, 51.707853260122555 ], [ 4.287033094670795, 51.713126960279006 ], [ 4.268431390597307, 51.719009796242808 ], [ 4.250346207329465, 51.725485871958611 ], [ 4.2328266358462, 51.732537682344876 ], [ 4.215920302440556, 51.740146158637096 ], [ 4.199673242520698, 51.748290717859277 ], [ 4.184129777818422, 51.756949316317261 ], [ 4.169332397303206, 51.766098506998347 ], [ 4.155321642099761, 51.775713500751323 ], [ 4.142135994706563, 51.785768231112719 ], [ 4.129811772811752, 51.796235422634183 ], [ 4.118383028001155, 51.807086662557346 ], [ 4.107881449650562, 51.81829247567314 ], [ 4.09833627429137, 51.829822402192526 ], [ 4.089774200734027, 51.84164507844725 ], [ 4.082219311228779, 51.853728320229898 ], [ 4.075692998936577, 51.866039208573468 ], [ 4.070213901975102, 51.878544177762805 ], [ 4.06579784429632, 51.891209105360865 ], [ 4.062457783640841, 51.903999404026088 ], [ 4.060203766803157, 51.916880114888166 ], [ 4.059042892427744, 51.92981600224347 ], [ 4.058979281541281, 51.942771649323376 ], [ 4.060014056009584, 51.95571155488382 ], [ 4.06214532508932, 51.968600230357175 ], [ 4.065368180224705, 51.981402297303759 ], [ 4.069674698217931, 51.994082584894905 ], [ 4.07505395287841, 52.006606227155892 ], [ 4.081492035231717, 52.018938759694642 ], [ 4.088972082342154, 52.03104621563881 ], [ 4.097474314775763, 52.042895220503695 ], [ 4.106976082701149, 52.054453085712076 ], [ 4.117451920595358, 52.065687900487944 ], [ 4.128873610490985, 52.076568621847741 ], [ 4.141210253668053, 52.087065162414945 ], [ 4.154428350661931, 52.097148475787343 ], [ 4.168491889424518, 52.106790639191317 ], [ 4.183362441442706, 52.1159649331629 ], [ 4.198999265583878, 52.124645918001832 ], [ 4.215359419404995, 52.132809506753745 ], [ 4.232397877627961, 52.140433034483145 ], [ 4.25006765745167, 52.147495323611118 ], [ 4.268319950339245, 52.153976745102128 ], [ 4.287104259887974, 52.159859275296519 ], [ 4.306368545360574, 52.165126548198465 ], [ 4.326059370428225, 52.169763903043062 ], [ 4.346122056650229, 52.173758426981074 ], [ 4.366500841191078, 52.177098992735857 ], [ 4.387139038254301, 52.179776291103089 ], [ 4.407979203693263, 52.181782858181109 ], [ 4.428963302242494, 52.183113097237694 ], [ 4.450032876799637, 52.183763295136856 ], [ 4.471129219177052, 52.183731633268273 ], [ 4.4921935417344, 52.183018192940665 ], [ 4.513167149298798, 52.181624955219441 ], [ 4.533991610777399, 52.179555795208778 ], [ 4.554608929868923, 52.176816470796808 ], [ 4.57496171428509, 52.173414605902146 ], [ 4.594993342900755, 52.169359668279142 ], [ 4.614648130262193, 52.164662941957573 ], [ 4.633871487896569, 52.159337494410806 ], [ 4.65261008188216, 52.153398138564555 ], [ 4.67081198615769, 52.146861389775296 ], [ 4.688426831071062, 52.139745417923983 ], [ 4.705405946691136, 52.13206999478686 ], [ 4.721702500432405, 52.12385643685964 ], [ 4.73727162857003, 52.115127543825956 ], [ 4.752070561252128, 52.105907532874035 ], [ 4.766058740646868, 52.096221969077604 ], [ 4.779197931893923, 52.086097692068712 ], [ 4.79145232656263, 52.075562739239693 ], [ 4.802788638352415, 52.064646265721315 ], [ 4.813176190805258, 52.053378461391482 ], [ 4.82258699683349, 52.041790465176312 ], [ 4.83099582990051, 52.029914276910866 ], [ 4.838380286725352, 52.017782667031639 ], [ 4.844720841415129, 52.005429084376715 ], [ 4.850000890962047, 51.992887562371607 ], [ 4.854206792072691, 51.980192623881123 ], [ 4.857327889328272, 51.967379185007175 ], [ 4.85935653470335, 51.954482458112906 ] ] ] } }
]
}
