{
"type": "FeatureCollection",
"name": "Netherlands-RN",
"crs": { "type": "name", "properties": { "name": "urn:ogc:def:crs:OGC:1.3:CRS84" } },
"features": [
{ "type": "Feature", "properties": { "name": "Drenthe", "regioFacetId": "tcm:106-353397-1024", "level": 3, "join_name": "drenthe", "all years": 493682, "pop": 493682 }, "geometry": { "type": "Polygon", "coordinates": [ [ [ 6.515565993094422, 52.93081848769625 ], [ 6.517779081932502, 52.944511958850995 ], [ 6.492226313013996, 52.950220898756115 ], [ 6.496290279681986, 52.955490784162947 ], [ 6.508248838662553, 52.952635827631461 ], [ 6.550591144068768, 52.997423221873831 ], [ 6.568919222953315, 52.999437536416863 ], [ 6.627712456194809, 52.963101957799545 ], [ 6.671306886575963, 52.964643877834298 ], [ 6.750551979251455, 52.913946103589247 ], [ 6.814879396185574, 52.850673781743644 ], [ 6.800165256443885, 52.770751907631777 ], [ 6.671100497952541, 52.771359268638548 ], [ 6.65678969945783, 52.763733938980856 ], [ 6.654164256480719, 52.764409607374198 ], [ 6.618671195595851, 52.783122295023979 ], [ 6.523736164860943, 52.757809007288181 ], [ 6.500128240229569, 52.777030638302222 ], [ 6.441297048042002, 52.783730354726863 ], [ 6.435775023561193, 52.788278117735558 ], [ 6.415674781644885, 52.814588018841562 ], [ 6.449210331087897, 52.832374443181038 ], [ 6.415752158571919, 52.857273947010114 ], [ 6.434744034372599, 52.86576599771108 ], [ 6.491008862056556, 52.886145275812417 ], [ 6.52808530299708, 52.889323803978399 ], [ 6.542132960710981, 52.905294522593003 ], [ 6.515565993094422, 52.93081848769625 ] ] ] } },
{ "type": "Feature", "properties": { "name": "Flevoland", "regioFacetId": "tcm:106-353410-1024", "level": 3, "join_name": "flevoland", "all years": 423021, "pop": 423021 }, "geometry": { "type": "Polygon", "coordinates": [ [ [ 5.458997498291835, 52.638088437292559 ], [ 5.562141401074094, 52.653656524455918 ], [ 5.6097608395748, 52.668610552460038 ], [ 5.624221992469725, 52.659587065340602 ], [ 5.626443129173226, 52.653976894628251 ], [ 5.628618137459104, 52.655132616389793 ], [ 5.632998040864119, 52.650389690336119 ], [ 5.638236273193679, 52.646259478652432 ], [ 5.650781884741314, 52.646296295753608 ], [ 5.680437856565214, 52.632487034890964 ], [ 5.696637663590647, 52.607951216964445 ], [ 5.685195533953117, 52.601883639215892 ], [ 5.707574025553321, 52.583126902034806 ], [ 5.621915047572769, 52.574097858713721 ], [ 5.653394924076613, 52.551053512415685 ], [ 5.654151117070487, 52.53028112127808 ], [ 5.63582670650088, 52.504647116276026 ], [ 5.539665467665375, 52.469476544012458 ], [ 5.522398047365841, 52.437704765300033 ], [ 5.49382465626872, 52.432519782910227 ], [ 5.430058136398135, 52.451610612602103 ], [ 5.394606609589107, 52.459498358407735 ], [ 5.3370762765826, 52.477662714565838 ], [ 5.366543014493352, 52.516676502318518 ], [ 5.329891351018319, 52.562592739333581 ], [ 5.452376243658429, 52.601820204097997 ], [ 5.458997498291835, 52.638088437292559 ] ] ] } },
{ "type": "Feature", "properties": { "name": "Friesland (Fryslân)", "regioFacetId": "tcm:106-353417-1024", "level": 3, "join_name": "frieslandfryslân", "all years": 649957, "pop": 649957 }, "geometry": { "type": "Polygon", "coordinates": [ [ [ 5.902021512137384, 53.277596774814931 ], [ 5.901657330673915, 53.247581676492665 ], [ 5.851732950966115, 53.236826771372591 ], [ 5.844308576167481, 53.224438238007409 ], [ 5.881684397838132, 53.213823023385373 ], [ 5.871816383477562, 53.190537049967475 ], [ 5.865309365809686, 53.185497245590327 ], [ 5.864314913956973, 53.183516650153692 ], [ 5.859848210243626, 53.181811871562019 ], [ 5.86210055622914, 53.180746128329673 ], [ 5.859475322767264, 53.179372938186127 ], [ 5.862253556189381, 53.176526796619065 ], [ 5.863812682428606, 53.175563111412757 ], [ 5.862093768019845, 53.173033059270843 ], [ 5.851922845196573, 53.164809593671016 ], [ 5.856028326373409, 53.141186968765147 ], [ 5.878170964114365, 53.139896421087236 ], [ 5.883561094798817, 53.136245122598282 ], [ 5.891484782430355, 53.134417253077487 ], [ 5.888347312873998, 53.130274877150661 ], [ 5.908504811253426, 53.125906181811928 ], [ 5.906916890814657, 53.115175411514748 ], [ 5.928096864149271, 53.095296547848321 ], [ 5.917226112050593, 53.082735193159017 ], [ 5.888096755272878, 53.080099008754388 ], [ 5.844058345154729, 53.063922017491585 ], [ 5.818795172160523, 53.053609579080671 ], [ 5.810417146463166, 53.052365343678069 ], [ 5.781887711812156, 53.053331396685017 ], [ 5.773116912267203, 53.051706215668617 ], [ 5.768203332944539, 53.049928231920461 ], [ 5.752701309592423, 53.040909999498993 ], [ 5.747229127913344, 53.041138672822328 ], [ 5.7323992311064, 53.045181555543152 ], [ 5.722740747905621, 53.040811107897277 ], [ 5.720981239832559, 53.045237694757169 ], [ 5.709486617356103, 53.052364186221588 ], [ 5.671567689070255, 53.04059964851777 ], [ 5.589451979280657, 53.028397374815242 ], [ 5.544911593729301, 53.063585388807624 ], [ 5.522794026950665, 53.103331450356457 ], [ 5.485210378893171, 53.150240596763524 ], [ 5.410815079362225, 53.173367389372267 ], [ 5.478128976187846, 53.205085705930834 ], [ 5.526299150346453, 53.235344253465634 ], [ 5.584055397151088, 53.242478376977871 ], [ 5.665977539111836, 53.262516288401407 ], [ 5.694804293151218, 53.255230191415492 ], [ 5.82483121522198, 53.263478817443939 ], [ 5.902021512137384, 53.277596774814931 ] ] ] } },
{ "type": "Feature", "properties": { "name": "Gelderland", "regioFacetId": "tcm:106-353445-1024", "level": 3, "join_name": "gelderland", "all years": 2085952, "pop": 2085952 }, "geometry": { "type": "Polygon", "coordinates": [ [ [ 5.725374790632666, 52.02470340908117 ], [ 5.659930689098815, 52.066274901955914 ], [ 5.669128427602001, 52.113548916809144 ], [ 5.612105420481706, 52.175804469424058 ], [ 5.647782573043728, 52.182052293368599 ], [ 5.690238631730473, 52.189735867025917 ], [ 5.716077457809042, 52.237141713033495 ], [ 5.859186106218614, 52.28941604549069 ], [ 5.886622689061444, 52.327641515473061 ], [ 5.891241598278103, 52.338808066716958 ], [ 5.905149020665805, 52.33803476963633 ], [ 5.928325512453753, 52.311979337682999 ], [ 6.0065242166385, 52.327490827593806 ], [ 6.027498569531526, 52.313676027674404 ], [ 6.036046885759083, 52.301289555208022 ], [ 6.04583634449002, 52.286998094761636 ], [ 6.052584340969207, 52.266973979955495 ], [ 6.049842308441096, 52.257574017261661 ], [ 6.024217464003439, 52.250196550954534 ], [ 6.021416324592746, 52.244395871562894 ], [ 6.049445777135412, 52.179931829583033 ], [ 6.055685130072056, 52.175552049930296 ], [ 6.073031054327855, 52.158727771967818 ], [ 6.075909300815315, 52.157985162788314 ], [ 6.15438975714964, 52.161000275249897 ], [ 6.171078445682771, 52.161913114820578 ], [ 6.210158448175139, 52.1714298867888 ], [ 6.226414761045879, 52.171198576580281 ], [ 6.230383243165129, 52.165049434218282 ], [ 6.244607035766888, 52.153329273307001 ], [ 6.259107134585682, 52.145253332463156 ], [ 6.271525651170744, 52.133412933265113 ], [ 6.381333614806183, 52.125027116885462 ], [ 6.383148356011338, 52.120687344412616 ], [ 6.382865515896162, 52.114453955251648 ], [ 6.376040446156202, 52.103420216911125 ], [ 6.408826918548693, 52.096268986486557 ], [ 6.391870674061177, 52.048549559147602 ], [ 6.476474355608032, 52.020612919845519 ], [ 6.453851885589027, 51.98171416569307 ], [ 6.390012947698353, 51.974198417506919 ], [ 6.210060297408838, 51.922836213428759 ], [ 6.155733548070413, 51.943514595344212 ], [ 6.075102347437211, 51.926954293705286 ], [ 6.007319210150508, 51.933985870304525 ], [ 5.940160703032102, 51.916453429742582 ], [ 5.944676927225821, 51.86841695553796 ], [ 5.930966281676605, 51.868350089806519 ], [ 5.904406404552008, 51.889122591764277 ], [ 5.893961330644063, 51.879560379790171 ], [ 5.891048426232439, 51.87641270851023 ], [ 5.856147732803186, 51.875586169031514 ], [ 5.840230654378558, 51.873161807808927 ], [ 5.819076128050496, 51.876870041746045 ], [ 5.72226889867402, 51.920315305687879 ], [ 5.610002124224803, 51.915557854039811 ], [ 5.578020866764674, 51.874881540770147 ], [ 5.543552034903327, 51.864116223298936 ], [ 5.515300951811117, 51.862242313816218 ], [ 5.441025533487696, 51.869359816050782 ], [ 5.447995658033658, 51.8862959354379 ], [ 5.405867544589348, 51.890677792502643 ], [ 5.395231737609975, 51.900860298422344 ], [ 5.37405889509748, 51.907969760808641 ], [ 5.370035713101784, 51.913639847478493 ], [ 5.364592577098226, 51.91573665042975 ], [ 5.380416225622596, 51.914426315584883 ], [ 5.362112305665067, 51.940623197935174 ], [ 5.396383349163324, 51.943435275768039 ], [ 5.413678260353823, 51.948786425092074 ], [ 5.436367589585421, 51.959088033283805 ], [ 5.437451519843719, 51.962754661440549 ], [ 5.455266260115391, 51.981484004170063 ], [ 5.474752750249193, 52.00451762756294 ], [ 5.499328613853989, 52.002699599809524 ], [ 5.529599450819858, 52.003160359672464 ], [ 5.65171891994803, 52.013610375021784 ], [ 5.676940297310955, 52.007550451253373 ], [ 5.72467039089159, 51.993320322081857 ], [ 5.740149959365957, 51.993046936546243 ], [ 5.74242596108218, 51.99434818044292 ], [ 5.745370669531633, 51.999554111913469 ], [ 5.745313125484703, 52.00586728940614 ], [ 5.736295725858663, 52.02000962554402 ], [ 5.725374790632666, 52.02470340908117 ] ] ] } },
{ "type": "Feature", "properties": { "name": "Groningen", "regioFacetId": "tcm:106-353502-1024", "level": 3, "join_name": "groningen", "all years": 585866, "pop": 585866 }, "geometry": { "type": "Polygon", "coordinates": [ [ [ 6.496133094137007, 53.310037088424679 ], [ 6.506160563281585, 53.32627501883259 ], [ 6.572156436670179, 53.340058323642424 ], [ 6.573249344957731, 53.379524661058575 ], [ 6.605300298507302, 53.39058960491424 ], [ 6.693024603423443, 53.394891050895801 ], [ 6.810394131011527, 53.344625561281738 ], [ 6.844039224410431, 53.291638769802333 ], [ 6.925158645172346, 53.291930868416102 ], [ 6.938195283659758, 53.235211071950047 ], [ 6.936737859981834, 53.156254185418632 ], [ 6.886145674490337, 53.083221459183527 ], [ 6.819644503851603, 53.148410406556067 ], [ 6.737673798864699, 53.200658254811778 ], [ 6.692537031006894, 53.199094031350739 ], [ 6.631713880746894, 53.236539643626266 ], [ 6.612735056000633, 53.234474865140307 ], [ 6.568839582553769, 53.188378403010489 ], [ 6.546067148466918, 53.193784919821937 ], [ 6.539044024803612, 53.198625111077384 ], [ 6.509916977908365, 53.200480603265738 ], [ 6.504979843399207, 53.231572955610659 ], [ 6.51853712552281, 53.242314162466776 ], [ 6.520851264169298, 53.245628837306036 ], [ 6.51881722078795, 53.24690719563494 ], [ 6.515215139792869, 53.250669623137696 ], [ 6.518699878607275, 53.252456599683676 ], [ 6.51575481459628, 53.253874097908039 ], [ 6.521671470952906, 53.256083943977245 ], [ 6.523020746532969, 53.258681265030042 ], [ 6.531691695729197, 53.265261866212875 ], [ 6.545158019958413, 53.29581132694846 ], [ 6.496133094137007, 53.310037088424679 ] ] ] } },
{ "type": "Feature", "properties": { "name": "Limburg", "regioFacetId": "tcm:106-353526-1024", "level": 3, "join_name": "limburg", "all years": 1117201, "pop": 1117201 }, "geometry": { "type": "Polygon", "coordinates": [ [ [ 5.895081673090396, 51.574725321149053 ], [ 5.884876565820186, 51.580002295962089 ], [ 5.888109167261186, 51.58351802721964 ], [ 5.899700664167689, 51.594198311869157 ], [ 5.929166268583149, 51.570996966928746 ], [ 5.944378970053062, 51.571071248367502 ], [ 6.120283719220414, 51.414176382518448 ], [ 6.130229787943554, 51.310248832219898 ], [ 6.026031330363703, 51.230207362425283 ], [ 5.983226156982441, 51.127168928865323 ], [ 5.912536268562797, 51.06694898475245 ], [ 5.994824869169226, 51.054124220442048 ], [ 6.037672448908421, 51.010173412871382 ], [ 5.989745507577815, 50.961081874598733 ], [ 5.99119717001989, 50.898631832858726 ], [ 5.799224532758967, 50.900545371944304 ], [ 5.73293615945357, 50.973306282079562 ], [ 5.81274364617432, 51.032671598946592 ], [ 5.812509554647572, 51.089276375315265 ], [ 5.878760534963607, 51.163688540154823 ], [ 5.682058687320141, 51.215607763944476 ], [ 5.754148031387446, 51.279497316917215 ], [ 5.891559298177167, 51.305399998406763 ], [ 5.867033425175373, 51.450118852330178 ], [ 6.002719596218183, 51.462256937617269 ], [ 5.946311357874531, 51.547145669158205 ], [ 5.895081673090396, 51.574725321149053 ] ] ] } },
{ "type": "Feature", "properties": { "name": "Noord-Brabant", "regioFacetId": "tcm:106-353560-1024", "level": 3, "join_name": "noordbrabant", "all years": 2562955, "pop": 2562955 }, "geometry": { "type": "Polygon", "coordinates": [ [ [ 5.225194923380661, 51.679531157052928 ], [ 5.256695396436974, 51.681706578050175 ], [ 5.295071725506007, 51.693855539649654 ], [ 5.330474491360286, 51.739495132618053 ], [ 5.45569222125738, 51.745111646153994 ], [ 5.563960863466455, 51.696693052598981 ], [ 5.587581764245124, 51.692590577525017 ], [ 5.60532300787701, 51.695343439287143 ], [ 5.654539294109024, 51.691080713394577 ], [ 5.706193312892668, 51.663532431673161 ], [ 5.763361799748572, 51.578530051969231 ], [ 5.627014889779469, 51.566077834665137 ], [ 5.652448878047121, 51.421017236162655 ], [ 5.5144447102908, 51.394758958138361 ], [ 5.442314434118995, 51.330546168578238 ], [ 5.388627419435599, 51.384171769898494 ], [ 5.340809731703192, 51.358632295525801 ], [ 5.221226634864855, 51.387815331348257 ], [ 5.104605961504328, 51.447925818940085 ], [ 4.938965979516265, 51.467586548188393 ], [ 4.887690233268428, 51.520480711256766 ], [ 4.830965337837398, 51.470538960805911 ], [ 4.741501133447892, 51.50883609822754 ], [ 4.636899985900322, 51.486511399546728 ], [ 4.66856993487179, 51.435871365470149 ], [ 4.56339093302781, 51.436777375160538 ], [ 4.524087026232956, 51.52460303528288 ], [ 4.530615441375843, 51.564667791757692 ], [ 4.506163911412643, 51.596138981811357 ], [ 4.540973892757264, 51.621399861632739 ], [ 4.562884233288779, 51.619107873699818 ], [ 4.634105271150244, 51.646055477926517 ], [ 4.835449570800971, 51.67335705491741 ], [ 4.889993700277874, 51.712377308710309 ], [ 4.902458481092501, 51.720339425079615 ], [ 4.945003093176361, 51.723370432757761 ], [ 4.981263148591533, 51.737677536571766 ], [ 5.048119920329881, 51.739106998703484 ], [ 5.056688941495163, 51.739016835403433 ], [ 5.062776888894675, 51.736684329020321 ], [ 5.067307019605134, 51.730345863315208 ], [ 5.090979339224198, 51.722444673467336 ], [ 5.102918504435302, 51.711071379954525 ], [ 5.149945833551963, 51.706283220853379 ], [ 5.142291816732232, 51.687296311556516 ], [ 5.225194923380661, 51.679531157052928 ] ] ] } },
{ "type": "Feature", "properties": { "name": "Noord-Holland", "regioFacetId": "tcm:106-353628-1024", "level": 3, "join_name": "noordholland", "all years": 2879527, "pop": 2879527 }, "geometry": { "type": "Polygon", "coordinates": [ [ [ 4.837643608295672, 53.10159698140238 ], [ 5.022518146638663, 53.045017991839174 ], [ 5.116607008191079, 52.928985435341112 ], [ 5.172082315615205, 52.830562379315836 ], [ 5.282583685341405, 52.743577303199174 ], [ 5.269897096553156, 52.672586431744818 ], [ 5.030340991534429, 52.595339044231061 ], [ 5.102660158349348, 52.505658772342514 ], [ 5.045510361565923, 52.429181111729932 ], [ 5.158160284008301, 52.39388504618934 ], [ 5.227504402578449, 52.378577074645655 ], [ 5.250039186159825, 52.36538798512192 ], [ 5.194589184464834, 52.358743552848061 ], [ 5.136119327449023, 52.275767533371713 ], [ 5.079088783578374, 52.27822437224998 ], [ 5.015897761248747, 52.280136033915859 ], [ 4.999465847149812, 52.375024426578811 ], [ 4.916509209852369, 52.338855221907615 ], [ 4.904913963968234, 52.335769786434007 ], [ 4.895532892146381, 52.335848001035764 ], [ 4.877377352548929, 52.334475034874508 ], [ 4.866482985914574, 52.326959310955203 ], [ 4.863541788746102, 52.326737252909233 ], [ 4.860368778455038, 52.325062609593267 ], [ 4.846656498543487, 52.318010581497155 ], [ 4.826932748419654, 52.315683548094221 ], [ 4.807437477209529, 52.31628645185905 ], [ 4.792333163276833, 52.307834651803404 ], [ 4.770181876327553, 52.298586082288921 ], [ 4.640086444245923, 52.30696293906405 ], [ 4.623390119591843, 52.314770543899122 ], [ 4.634056270115935, 52.38054586937352 ], [ 4.565407455047722, 52.399087923111061 ], [ 4.641936008580346, 52.536916446823852 ], [ 4.682410718166601, 52.712385521589212 ], [ 4.738492269992796, 52.838821899795171 ], [ 4.674134607784556, 52.914559604098486 ], [ 4.733093688458329, 52.932798931947609 ], [ 4.755815341336757, 53.000947570908657 ], [ 4.837643608295672, 53.10159698140238 ] ] ] } },
{ "type": "Feature", "properties": { "name": "Overijssel", "regioFacetId": "tcm:106-353682-1024", "level": 3, "join_name": "overijssel", "all years": 1162406, "pop": 1162406 }, "geometry": { "type": "Polygon", "coordinates": [ [ [ 6.249536763643889, 52.452097074848176 ], [ 6.241714530965966, 52.46348456997184 ], [ 6.222451046630288, 52.476204144106454 ], [ 6.150338746704714, 52.462092426805164 ], [ 6.129103916577747, 52.486056642892635 ], [ 6.116295039507654, 52.486790623995518 ], [ 6.111249953006856, 52.505030961378971 ], [ 6.068457429206148, 52.536791628419209 ], [ 6.185928649224863, 52.548716029876566 ], [ 6.155547305336666, 52.574555997803536 ], [ 6.171314267095099, 52.582813301263421 ], [ 6.149476309959665, 52.616542872243805 ], [ 6.109030762526697, 52.635634987676994 ], [ 6.091834636421539, 52.635650160263218 ], [ 6.084713083833814, 52.641340421515608 ], [ 6.07877619365627, 52.647866242323495 ], [ 6.092479886422752, 52.653839413935962 ], [ 6.117963193718682, 52.646732442017147 ], [ 6.127385132381437, 52.646305092157313 ], [ 6.154229888663885, 52.661894986191776 ], [ 6.162722976967053, 52.664957744961939 ], [ 6.177859176266077, 52.667732395567135 ], [ 6.226992057709037, 52.665883802630006 ], [ 6.241446722922062, 52.667995290157577 ], [ 6.259450245134856, 52.674170659318008 ], [ 6.304907942239727, 52.640335270681348 ], [ 6.259542594182003, 52.616069315082392 ], [ 6.28689363435856, 52.58029218297311 ], [ 6.294393994126469, 52.574111160527941 ], [ 6.374115306293342, 52.56508133769335 ], [ 6.406159742934915, 52.53894988274039 ], [ 6.534678686435731, 52.573510935316072 ], [ 6.582796798497775, 52.548070448771391 ], [ 6.586354163838442, 52.547152800445282 ], [ 6.581181779483239, 52.468743036223245 ], [ 6.75618856074541, 52.437089467633236 ], [ 6.790790184421878, 52.394035743082718 ], [ 6.742594772205395, 52.323289088680127 ], [ 6.670194528349139, 52.264603108487734 ], [ 6.592230279799279, 52.263276691677831 ], [ 6.562039496210956, 52.269889545834502 ], [ 6.568370494430789, 52.280011104698836 ], [ 6.568654235302812, 52.285734267492224 ], [ 6.566997849835591, 52.289721680788027 ], [ 6.465831942193341, 52.297581851305431 ], [ 6.454433472247126, 52.30847243265444 ], [ 6.441102433889494, 52.315909677927884 ], [ 6.428040821781172, 52.32669280593494 ], [ 6.424408103226026, 52.33234505785407 ], [ 6.409428453281069, 52.332582238651 ], [ 6.373376766245902, 52.323904051818793 ], [ 6.357993767493354, 52.323091876982552 ], [ 6.285658121045466, 52.320447916485577 ], [ 6.283008803738845, 52.321134430100884 ], [ 6.267094966923113, 52.336610798770486 ], [ 6.261363881388078, 52.340642519595804 ], [ 6.235811644389202, 52.399880300859287 ], [ 6.238417624993867, 52.405201978882552 ], [ 6.26205986315094, 52.41193418888318 ], [ 6.264626439210313, 52.420560934222571 ], [ 6.258494730293435, 52.438958411562886 ], [ 6.249536763643889, 52.452097074848176 ] ] ] } },
{ "type": "Feature", "properties": { "name": "Utrecht", "regioFacetId": "tcm:106-353708-1024", "level": 3, "join_name": "utrecht", "all years": 1354834, "pop": 1354834 }, "geometry": { "type": "Polygon", "coordinates": [ [ [ 4.82820228127069, 52.194003307530522 ], [ 4.820305338046083, 52.214859261357084 ], [ 4.820443085228256, 52.217939643427222 ], [ 4.830524720102669, 52.219108910858097 ], [ 4.85352484591803, 52.221826998419786 ], [ 4.869517163494939, 52.230066880998528 ], [ 4.873217906073925, 52.232023568550098 ], [ 4.876647792596716, 52.232282736314289 ], [ 4.889355309198089, 52.241064451767308 ], [ 4.910528217668782, 52.242666236810045 ], [ 4.921468019104244, 52.242573226906906 ], [ 4.934991829438609, 52.246176769917575 ], [ 5.031768613547301, 52.288423156470422 ], [ 5.050834516569835, 52.177527955333396 ], [ 5.124507368929007, 52.175267832652509 ], [ 5.19099569243154, 52.172367544815955 ], [ 5.259316187283558, 52.269300891320604 ], [ 5.323998324705562, 52.277027201762863 ], [ 5.388414660535291, 52.239239247229492 ], [ 5.476290293640947, 52.144051072422265 ], [ 5.462514782921632, 52.071628647115396 ], [ 5.562988663010872, 52.008114996344183 ], [ 5.579733429107937, 52.000949040043317 ], [ 5.593610878112496, 51.979308061319209 ], [ 5.593731319068495, 51.969639537227735 ], [ 5.589251271300337, 51.961660838363031 ], [ 5.585774767847692, 51.959663453017768 ], [ 5.562083092444483, 51.960050400581231 ], [ 5.488945457056228, 51.981735466144855 ], [ 5.450298258597013, 51.990952568091323 ], [ 5.263453764294373, 51.974578735245707 ], [ 5.217125751514504, 51.973765558364775 ], [ 5.179492054012067, 51.976457847749586 ], [ 5.135832278363409, 51.948808148484808 ], [ 5.056147806950285, 51.984944867662882 ], [ 5.049263284550543, 51.985770401401894 ], [ 5.037005820857155, 51.978057326735197 ], [ 4.988752206417741, 51.972219660276934 ], [ 4.897798740788249, 51.949087484333035 ], [ 4.828660861465035, 52.019801829851573 ], [ 4.894005985802847, 52.152137778788344 ], [ 4.82820228127069, 52.194003307530522 ] ] ] } },
{ "type": "Feature", "properties": { "name": "Zeeland", "regioFacetId": "tcm:106-353735-1024", "level": 3, "join_name": "zeeland", "all years": 383488, "pop": 383488 }, "geometry": { "type": "Polygon", "coordinates": [ [ [ 3.802298232196367, 51.585220210669114 ], [ 3.84157816241466, 51.57394492221681 ], [ 3.885983345508131, 51.577360994504367 ], [ 3.898092903511952, 51.554708678680889 ], [ 3.966342648020753, 51.538247635199681 ], [ 3.94860908269743, 51.525156305703035 ], [ 3.961380937092104, 51.509014705782825 ], [ 3.958278119558851, 51.488372263764326 ], [ 3.979078074526474, 51.443257793011313 ], [ 3.94014665109317, 51.414021107561709 ], [ 3.841829590770512, 51.381393985130387 ], [ 3.809842978810604, 51.400984015798883 ], [ 3.737919507305521, 51.417988702791959 ], [ 3.687705024873525, 51.396008745465693 ], [ 3.63881539060464, 51.463406033141048 ], [ 3.667000695987631, 51.519132735785483 ], [ 3.701486830266488, 51.512436097198119 ], [ 3.731287588064756, 51.523296801407874 ], [ 3.771433583822794, 51.568447070290155 ], [ 3.802298232196367, 51.585220210669114 ] ] ] } },
{ "type": "Feature", "properties": { "name": "Zuid-Holland", "regioFacetId": "tcm:106-353749-1024", "level": 3, "join_name": "zuidholland", "all years": 3708696, "pop": 3708696 }, "geometry": { "type": "Polygon", "coordinates": [ [ [ 4.55047, 52.226744997413988 ], [ 4.571396, 52.216958997411894 ], [ 4.734339, 52.206515997409731 ], [ 4.762074, 52.218129997412156 ], [ 4.794576, 52.226730997413959 ], [ 4.79443, 52.22342299741323 ], [ 4.802925, 52.201027997408637 ], [ 4.873623, 52.156082997399274 ], [ 4.803523, 52.013955997369486 ], [ 4.877793, 51.938030997353458 ], [ 4.975436, 51.962885997358711 ], [ 5.027243, 51.969159997360059 ], [ 5.040402, 51.977443997361824 ], [ 5.047794, 51.976557997361624 ], [ 5.133352, 51.937754997353395 ], [ 5.14846, 51.929484997351615 ], [ 5.119409, 51.898604997345025 ], [ 5.117671, 51.892569997343742 ], [ 5.080532, 51.875524997340129 ], [ 5.052199, 51.866642997338204 ], [ 4.995965, 51.861848997337127 ], [ 5.026352, 51.818856997327977 ], [ 5.008281, 51.821018997328437 ], [ 4.987757, 51.821058997328365 ], [ 4.889401, 51.81889499732798 ], [ 4.836108, 51.797838997323396 ], [ 4.773539, 51.793323997322432 ], [ 4.75524, 51.781610997319937 ], [ 4.675223, 51.724208997307464 ], [ 4.379431, 51.683591997298642 ], [ 4.275003, 51.643777997289881 ], [ 4.242786, 51.647062997290639 ], [ 4.047813, 51.694363997300954 ], [ 4.013336, 51.759011997315021 ], [ 3.886171, 51.749357997312956 ], [ 3.773675, 51.781519997319883 ], [ 3.953147, 51.850031997334632 ], [ 3.953131, 51.989143997364287 ], [ 4.110164, 52.004436997367549 ], [ 4.360002, 52.192676997406892 ], [ 4.477649, 52.332510997435698 ], [ 4.563707, 52.309297997430882 ], [ 4.55047, 52.226744997413988 ] ] ] } }
]
}
